FactoryName,Address,District,Division,PostCode,PhoneCityCode,Phone,PhoneExtension,Buildings,Stories,factoryMultiPurpose,factoryMultiFactory,floors,workers,activeMembers
4A YARN DYEING LTD.,"Kaichabari, Savar",Dhaka,Dhaka,,2,79111568,,3,1/5; 2/1; 3/1;,No,No,,1250,3
4S Park Style Ltd.,"Durgapur, Ashulia, Savar",Dhaka,Dhaka,,2,9016954,,1,1/6;,No,No,,550,2
4 Knitwear ltd,"Pathantuli,Godnail",Narayanganj,Dhaka,1400,2,7641780,,,,No,No,,450,1
4 You Clothing Ltd,367/1 Senpara parbota Mirpur Dhaka,Dhaka,Dhaka,1216,2,8020125,,,1/10;,No,No,,2000,1
A Class Composite Ltd.,"East Isdair, Beside LGED Office, Fatullah, Narayanganj",Narayanganj,Dhaka,,2,7642798,,,,No,No,,,1
A J Super Garments Ltd.,"Goshbag, Post‐ Zirabo, Thana ‐ Savar",Dhaka,Dhaka,1341,2,7702200,,1,1/6;,No,No,,2700,1
A Plus Ind.Ltd.,"Plot‐28, Milk Vita Rd., Section‐07, Mirpur, Dhaka Dhaka",,Dhaka,1216,2,9338091,,1,1/6;,No,Yes,"1/0,3,4,5;",2200,1
A&A Trousers Ltd,"Haribari Tak, Pubail Collage Gate, Pubail, Gazipur, Sadar, Gazipur",Gazipur,Dhaka,,2,224255,,1,1/5;,Yes,Yes,1/5‐2/5;,1200,1
A&B Outerwear Ltd,"Plot #29‐32, Sector # 4, CEPZ, Chittagong. Bangladesh., Sector #4 South Halishahar, CEPZ,",Chittagong,Chittagong,,2,8952704,,4,1/3; 2/2; 3/1; 4/1;,No,No,‐,845,5
A.K.M. KNIT WEAR LTD.,"14 No. Genda, Karnopara, Ulail, Savar",Dhaka,Dhaka,1340,2,7712373,,6,"1/6; 2/6,3/4, 4/2, 5/1, 6/1,7/1;",No,No,,10500,4
A.M Design Ltd.,"Diakhali, Beron, Jamgara, Ashulia",Dhaka,Dhaka,,2,7790228,,3,1/4; 2/2; 3/1;,No,No,,1650,2
A.M.C.S. Textiles Limited,41 & 52 AEPZ Narayangonj Bangladesh,Narayanganj,Dhaka,1217,2,7691251,,1,1/4;,No,No,N/A,2500,5
A.T.S. Apparels Limited,"414, Kochakuri, Talirchala,, Mouchak",Gazipur,Dhaka,,,1713042568,,6,1/7;2/1;3/1;4/1;5/1;6/1;,No,No,1/7;2/1;3/1;4/1;5/ 1;6/1;,2250,5
ABA Fashions Ltd.,"Sena Kalyan Commercial Complex (2nd Floor), Plot # 9, Block # F, Tongi, Gazipur",Gazipur,Dhaka,1710,2,9801393,,1,9;,Yes,Yes,Ground : Market 1st floor Private Bank 2nd floor : Aba Group + Child Care 3rd to 8th floor : garment maker (ABA factories+ Giant Group),1033,1
Ababil Knit Composite Ltd,"A/6,BSCIC,Shansongaon",Narayanganj,Dhaka,,,,,3,1/5; 2/3; 3/2;,No,No,‐,1234,1
ABANTI COLOUR TEX LTD,"Shashongaon, Plot No‐ S, A‐646, Enayetnagar, Fatullah",Narayanganj,Dhaka,1400,2,7672526,,6,1/10; 2/10; 3/6; 4/2; 5/1; 6/1;,No,No,,6000,5
ABC Garment Ltd.,"26 Mirpur Road, Dhaka",Dhaka,Dhaka,1205,,1711782525,,,,No,No,,550,1
Abir Fashions Ltd,"Plot # 44, Road # 02, Kutubail, Fatullah, Narayangonj",Narayanganj,Dhaka,,2,7672782,,3,1/7; 2/1/; 3/1;,No,No,"1/0,1,2,3,4,5,6; 2/0; 3/0;",1030,1
ABLOOM DESIGN LIMITED,"37, South Shastapur, Upazila Road, Fatullah, Narayanganj",Narayanganj,Dhaka,1420,2,7630177,,1,1/8;,No,No,NA,550,1
ABM FASHION LTD,"380/6‐1 EAST RAMPURA, TV AVENUE, DHAKA",DHAKA,Dhaka,1219,2,9333144,,,"1/6,",No,No,Not Shared,1000,1
ABONI FASHIONS LTD,"23‐24, UNION TATULJHORA, HEMAYETPUR",Dhaka,Dhaka,1340,2,7743280,,2,1/7;2/3;,No,No,‐,2038,1
Aboni Knitwear,"169‐171, Tatulzhora Hemayetpur",Dhaka,Dhaka,,,,,,,No,No,,,5
Accede International,"House # 416, Road # 30, Mohakhali D.O.H.S, Dhaka",Dhaka,Dhaka,1206,,,,,,No,No,,,1
ACS Textiles (Bangladesh) Ltd.,"Tetlabo, Parabo, Rupganj, Narayanganj",Narayanganj,Dhaka,1460,2,7449593,,10,"1/2, 2/3, 3/1, 4/3, 5/2, 6/3, 7/2, 8/2, 9/3, 10/1;",No,No,No,3566,6
ACS Towel Ltd,"Tetlabu,Rupgonj,Narayangonj",Narayanganj,Dhaka,1464,,1712201556,,1,1/3;,No,No,,500,1
Active Composite Mills Limited,"Dewan Idris Road, Zirabo, Ashulia, Savar,",Dhaka,Dhaka,1341,2,82251877,,1,1/6;,No,No,‐,1008,3
ACTOR SPORTING LTD.,"PLOT NO#33‐35 DEPZ. GANAKBARI, SAVAR",Dhaka,Dhaka,1349,2,7789086,,,"1/4,",No,No,,1085,2
Adhunik Poshak Shilpa Limited,"CIVIL ENGINEERS TOWER AVENUE 1,, INDUSTRIAL PLOT‐1, BLOCK E, SECTION 11, MIRPUR, DHAKA",Dhaka,Dhaka,1216,2,8010120,,,1/19;,Yes,Yes,"1/14, 12 ,11,10, 8;",1430,1
Adila Apparels,"Eshak Shopping Complex,212 Baizid Bostami,, Chittagong",Chittagong,Chittagong,4210,31,2581258,,1,1/7;,Yes,Yes,1/1;,550,1
Adity Knitwear Ltd.,"Borabo, Mouchak, Kaliakoir, Gazipur, Dhaka",Gazipur,Dhaka,,2,9004990,,,,No,No,,,1
Adorn Knitwear Ltd.,"42, Chowransh Super Market (4th Floor), Savar Bazar, Savar",Dhaka,Dhaka,,2,7742945,,,,No,No,,,1
Adury Apparels Ltd.,"Karardi, P.O‐ Karardi High School, P.S‐ Shibpur, Dist‐ Narsingdi",Dhaka,Dhaka,1600,2,9333274,,1,1/6;,No,No,,2060,1
Advance Sweater Ind. Ltd.,"70/3, Chandana, Joydebpur,Gazipur",Gazipur,Dhaka,1700,2,9262441,,,1/4;,No,No,,1000,1
Advance World Ltd,"Lalkha Shiar Char, Fatullah, Narayanhanj,",Dhaka,Dhaka,1400,2,7671073,,3,1/5; 2/2; 3/1;,No,No,‐,436,2
AFCO ABEDIN GARMENTS,"holding no.79,block L,6th floor,chairman bari,banani.",Dhaka,Dhaka,,2,8824061,,1,1/8;,Yes,Yes,1/6;,280,1
Ahsan Composite Ltd.,"Ward ‐ 7, Holding ‐ 99, Block ‐ D, Chandra, Kaliakoir",Gazipur,Dhaka,,2,9348808,,,,No,No,,,1
Ajax Sweater Limited,"Zirabo bazar, Ashulia EPZ road",Dhaka,Dhaka,1230,,1753964427,,1,1/5;,No,No,,600,3
AKH Apparels Ltd,"128 Hemayetpur, Savar,",Dhaka,Dhaka,1340,2,7452133,,6,1/10; 2/7; 3/1; 4/1; 5/1; 6/1,No,No,‐,1200,4
AKH FASHIONS LIMITED,"14, Gedda,, Karnapara,",Dhaka,Dhaka,,,,,,,No,No,,,1
AKH FASHIONS LTD,"133‐134 Hemayetpur, Savar",Dhaka,Dhaka,,2,7741830,,4,1/10; 2/1; 3/1; 4/1;,No,Yes,1/4;,1207,10
AKH KNITTING & DYEING LTD.,"92 PHULBARIA, TETULJHORA, SAVAR",Dhaka,Dhaka,1347,,1715260698,,7,1/7; 2/7; 3/3; 4/3; 5/1; 6/1; 7/1;,No,No,,5000,11
AKH Shirts Ltd. (Unit 3),"133‐134 Hemayetpur, Savar",Dhaka,Dhaka,1340,2,7744001,,8 2,"1/10 , 1/1;",No,Yes,"1/10 ,1/1;",1700,3
AKH Stitch Art LTD,"Chandanpur, Rajfulbaria, Hemayetpur, Savar",Dhaka,Dhaka,,,1716322781,,,,No,No,,,1
AKH Stitch Art Ltd.,Tatul Jhora,Dhaka,Dhaka,1340,,1713013039,,,"1/5,",No,No,,0,1
Al Islam Textile Industry Ltd.,"9 Karnapara, Savar",Dhaka,Dhaka,1347,2,1730021222,,2,1/4;,No,No,N/A,2500,2
Alamode Apparels Ltd.,"12/13 BSCIC I/A, Kalurghat, Chandgaon Chittagong, Bangladesh.",Chittagong,Chittagong,4233,31,2520062,,,1/3;,No,No,,,1
Alaudin Garments Ltd.,"88, Kazi Nazrul Islam Avenue, Tajgaon, Dhaka‐ 1215",Dhaka,Dhaka,,2,9130009,,1,5;,Yes,No,"1/0,1,2;",550,1
Aleaya Sweater Ltd.,"Dhour, Dhaka Ashulia, DEPZ Road, Turag, Uttara Dhaka",,Dhaka,,,1711394757,,,,No,No,,,1
Alema Textiles Ltd,"Vogra,Bashan Sarak,Gazipur",Gazipur,Dhaka,1704,2,9292742,,4 2,"1/8, 2/2",No,No,,1600,5
Alfa Patterns (Bangladesh)Ltd.,"Plot# 58, Depz, Ganakbari, Savar",Dhaka,Dhaka,1349,2,7788260,,1,1/6;,No,No,,474,1
Alfa Textiles Ltd.,"49 NP, Kalurghat Heavy Industrial Area,, Kalurghat, Chittagong, Bangladesh,",Chittagong,Chittagong,4212,31,672244,,50 1,1/7;,No,Yes,,1578,1
Ali Apparels Ltd.,"Kutubail, Katherpool, Fatullah, Narayanganj",Narayanganj,Dhaka,1400,,1711534056,,,1/6;,No,No,"1/3,4,5;",250,1
Alif Apparels Ltd.,"23/8 B&C, Holding #24/2, Khilje Road, Shyamoli Cinema Complex Building (2nd Floor)",Dhaka,Dhaka,,,1817123442,,,,No,No,,,1
ALIF GARMENTS LIMITED,"Science Laboratory Road,Dhanmondi,Dhaka",DHAKA,Dhaka,1205,2,8614656,,,"1/6,",Yes,No,"1/1,2,3,4,5,6;",575,1
Alif Garments Ltd.,"21/22, Babar Road, Block‐B, Mohammadpur",Dhaka,Dhaka,,,1817123442,,,,No,No,,,2
Alif Textiles Ltd.,"21/22 Babar Road,Block‐B, Mohammadpur",Dhaka,Dhaka,,,1199810127,,,,No,No,,,1
AL‐ISLAM TEXTILES LTD,"9 Karnopara, Savar, Dhaka",Dhaka,Dhaka,1340,2,8131234,,,"1/3,",No,No,Not Shared,2450,1
ALL WEATHER FASHIONS LTD,"52, shahid tajuddin ahmed sharoni, mohakhali dhaka",DHAKA,Dhaka,1213,2,8812176,,2,1/9;2/4;,Yes,Yes,"1/ 7,8,9; 2/4;",880,1
Alliance Stitches Ltd.,"SFB # 4 (1st & 2nd Floor), DEPZ, Ganakbari, Savar Dhaka",,Dhaka,,2,77021867,,2,1/3;2/3;,No,Yes,2/1;,950,1
ALLTEX INDUSTRIES LTD,"Rupganj,, Narayanganj,",Narayanganj,Dhaka,,,,,,,No,No,,,1
Alpha Knit App.Ltd.,"Sayed Ali Mansion, North Gazir Chat, Ashulia, Dhaka",Dhaka,Dhaka,,2,9014341,,1,7;,No,Yes,"1/2,3;",550,1
Alpha Knitting Wear Limited,"888 Shewrapara, 1st & 2nd floor Begum Rokeya Shoroni, Mirpur,",Dhaka,Dhaka,1216,2,7452133,,202 1,1/8;,No,No,‐,667,2
Alps Apparels LTD/KNIT TOP&BOTTOM,"ALPS APPARELS LTD., 11/B EXTENSION PALLABI, MIRPUR, DHAKA",Dhaka,Dhaka,1216,,1811483477,,,,No,No,,500,1
AMA Syntex Ltd,"PLOT NO: 936 TO 939, VILL: JARUN, P.O: KASHIMPUR, P.S : JOYDEBPUR, DIST : GAJIPUR",Gazipur,Dhaka,,2,9298462,,4,1/0; 2/0; 3/0; 4/0;,No,No,,900,1
AMAN FASHIONS & DESIGNS LTD,"Nalam,, Mirzanagar,, Asulia, Savar",Dhaka,Dhaka,,,,,,,No,No,,,1
Aman Graphics & Designs Ltd.,"Nazimnagar, Hemayetpur, Savar, Dhaka",Dhaka,Dhaka,1340,,1713013536,,,"1/2, 2/3, 3/4;",No,No,n/a,1190,4
Aman Knitting,"Najim Nagor, Singair Road, Hameyetpur, Saver Dhaka",DHAKA,Dhaka,,2,27741427,,3,1/3;2/4;3/2;,No,No,‐,816,2
Aman Knittings Limited,"Kulasur, Hemayetpur",DHAKA,Dhaka,,2,7741427,,1,1/6;,No,No,All,2697,3
Aman Sweaters Ltd,"Rajaghat, Rajfulbaria, Savar, Dhaka",DHAKA,Dhaka,1347,,1713013536,,2,"1/5, 2/2;",No,No,,992,2
Aman Tex Limited,"Boiragirchala, Sreepur",Gazipur,Dhaka,1740,6,82552790,,6,"1/7; 2/4, 3/2, 4/1; 5/1; 6/1;",No,No,,3400,7
Amazing Fashion Ltd,"Plot‐10,Dagerchala, Gazipur.",Gazipur,Dhaka,1704,2,9293658,,1,"1/6,",Yes,Yes,"1/4,",900,2
Amazon Tex Knit Fashion Ltd,"Jobeda Plaza, 85 AC Dhar Road Kalirbazar",Narayanganj,Dhaka,,,,,,,No,No,,,1
Ambia Apparels Ltd.,"07, Agrabad C / A",Chittagong,Chittagong,,31,1671696761,,,,No,No,,,1
AMCO FASHINS LTD,"Plot 2/A, Darus Salam Road, Mirpur‐1, Dhaka",Dhaka,Dhaka,1216,2,9348147,,,"1/9,",Yes,Yes,"1/0,1,2,3;",1100,1
Amena (Pvt.) Ltd.,"Abdul Latif Market, Ahalia, Section #5, Road 91c, Sec‐05, Uttara",Dhaka,Dhaka,,2,8914606,,,,No,No,,,1
Amex Knitting & Dyeing Industries Ltd.,"Unit ‐ 2 (Garments Division), Sufia Plaza, 327/3/B, South Jattrabari, Dhaka",Dhaka,Dhaka,1204,2,7552420,,,,No,No,,1003,1
Amichi Apparels Ltd.,"122‐123,Darus Salam, Mirpur Road,",Dhaka,Dhaka,,2,9006239,,1,1/7.,No,Yes,"1/3, 4, 7;",550,1
Amir Sweater & Apparels Ltd.,"Amir Sweater & Apparels Ltd., Satter Bhaban, Bogabari Bazar,Baipail, Ashulia, Savar",Dhaka,Dhaka,,2,7788835,,1,5;,No,No,,350,1
Amity design ltd.,"H‐7 & 9, R‐9, Block D, Mirpur‐11, Dhaka",Dhaka,Dhaka,1216,,1711520155,,,1/6;,No,No,"1/1,2,3,4,5,6;",550,3
Amity Sweaters Ltd.,"209, Choydana, Hajirpukur",Gazipur,Dhaka,1704,2,9293203,,,1/6; 2/3; 3/1;,No,No,,1000,1
Amotex Ltd.,"Kundolbag, Pukurpar, Yearpur, Zirabo",Dhaka,Dhaka,,2,7792373,,,,No,No,,,1
Ltd.,"34,Choydana, National University.Gazipur",Gazipur,Dhaka,1704,,1713005833,,,,No,No,,,2
AMS Knitwear Ltd.,"B/(468,469), Road #1, BSCIC, Shasongaon, Fatullah, Narayanganj, Dhaka",Narayanganj,Dhaka,1400,,1711534056,,,1/5;,No,No,"1/1,2,3,4;",185,1
Anam Garments Ltd,"Plot: 66, Road: 04, Block:C, Section:12, Pollobi, Mirpur, Dhaka",Dhaka,Dhaka,,2,9003329,,1,1/6;,No,No,,322,1
Anan Socks Ltd.,"Mulaid, Mawna, Sreepur,",Gazipur,Dhaka,,2,9801937,,1,1/1;,No,No,Single shed,100,1
"Ananta Apparels Ltd .136 Elephant Road, Ananta Plaza",,Dhaka,Dhaka,,2,8622203,,1,1/14;,Yes,No,1/1;,3500,2
Ananta Casual Wear Ltd.,"Konia, Targasa, KB Bazar Gazipur",Gazipur,Dhaka,,,1714023738,,2,1/6; 2/1;,No,No,,3219,4
Ananta Denim,"Nayabari khancpur Sunargaon, Naryanagong",Narayanganj,Dhaka,,,1714023738,,3,1/3; 2/1; 3/6;,No,No,,1378,1
ANANTA GARMENTS LTD,"Nischintapur, Ashulia, DEPZ Road, Savar",Dhaka,Dhaka,,2,8913008,,12,1/9;2/1;3/1;4/1;5/1;6/1;7/1;8/1;9 /1;10/1;11/1;12/1;,No,No,,5500,7
Ananta Huaxiang Ltd.,"Plot # 222‐223, H2, H3, H4 Adamjee EPZ",Narayanganj,Dhaka,1431,,1611456770,,2,1/2; 1/1;,No,No,,1300,2
Ananta Jeans wear Ltd.,"134/123 Kabi Jashim Uddin Road, Pagar, Tongi",Gazipur,Dhaka,,2,8912962,,3,"1/5,1/1,1/1;",No,No,,2050,5
Angshuk Ltd.,"133‐134 Hemayetpur, Savar, Dhaka",Dhaka,Dhaka,1340,2,7744001,,,,No,No,,,2
Anik composite mills ltd.,"Vill:Balaisa, Po: Vhulta,Thana:Rupgong",Narayanganj,Dhaka,1400,2,9567987,,3,1/5; 2/3; 3/2;,No,No,,280,1
Anika Garments (Pvt.) Ltd.,"Plot no. 1/1,Gha part, Secton‐2, Mirpur, Dhaka",Dhaka,Dhaka,1216,2,8822775,,1,9;,No,Yes,"1/4,5,6,7;",500,2
Anlima Textile Limited,"Karnapara, Savar",Dhaka,Dhaka,,2,7745009,,2,1/7;2/1;,No,No,All,1800,1
Annesha Group Of Co. Ltd.,"Khejurbagan, Boro Asulia, Savar, Bangladesh",Dhaka,Dhaka,1341,2,27742867,,1,1/4;,No,No,No,950,1
Annesha Style Limited,"Khejurbagan, Ashulia, Savar, Dhaka",Dhaka,Dhaka,,2,7742867,,,"Building 1 ‐ 4 Storied, Building 2 ‐ 2 Storied",No,No,,953,4
Anowara Fashions Ltd,"BSCIC, Khalurghat, Chittagong, Bangladesh,",Chittagong,Chittagong,3343,31,670365,,342 1,1/6;,No,Yes,1/6;,1067,1
Anowara Knit Composite Ltd.,"Mulayed, Maona, Sreepur, Gazipur",Gazipur,Dhaka,1740,2,682552693,,1,1/6;,No,No,N/A,1449,1
Antim Knit Composite LTD,"Barpa, Rupgonj, Narayanganj",Narayanganj,Dhaka,1464,2,7450248,,,,No,No,,,1
Antim Knitting Dyeing & Finishing Ltd.,"Barpa, Rupshi, Rupgoni",Narayanganj,Dhaka,,,1678039911,,1,1/7;,No,No,,4344,1
ANUPAM HOSIERY INDUSTRY (PVT.) LTD.,"VULTA, RUPGONJ",Narayanganj,Dhaka,,2,9336501,,4,"1/9,2/3, 1/1, 1/1;",No,No,,2200,4
Anupom Fashion Wear Ltd.,"Tamanna Complex (3rd floor), C.B‐288, Kachukhet, Puran Bazar,Dhaka Cantt. Dhaka",Dhaka,Dhaka,1206,,155198715830,,1,1/6;,Yes,Yes,"1/2,4;",650,2
Anzir apparels ltd ( unite 2),"Somsher plaza epz gate ganakbari ,savar, Dhaka DHAKA",,Dhaka,1349,2,7701531,,2,1/5; 2/5;,Yes,No,"1/1,2,3,4; 2/2,3,4;",4500,3
A‐One BD,"Plot # 114‐120, DEPZ, Ganakbari, Ashulia, Dhaka Dhaka",,Dhaka,,2,7789130,,2,"1/0; 1/1, 2/1, 2/2",No,No,,1400,4
A‐One Polar Limited,"Vulta, Rupgonj",Narayanganj,Dhaka,1460,,1730000195,,8,1/3; 2/2; 3/1; 4/1; 5/1; 6/1; 7/1; 8/3;,No,No,,1700,2
Apex Adelchi footwear Limited.,"Shafipur,, Chandra, Kalliakoir,",Gazipur,Dhaka,1751,2,51167,,21,1/1; 2/2; 3/1;4/1;5/1;6/17/1;8/1;9/1;10/1; 11/1;12/113/1;14/1;15/1;16/1;17 /1;18/2;19/1; 20/6;21/1;,No,No,N/A,4501,4
Apex Knit composite Ltd.,"GILARCHALA, SREEPUR",Gazipur,Dhaka,1740,,1715818112,,3,1/4;2/0;3/0;,No,Yes,"1/3, 4;1/0;1/0;",490,1
Apex Lingerie Ltd.,"Chandora, Kaliakoir",Gazipur,Dhaka,1751,,51204,,14,"1/6; 2/7; 3/5; 4/7; 5/1; 6/1; 7/1; 8/1; 9/1, 10/1; 11/1; 12/1; 13/1; 14/1;",No,No,,4000,4
Apex Spinning & Knitting Mills,"Chandora, Kaliakoir",Gazipur,Dhaka,1750,6,82251204,,8,1/5; 2/1; 3/1; 4/1; 5/1; 6/1; 7/1; 8/1;,No,No,,4300,1
Apex Textile Printing Mills,"Chandora, Post Shafipur, Thana, Kailakoir District Gazipur",,Dhaka,,6,82251204,,9,1/7; 2/1; 3/1; 4/1; 5/1; 6/1; 7/1; 8/1; 9/1;,No,Yes,1/2;,5306,7
Apex Weaving & Finishing Mills Ltd,"East Chandora, Shafipur, Kaliakoir, Gazipur.",Gazipur,Dhaka,,2,9555363,,2,1/1; 2/2;,No,No,,800,1
Apex Weaving and Finishing Mills,"73 Motijheel Commercial Area, BD ‐ Dhaka",Dhaka,Dhaka,1000,,,,,,No,No,,,1
Apparel 21 Ltd. neue Unit (Lithe Group),"Shirir Chala, Bagher Bazer Gagipur Shadar, Gazipur",Gazipur,Dhaka,,,1711580703,,,,No,No,,,1
Apparel Bangla Sourcing ltd,"Talotia,Mirer bazar,Tongi",Gazipur,Dhaka,1710,2,9816891,,,"1/3,",No,No,,200,1
Apparel Concept Ltd.,"Tin Sarak, Laxmipura, East Chandana, Joydevpur, Gazipur.",Gazipur,Dhaka,1700,2,9261182,,1,1/5;,No,Yes,1/1;,1000,1
Apparel Gallery Ltd,"144,147,148 Narashinghpur, Ashulia, Savar, Dhaka",DHAKA,Dhaka,1341,2,7790871,,,1/9;,Yes,No,,8000,1
Apparel Today Ltd.,"Plot‐01, Road‐01, Turag Housing, Beribandh",,,,0,44786576,,,,No,No,,,4
APPAREL VILLAGE,"37, Khagan, Birulia, Savar, Dhaka",Dhaka,Dhaka,1340,,1713461947,,2,1/6 ; 1/3;,No,No,"1/1,2,3,4,5,6 ; 1/2,3;",2500,1
APS Apparels Ltd.,"Holding No.106, Ward‐ 5, Baitur Rahmat, Mosque Road, E‐Faidabad, Atipara, Dokhin Khan, Dhaka",Dhaka,Dhaka,1230,,1811456031,,1,7;,No,No,N/A,1400,3
APS Design Works Ltd.,"Holding No.106, Ward‐ 5, Baitur Rahmat, Mosque Road, E‐Faidabad, Atipara, Dokhin Khan, Dhaka",Dhaka,Dhaka,1230,,1811456031,,1,7;,No,No,N/A,1400,1
Aptech Designs Ltd,"Krishnachura Apt., flat#1‐D, House#40, Road#21,Block#B,Banani, Dhaka",Dhaka,Dhaka,1213,,1711564838,,,1/6;,Yes,Yes,1/1;,20,1
AR Knittwear ltd,"75, Fatullah Bazar",Narayanganj,Dhaka,,2,7671488,,1,1/4;,No,No,,300,2
ARA / Apparel Export Ltd.,"2/c Darussalum Road, Mirpur",Dhaka,Dhaka,,2,8054697,,2,1/6; 2/4;,No,Yes,1/5;,804,1
ARABI Fashion Ltd,"Bokran, Monipur, Mirzapur",Gazipur,Dhaka,1703,2,6830,,6,1/3; 2/5; 3/1; 4/1; 5/1; 6/1;,No,No,,1200,4
ARAFAT FASHION GARMENTS LIMITED,"3118/1, NAYA HAT ROAD, BIAZID",Chittagong,Chittagong,,671 31,2584680,,,"1/3,",No,No,Not Shared,415,1
AREFIN TEXTILE MILLS LIMITED.,"PLOT# 20‐24, BSCIC INDUSTRIAL AREA, PATIYA.",Chittagong,Chittagong,4370,31,556205,,,"1/7,",No,No,Not Shared,1400,1
Arion Dresses Limited,"Adhunik Chalk Super Market (3rd floor), Chalk bazar, Chittagong",Chittagong,Chittagong,4203,31,2853290,,,,No,No,,,1
Aristocrat Fashion(Pvt.)Ltd,"Anik Plaza(3rd&4th Floor),Plot#155, Road #01,Block‐A,Section‐12,Pallabi,Dhaka",Dhaka,Dhaka,1216,2,8050555,,1,1/11;,Yes,Yes,"1/3,4;",280,1
Arjon Fashions Ltd.,"55/1, S.M. Maleh Road, Tanbazar, Narayanganj",Narayanganj,Dhaka,,2,7644320,,2,"1/1, 7/9;",No,No,,190,1
Armana Fashions,"232‐234, Tejgaon Industrial Area",Dhaka,Dhaka,,,,,,,No,No,,,2
ARMOUR GARMENTS LTD,"97 D.I.T. ROAD, RAMPURA, DHAKA",Dhaka,Dhaka,1212,2,8311375,,1,"1/7,",Yes,No,All floors except Ground floor,900,1
AROUND STAR SWEATERS LTD.,"Hazi A. Azij Super Market,Bhulta,Rupgonj,Narayangonj",Narayanganj,Dhaka,,2,8414039,,41 1,5;,Yes,No,,1500,1
Arrival Fashion Limited,"Colomesshor, Board Bazar, Po:‐National University , P.S: Gazipur, Bangladesh, P.O.‐ National University, Gazipur,",Gazipur,Dhaka,,2,8878718,,112 3,1/6; 2/1; 3/1;,No,No,‐,1433,4
ARRIVAL FINISHING CENTER LTD,"Plot#10, Road #1, Block Kha, Section 6, Mirpur, Dhaka",Dhaka,Dhaka,1216,2,9010220,,1,1/6;,No,No,NA,450,1
Arrow Apparels Ltd,"248, Tatki, Jatramura, Rupgonj",Narayanganj,Dhaka,,2,7452133,,2,1/4; 1/1;,No,No,,1350,4
Arrow Jeans Ltd,"Musa Bhabon, Port Connecting Road, Saraj Para, Pahartoli, Chittagong.",Chittagong,Chittagong,4219,31,752534,,1,"1/6,",Yes,Yes,"1/6,",850,1
Artisan Ceramics Limited,"SHIRIRCHALA BHABANIPUR, GAZIPUR; DHAKA",Gazipur,Dhaka,,2,8963588,,5,1/3; 2/3; 3/3; 4/3; 5/3;,No,No,,684,1
ARTISTIC DESIGN LTD,"232‐233 Narashinghpur, Ashulia, Savar",Dhaka,Dhaka,,2,9289325,,7,"1/6, 2/1; 3/1; 4/1; 5/1; 6/1; 7/2; 8/1;",No,No,,3300,2
Arunima Apparels Ltd.,"Rising Complex, Plot# I/10, Block‐K, Rupnagar I/A, Section‐2",Dhaka,Dhaka,1216,2,9016738,,1,1/8;,No,No,,992,1
Arunima Sportswear Ltd,"Zirabo, Savar, Dhaka",Dhaka,Dhaka,,2,7793180,,,"Building 1 ‐ 9 Storied, Building 2 ‐ 3 Storied,",No,No,,3177,3
Arva Textiles Ltd,"6528 ,Madrasa road,North Ghazirchat, Ashulia, ‐, Dhaka",,Dhaka,,2,8922200,,2,1/6;2/2;,No,Yes,"1/6;0,1,2;2/2;",562,4
Aryan Knitwear,"65 Nayamati, Narayangonj",Narayanganj,Dhaka,1400,2,7641781,,1,5;,Yes,Yes,1/3;,250,1
Designs Ltd),"House # 48, Flat # C1 R # 7C, Sec # 09, Uttara Model Town, Dhaka",Dhaka,Dhaka,1230,,1715375849,,,1/6;,Yes,Yes,1/1;,20,1
Ashique Dress Design Ltd.,"43 CHALABON, ASHIQUE COMPLEX AZAMPUR, UTTARA",Dhaka,Dhaka,1230,2,8917795,,3,1/9; 2/1; 3/1;,No,No,,1100,4
Ashique Jeans Apparels Ltd.,"Ashique Complex, 43, Chalabon, Dhakkhinkhan, Uttara",Dhaka,Dhaka,,2,1926668288,,,,No,No,,511,1
Ashulia Apparels ltd,"Samad Mansions, Section:6, Block:kha, Road:01, Plot:14, Senpara Parbata, Mirpur, Dhaka",Dhaka,Dhaka,1216,,1817611005,,,1/6;,Yes,Yes,"1/3,4,5;",250,1
ASK HANDICRAFTS LTD,"House 14, Sector 12, Sonargaon Janapath Rd, Uttarahouse, Dhaka",Dhaka,Dhaka,1230,,1819240858,,,,No,No,,,1
Asrotex,"Dharmaganj, Enayet Nagar., Fatullah",Narayanganj,Dhaka,1400,,1714069992,,2,1/7;2/4;,No,Yes,"1/7;0,1,2,3,4,5,6;2 /4;1,2,3;",1875,5
"Asrotex Unit 2Batjuri, Natun Bazar, Sreepur, Gazipur, Dhaka",,Gazipur,Dhaka,1704,2,9289271,,3,1/6; 2/2; 2/2;,No,No,,1247,3
AST Knitwear Limited,"East Chandana, Plot no. 3/1, Joydevpur",Gazipur,Dhaka,1700,2,9262304,,2,1/7; 2/1;,No,No,,1100,3
ASTRAS GARMENTS LTD,"44/1, NEW ESKATON ROAD,, DHAKA",Dhaka,Dhaka,1000,2,9358284,,1,"1/7,",No,No,N/A,550,1
ASWAD COMPOSITE MILLS LTD. ( U‐2),"Kabirpur, Ashulia, Savar",Dhaka,Dhaka,1349,2,7788649,,4,1/6; 2/3; 3/4; 4/1;,No,No,,1900,6
Atashi fashion ltd.,"Kalameshwar (board bazar), national university ,Joydebpur, gazipur",Gazipur,Dhaka,1704,2,9291967,,1,1/8;,No,No,,1800,2
ATHLETIC SUPPORT LIMITED,"Ithata, Mouza‐35 ( Chanda)",GAZIPUR,Dhaka,1702,2,8931628,,104,"1/10,",No,No,Not Shared,3700,1
ATS PEARL LTD,"SECTOR # 3/4, PLOT # 50, EPZ",CHITTAGONG,Chittagong,,,614440,,4,1/3; 2/1; 3/1; 4/1;,No,No,,1500,1
ATTIRS MANUFACTURING CO,"235 / B , Tejgaon I/A, Dhaka",Dhaka,Dhaka,1208,2,9882471,,1,1/10;,No,Yes,"1/0, 2, 5;",551,2
Avant Garde Fashion Ltd.,"Plot# 170~176, Ext. DEPZ, Ganakbari,Savar, Dhaka",Dhaka,Dhaka,1349,2,7788481,,109,1/2;,No,No,,1200,4
Ayesha Clothing Co. Ltd.,"Jamgara, Gazirchot Alia Madrasha, Ashulia",Dhaka,Dhaka,1349,2,7790773,,3,1/7;2/7;3/7;,No,No,‐,3778,4
Ayesha Washing Limited,"Zamgara, Saver, Dhaka (Head office: H#2/b, Road #29, Gulshan‐1 Dhaka",Dhaka,Dhaka,1340,,167900700,,,1/3;,No,No,"1/1,2,3;",262,1
Ayman Textiles Ltd.,"Polly Biddut, Handra, Kaliakoir, Gazipur, Dhaka",Gazipur,Dhaka,1706,2,8829906,,5,1/3; 2/5; 3/5; 4/1; 5/1;,No,No,"1/0,1,2; 2/0,1,2,3,4; 3/0,1,2,3,4; 4/0; 5/0;",3000,4
Azad Rifath,"Katherpool, Fattullah, Narayanganj",Narayanganj,Dhaka,1400,,1713000172,,,1/2;,No,No,"1/1,2;",30,1
"Azim & Son (Pvt) Ltd Unit 135‐B/1, INDIRA ROAD, DHAKA",,Dhaka,Dhaka,1215,2,8114038,,1,1/5;,No,No,,516,1
"Azim & Son (Pvt) Ltd Unit 2Gacha Road, Fakir Market, Gazipur",,Gazipur,Dhaka,,2,9292494,,1,1/6;,No,No,,1264,1
Azim Mannan Garments Ltd.,"49, NP Kalurghat Heavy Industrial Area, Chittagong",Chittagong,Chittagong,4208,31,670463,,2,"1/8, 2/10;",No,Yes,5th Floor,1400,1
B2B Excellence Ltd,"Mirzapur Purbapara, 8 No Mirzapur Mowza, Mirzapur,",Gazipur,Dhaka,,,,,7,1/2; 2/1; 3/1; 4/1; 5/1; 6/1; 7/3;,No,No,2/1; 3/1; 4/1; 5/1; 6/1; 7/3;,525,1
FASHION,"Plot # 23‐24, Union # Tetulzhora, Hemayetpur, Savar",Dhaka,Dhaka,,2,8023495,,11,1/7;2/3; 3/1;4/1;5/1;6/1;7/1;8/1;9/1;10/1; 11/1;,No,No,,2900,5
Babylon Dressess Ltd.,"2‐B/1, Darussalam Road, Mirpur",Dhaka,Dhaka,1216,2,8023495,,2,1/10; 2/1;,No,No,,2234,1
BABYLON GARMENTS AND DRESSES LTD,"2‐B/1, DARUSSALAM ROAD, MIRPUR",Dhaka,Dhaka,,2,8023495,,2,1/10; 2/1;,No,No,,2300,6
Badgetex Apparels Ltd,"Mohora Nexus Industrial Area, Plot # P/6‐A, Chandgoan",Chittagong,Chittagong,4221,,257195152,,,1/4;,No,No,,800,5
Badhan Knit Fashion Ltd,"A‐16/17, BSCIC INDUSTRIAL AREA, ENAYETNAGAR, FATULLAH, NARAYANGANJ",Narayanganj,Dhaka,1400,2,7670304,,1,1/6;,No,No,,408,2
BAIZED DRESSES (PVT) LIMITED,"DELUX HOUSE#03 (2nd FLOOR), 209/227 KULGAON, BALUCHARA",Chittagong,Chittagong,4214,31,2583451,,,"1/5,",No,No,Not Shared,950,1
Baleno Readymade Garments Pvt. Ltd.,"Mouja Goirpur, Humayun Road, Goripur, Ashulia, Dhaka",Dhaka,Dhaka,,2,749275060,,1,4;,No,No,"1/0,1,2,3;",539,1
BANDO DESIGN LTD.,"PURBA NARSINGHAPUR, EARPUR UNION PARISHAD ROAD, ASHULIA, SAVAR",Dhaka,Dhaka,,2,7701264,,4,1/6;2/2;3/1;4/1;,No,No,,2200,2
Bando Fashion,"Bade Kalameshar, K.B. Bazar, Gazipur, Bangladesh.",Gazipur,Dhaka,1215,2,28140259,,1,1/6;,No,No,No,2000,1
BandoFashins Ltd.,"Bade Kalameshar.B.Bazar, Gazipur.",Gazipur,Dhaka,1751,,,,1,"1/7,",No,No,"1/7,",1800,1
Banex Apparels Limited,"473, North Ibrahimpur,Kafrul",Dhaka,Dhaka,1206,2,8033384,,1,1/9;,No,No,,650,3
BANGA GARMENTS LIMITED,"PLOT # 33, SECTION 7, MIRPUR",Dhaka,Dhaka,,2,8034355,,2,1/4; 1/1;,No,No,,800,1
Bangla Poshak Limited,"Choidana, National University,",Gazipur,Dhaka,,2,9293645,,1,1/5;,No,No,All,369,1
Bangladesh Spinners & Knitters (PVT) Ltd,"Plot # 6‐11, Sec # 4/A, CEPZ, Chittagong.",Chittagong,Chittagong,4223,2,741889,,3,1/3; 2/4; 3/2;,No,No,No,2550,3
Ltd.,"285, (147/3 New) Hazaribag, Godnail, Narayanganj",Narayanganj,Dhaka,1432,2,7634638,,,1/7; 2/4;,No,No,,1389,1
Base Fashion Ltd,"62, Sataish Road, Gazipura, Tongi, Gazipur",Gazipur,Dhaka,1712,2,9816806,,1,"1/8,",Yes,Yes,"1/8,",900,5
Base Textiles Ltd,"Plot# 9 CDA Industrial Area, Mohara, Kalurghat,",Chittagong,Chittagong,,2,9814986,,7 9,1/5; 2/7; 3/3; 4/2; 5/1; 6/1; 7/1; 8/1; 9/1;,No,No,‐,2396,3
Basic Apparels Ltd.,"135‐138, Abdullahpur (1st & 2nd floor), Uttara",Dhaka,Dhaka,,2,8957823,,2,1/4; 2/2;,No,No,,740,3
BASIC IMPEX group Motaleb,"Barisal, Road2b, House 8, Block J, Baridhara, Dhaka",Dhaka,Dhaka,1400,2,8415126,,3,,No,No,,700,1
Basic Shirts Ltd.,"98, Senpara Parbata, Mirpur‐10, Dhaka",Dhaka,Dhaka,1216,2,8057644,,1,1/8;,No,No,"1/4,5,6,7,8,",650,4
"Baxter Brenton (BD) Clothing Mfg. Co. Ltd. FS SFB: 07(1st Floor) DEPZ, Savar",,Dhaka,Dhaka,1349,2,7788852,,3 2,1/3; 2/3;,No,Yes,1/1;2/2;,1001,1
Bay Creation Ltd,"Panchabati, Enayet Nagar, Gafor Complex, 4th‐ 6th Floor, Fatullah, Narayanganj",Narayanganj,Dhaka,1400,2,7670761,,1,1/6;,Yes,Yes,,750,1
Bay footwear Ltd.,"Plot: 1981‐1989, Telirchala, Mouchak, Gazipur",Gazipur,Dhaka,,2,9298198,,2,1/2; 2/1;,No,No,No,960,2
BD. Knit Design Ltd.,"Helal Merket, Sharifpur, National University, Gazipur",Gazipur,Dhaka,,2,9292721,,2,"1/1, 2/6;",No,No,,425,1
BEA‐CON KNIT WEAR LTD.,"RAMARBAG, KUTUBPUR, FATULLAH, NARAYANGONJ",Narayanganj,Dhaka,1400,2,7647649,,2,1/7;2/8;,No,No,Not Shared,7000,2
BEATS FASHION,"488A,, Rd# 32,, Gazipur",Gazipur,Dhaka,,,,,,,No,No,,,1
BEAT'S FASHION LTD,"East Chandura,Shafipur,Kaliakoir",GAZIPUR,Dhaka,1751,2,9883481,,260,"1/4,",No,No,Not Shared,2100,1
Beget Knitwear,"M/4/4 Ahmed Food Bhaban, Road no‐07, Section‐ 7, Mirpur, Dhaka",Dhaka,Dhaka,1216,,1713031598,,,,No,No,,270,2
BEKA Garments & Textiles Ltd,"FS SFB: 01(Ground, 2nd & 3rd Floor) AEPZ, Siddirgonj",Narayanganj,Dhaka,1431,671,7691678,,1,0;,No,Yes,"1/0,2,3;",1278,2
Belamy Textiles Ltd.,"Khowajnagar, Azimpara, Karnafuly",Chittagong,Chittagong,4000,,2854075,,2,1/5; 2/5;,No,Yes,"1/5/0,2,3,4,",1200,3
Bellissima Apparels Limited,"Shopping Area, Bscic, Industrial Estate, Tongi, Gazipur",Gazipur,Dhaka,1714,,1675414807,,1,1/3;,No,No,,602,1
Bengal Jeans Ltd,"Abdullahpur, uttara,",Dhaka,Dhaka,,,,,,,No,No,,,1
Bengal Shoes Industries,"Rakhalia, Raipur, Lakshmipur",,,,,,,81/1; 1/1;1/1;1/1;1/1;1/1;1/1;1/1;,,No,No,‐,1200,1
Benhid Apparels Ltd,"Jarina Plaza, Jhazor, National University, Board Bazar, Gazipur",Gazipur,Dhaka,1704,,1717111406,,2,1/5 ; 2/1;,No,Yes,"1/ 1 ,2 , 3 ,4 , Roof top ; 2/0;",741,2
Beo Apparel Manufacturing Ltd.,"Vannara, Mouchak, Kaliakoir , Gazipur",Gazipur,Dhaka,1751,2,7790889,,4,1/2 ; 2/1 ; 3/1 ; 4/1;,No,Yes,"1/ 0 ,1 ; 2/0 ; 3/0 ; 4/0;",365,1
Beq Knit Ltd,"Zirabo, Ashulia, Savar, Dhaka",Dhaka,Dhaka,1341,2,7792901,,,1/8;,Yes,No,"0,3,4;",2000,1
BEST SHIRTS LTD,"35,kunia, Baro Bari, National University, Gazipur Gazipur",,Dhaka,1704,2,9800907,,1,1/9;,No,No,NA,2200,3
Best Wool Sweaters Ltd,"Jarun, Kanabari, Gazipur, Dhaka",Gazipur,Dhaka,1346,2,8825083,,1,1/6;,No,No,no,6975,13
Beximco Apparels Ltd,"Beximco Industrial Park,Kashimpur",Gazipur,Dhaka,,2,8611464,,1,1/5;,No,No,,7800,2
Beximco Fashions Ltd.,"Fs‐Sfb No.‐2, Depz, Ganakbari, Savar",Dhaka,Dhaka,1349,2,7701126,,1,1/4;,No,No,,2300,2
"BGD Test IMPORT factory 3777 Different drive, 2345, 34567,",,Dhaka,Dhaka,2345,66,98765432,,777 2,1/4; 2/6;,Yes,Yes,"1/2; 2/4, 5, 6;",341,1
BHIS Apparels Ltd,"671 Dattapara, Hosain market, P.O & P.S Tongi",Gazipur,Dhaka,,2,9816880,,2,1/7; 2/1;,No,No,,2800,5
Bhml Sweaters Ltd.,"Shorifpur, National University, Gazipur.",Gazipur,Dhaka,1704,,1711218753,,1,1/5;,No,Yes,"1/0,1,2,4;",1250,4
Bhuyan Warmtex (Pvt.) Ltd.,"Kadda Nandun, Kadda Bazar, Gazipur, Dhaka",Gazipur,Dhaka,1346,,1911693459,,3,1/4; 2/1; 3/1;,No,No,"1/0,1,2,3; 2/0; 3/0;",800,3
BIANCA Fashion,"PADDOCK'S JEANS LTD PLOT LAND 59‐60, DHAKA EXPORT PROCESSING ZONE, GANAKBAN, SAVA, DHAKA",Dhaka,Dhaka,,2,77010768,,1,1/3;,No,No,All,2350,1
BIG BOSS CORPORATION LTD.,"Lutfon Tower, (7th Floor) E‐13, Middle Badda, Dhaka",Dhaka,Dhaka,1212,2,9897356,,1,1/12;,Yes,Yes,"1/2, 3, 6, 7;",1132,7
BILLAH RESOURCES LTD,"17/1, Khataldia, Squib Road, Nishad Nagar, Tongi, Gazipur",Gazipur,Dhaka,1704,2,9816842,,1,1/7;,No,No,NA,555,1
Birds A & Z LTD.,"113, Baipail, Ashulia, Savar, Dhaka",Dhaka,Dhaka,1349,2,7789395,,2,1/6;2/4 + (1 Basement),No,No,N/A,1850,3
Birds Garments Ltd.,"Unit‐2 Plot‐113, Bai‐Pail, Savar, Dhaka",Dhaka,Dhaka,,0,35 120 838,,,,No,No,,,2
BISWAS GROUP,"Rajfulbaria, Savar, Dhaka.",Dhaka,Dhaka,1347,2,7709114,,,"1/5,",No,No,Not Shared,1500,1
BKC Sweater Ltd,"Rams Tower, Plot No 212‐214, Dagerchala Main Road, Dagerchala, National University, Gazipur",Gazipur,Dhaka,1704,,,,,,No,No,,,3
Blithe Fashion Ltd.,"101/12, Barobagh, Mirpur‐2",Dhaka,Dhaka,1216,2,9298614,,,,No,No,,300,1
BLOOMINGTEX LTD.,"BURIGONGA SETU MARKET,5th FLOOR, 161 NEW JURAIN POSTAGOLA",Dhaka,Dhaka,1204,,1733521377,,,,No,No,,,1
Body Fashion,"Naogorkadda konabari,Gazipur,dhka",Gazipur,Dhaka,,,1720213346,,1,1/6;,No,No,,1135,2
Bodystretch Bangladesh Ltd,Tengury Zirani Bazar Holding 80,Dhaka,Dhaka,,0,1776330333,,,1/6;,No,No,,0,1
Bonded Fashion Ltd.,"Shataish Gazipura , Tongi , Gazipur",Gazipur,Dhaka,1712,2,9816961,,4,1/5 ; 2/1 ; 3/1 ; 4/1;,No,Yes,"1/0,1,2,3,4 ; 2/0 ; 3/0 ; 4/0;",1100,2
"Bonny Apparels (Pvt) Ltd. Unit ‐ 21, Chowdhury Para, D.I.T. Road, Dhaka",,Dhaka,Dhaka,1219,2,9351440,,103 1,01/06;,Yes,Yes,1/3; 1/6;,320,1
Borax Apparels Ltd.,"1/F,N‐E Darus Salam Rd.Mirpur1",Dhaka,Dhaka,,,1720962045,,,,No,No,,,1
Bottom Gallery Pvt. Ltd.,"Bulbul Towar,Digir Chala,Chandana",Gazipur,Dhaka,1700,2,9252016,,1,0;,Yes,No,"1/1,2,3,4,5,6,7;",2345,6
BRANDIX CASUALWEAR BANGLADESH,"Plot 61‐71 & 85, E.P.Z",Comilla,Chittagong,,,71082,,5,"1/1,2/1,3/1,4/1,5/1;",No,No,,3000,1
BRITEX SPORTSWEAR LIMITED,"Parijat, Konabari, Gazipur",Gazipur,Dhaka,1346,,,,1,1/6;,No,Yes,"1/1, 2, 3, 4, 5;",650,2
BROTHERS FASHION LTD,"29, Karwan Bazar, Dhaka",Dhaka,Dhaka,1215,,,,1,1/11;,No,No,NA,1000,1
C & A Fashion Ltd,"32/A, BSCIC I/A, Kalurghat (EXTN), Chittagong",Chittagong,Chittagong,4212,31,2570639,,1,1/6;,No,No,fully Own building * Gr. Fl. C&A textile (dyeing) * 1st fl. C&A textile (knitting) * 2nd fl. C&A fashion +knit express ltd (cutting) * 3rd fl. C&A fashion +knit express ltd (finishing) * 4th,408,1
CA Knitwear Ltd.,"Bhobanipur, Gazipur, Dhaka",Gazipur,Dhaka,1700,2,9860445,,3,"1/3, 1/3, 1/1 ‐under one ownership & management, 1/1;",No,No,,1200,3
Cadtex Garments Ltd,"Kutubail, Fatullah",Narayanganj,Dhaka,,2,1678039911,,,,No,No,,520,1
CAESAR APPARELS LIMITED.,"82, NASIRABAD INDUSTRIAL AREA, BAIZID BOSTAMI ROAD.",Chittagong,Chittagong,4000,31,2584003,,,"1/6,",No,No,Not Shared,1248,1
Calico Sweater ltd,"Ashulia,Zirabo,Savar",Dhaka,Dhaka,1341,,,,,"1/3,",No,No,,250,1
Camio USA Knitwear Ltd.,"Kadda Nandan,Kadda Bazar , Joydebpur",Gazipur,Dhaka,1700,,1713490252,,2,1/3 ; 2/1;,No,No,"1/0 ,1, 2 ; 2/0;",650,1
Capella,"South baipail,Ashulia,Savar",Dhaka,Dhaka,1349,2,917037,,,"1/3,",No,No,,350,2
Capital Poshak Ltd.,"House # 18; Road # 34; Sector # 7, Uttara / Dhaka Dhaka",,Dhaka,1230,2,79124613,,5,1/5; 2/3; 3/2; '1/3; 2/7,No,No,"‐ '1/2; 2/4, 5, 7",1590,1
Capri Apparels Ltd,"B‐193 BSCIC Industrial Estate , Tongi ,Gazipur",Gazipur,Dhaka,1710,2,8118129,,1,1/6;,No,No,,1590,4
Carlos Leather Fashion Ltd.,"Teknog Para, Joydebpur, Gazipur",Gazipur,Dhaka,1702,,1713246407,,1,1/2;,No,No,,1000,1
Cassiopea Apparels Ltd,"Bokran, Monipur, Vobanipur",Gazipur,Dhaka,,,,,5,1/7; 2/1; 3/1; 4/1; 5/1;,No,No,1/1/2/4/5/6/7;,2155,1
Cassiopea Clothing Ltd,"Plot # 1098, Ahalia, Torag",Dhaka,Dhaka,1230,2,7671112,,3 1,1/6;,No,No,‐,400,1
Cassiopea Fashion Ltd,"Bokran, Monipur, Vobanipur",Gazipur,Dhaka,,2,8618220,,7 5,1/7; 2/1; 3/1; 4/1; 5/1;,No,No,1/1/2/4/5/6/7;,3034,3
Fashion Ltd Unit 4),"LK Plaza, Holding No.‐90, Dakkinkhan",Dhaka,Dhaka,,2,7672713,,14 1,1/7;,No,No,1/Basement/2/4/ 5;,1303,1
CDF Design BD,"348/1/A Tejgaon Industrial Area, Tejgaon",Dhaka,Dhaka,1208,2,8891716,,1,1/6;,No,Yes,"1/6;3,4,5;",641,1
Centex Textile & Apparels Ltd.,"C.B. 230/3, Kachukhet, Puran Bazar, Dhaka Cantt Dhaka",,Dhaka,,2,9870067,,,,No,No,,,6
Chaity Composite Ltd.,"Chotto Shilmondi, Tripurdi, Sonargaon",Narayanganj,Dhaka,1440,,1912391193,,6,1/5; 2/3; 3/1; 4/1; 5/1; 6/1;,No,No,,1800,5
Chancellor Garments Ltd.,"Plot No. 38, Road 4, Shikder Realstreet",,,,,1712008724,,,,No,No,,,1
Chantik Apparels Ltd.,"Plot & Holding No. 01 (5th Floor), Turag Housing Ltd. Beribadh, Mohammadpur",Dhaka,Dhaka,,,175132678,,,,No,No,,,1
Chantik Garments Ltd.,"Kumkumari, Gouripur, Ashulia, Savar, Dhaka",Dhaka,Dhaka,,,1762981714,,,,No,No,,,4
Cherry (Pvt) Ltd.,"284, Ibrahimpur, Dhaka Cantt, Dhaka",Dhaka,Dhaka,1206,2,9871775,,1,9;,Yes,Yes,"1/1,2,3;",480,1
CHERRY Brassiere,"Sun Cherry Body Fashions Mfty. Ltd. Ward No 7, Holding No E‐44 Chandra,Kaliakoir Gazipur",Gazipur,Dhaka,,,1674946516,,1,1/5;,No,No,All,700,1
CHERRY INTIMATE LTD.,"Plot no: 105, Dhaka Export Processing Zone (DEPZ) Ganakbari,Dhaka, Ashulia",Dhaka,Dhaka,1349,2,7790892,,1,1;,No,No,,700,1
Cherry Knit Wear Ltd.,"Saravo, Kashimpur,, Gazipur,, Bangladesh",Gazipur,Dhaka,1346,,,,,,No,No,,,1
CHITTAGONG ASIAN APPARELS LTD,132 Nasirabad Industrial Area,Chittagong,Chittagong,,,614440,,4,1/6;2/4;3/2;4/1;,No,No,,2800,1
Chittagong Fashion,"Plot ‐ 26, Road‐04, Sector‐01, CEPZ",Chittagong,Chittagong,,,740685,,2,1/6; 1/1;,No,No,,1200,4
CHITTAGONG FASHION WEAR LIMITED,"6606, SOUTH HALISHAR, BANDAR",Chittagong,Chittagong,4214,31,741405,,3,1/6;2/6;3/5;,No,Yes,"3/3,4;",2580,1
CHITTAGONG KNITWEAR PVT LTD,"Plot No 17 and 18, Sector No 4, Export Processing Zone, Chittagong, Bangladesh",Chittagong,Chittagong,4223,31,741594,,,,No,No,,,1
CHOICE GARMENTS LIMITED,"FIDC ROAD, BSCIC INDUSTRIAL STATE, KALURGHAT.",Chittagong,Chittagong,4212,31,670301,,,"1/9,",No,No,Not Shared,1500,1
Chong Won ARS sweater ltd,"63 North Jatrabari, Dhaka",Dhaka,Dhaka,,2,7547063,,,,No,No,,,1
Chowdhuy Fashion Wear Ltd.,82 Nasirabad Industrial Area,Chittagong,Chittagong,,31,682423,,,,No,No,,,1
Chowdury Knitwears Ltd.,"BSCICI Ind.Estate, Shibpur, Narsingdi",Narsingdi,Dhaka,,2,9462205,,1,5;,No,No,"1/0,1,2,3,4;",392,1
Chunji Fashion Limited,"Luna Complex, South Khaielpur",Dhaka,Dhaka,,2,9884905,,,1/8;,No,No,"1/1,2;",196,1
Chunji Knit ltd.,"Satarkul Road, North Badda Plot No. 81‐82",Dhaka,Dhaka,1212,2,9884668,,,1/5;2/5;,No,No,,1800,2
CIDATEX APPAREL LIMITED,"Ward # 07, Holding # J‐01, Chandra, Kaliakoir",Gazipur,Dhaka,,,1711533586,,,,No,No,,356,4
CIVIC APPARELS LTD,"Plot 3,, Factory Road,, Gazipur",Gazipur,Dhaka,,,,,,,No,No,,,2
CLAMOON,"Plot 4, Block I, Road 6, Section 7, Mirpur, Dhaka",Dhaka,Dhaka,1216,,,,1,7;,No,No,N/A,1000,1
Classic Fashion Concept Ltd.,"Khartail, Shataish, Tongi, Gazipur.",Gazipur,Dhaka,1712,2,9804323,,1,1/4;,No,No,,985,3
Classic Fashions (formerly Classic Textiles),"Plot No. B359/360, BSCiC Hosiery I/E, Shasongaon, Enayetnagar, Fatullah, Narayanganj",Narayanganj,Dhaka,1400,,1832541111,,,1/6;,No,No,"1/1,2,3,4,5,6,7,8;",250,1
Classic Shirts Ltd.,"Ka – 76, Joar Shahara Bazaar, Badda, Dhaka",Dhaka,Dhaka,1229,2,8413358,,1,1/8;,No,No,No,914,1
Claxton Apparels Textiles Ltd.,"Hatipara, Tarabo, Rupgonj, Narayangonj",Narayanganj,Dhaka,1360,2,9895100,,1,",1/4;",No,No,no,1000,3
CLEARTEX INDUSTRIES LIMITED,"NAZIR SALEH COMPLEX, 314/358, D.T ROAD, EID GAO",Chittagong,Chittagong,4100,31,811494,,,"1/4,",No,No,Not Shared,550,2
Clifton Apparels,"108, NASIRABAD I/A, BAIZID BOSTAMI ROAD, Chiatagong",Chittagong,Chittagong,4211,,618056,,1,1/6;,No,No,,4400,1
CLIFTON TEXTILES & APPARELS LTD,"180, Baizid Bostami Road,, Nasirabad Industrial /A,, Chittagong,",Chittagong,Chittagong,4210,31,684413,,510 1,G+5;,No,No,,,2
COAST TO COAST (PVT.) LTD.,"698/C , Khilgoan chowdhury para",DHAKA,Dhaka,,2,8931628,,104,"1/7,",No,No,Not Shared,1300,1
Coeval Textiles Ltd.,"Barenda, Kashimpur, 1349 ‐ Gazipur",Gazipur,Dhaka,1349,2,8933612,,7,1/4; 2‐7/1;,No,No,,700,1
Colour & Fashion,"Madhkhola, Bairagirchala, Sripur, Gazipur",Gazipur,Dhaka,1740,2,8922684,,1,"1/0, 1/1, 1/2;",No,No,,660,1
Columbia Apparels Ltd,"228/1 Tin Sharak, Joydevpur",Gazipur,Dhaka,,2,9261776,,4,1/5; 2/1; 3/1; 4/1;,No,Yes,"1/2,3,4;",2500,2
Columbia Garments Ltd.,"Vogra, Chandana, Gazipur sadar",Gazipur,Dhaka,1700,2,8814048,,,1/2; 1/1;,No,No,,2136,2
COMBINED APPAREL LTD,"1670/2091, West Sholoshahar, Aturar Depot, Chittagong",Chittagong,Chittagong,4211,,681818,,,,No,No,,,1
"Comfit composite knit limited , unit‐2Amtola, Kathgora Bazar, Ashulia, Savar",,Dhaka,Dhaka,1340,2,7791371,,1,1/5;,No,No,,600,3
Comfit Composite Knit Ltd,"Gorai, Mirzapur",Tangail,Dhaka,1941,,1912161391,,13,"1/6; 2/5; 3/2; 4/3; 5/1; 6/1; 7/1; 8/1; 9/1; 10/1, 11/1; 12/1; 13/1;",No,No,,4000,4
Comfit Composite Knit Ltd.( Unit‐3),"Vannara Road, Po‐Purbo Mouchak, Ps‐ Kaliakoir, Dist‐ Gazipur",Gazipur,Dhaka,1751,,1912161391,,1,1/4;,No,No,,677,2
Comfort Apparels (PVT) LTD.,"96, Darus Salam Mirpur, Dhaka",Dhaka,Dhaka,1218,,,,1,6;,No,No,N/A,700,1
Common Threads Ltd ( C T L ),"118, Sher‐e‐Bangla Road, Hazaribag I/A, Dhaka",Dhaka,Dhaka,1209,2,9665751,,1,1/7;,No,No,,1050,1
Comptex Textiles Ltd,"Vulta, Rupgonj",Narayanganj,Dhaka,1460,2,9138162,,5,1/4; 2/5; 3/1; 4/1; 5/1;,No,No,,800,1
Concept Knitting,"Tilargati, Sataish Bazar, Tongi",Gazipur,Dhaka,,,,,,,No,No,,,4
Concord Fashion Export Ltd.,"South Shalna, Joydebpur, Gazipur, Dhaka",Gazipur,Dhaka,1703,,1678024126,,1,1/5;,No,Yes,"1/0,1,2,4;",870,2
Concorde Garments Limited,"Plot# M/3, Road#5, Section‐7, Mirpur, Dhaka",Dhaka,Dhaka,1216,,8052205,,2,1/5; 2/3;,No,No,,1660,4
Confidence Knitwear Ltd.,"Dhanua, Nayanpur, Sreepur, Gazipur",Gazipur,Dhaka,,2,7176036,,,,No,No,,,1
"connect fashions ltd,","11/5, jagannathpur, progoti sarani, bashundhara, dhaka",Dhaka,Dhaka,,2,98149867,,2,1/8; 2/7;,No,Yes,"1/5,6,7; 2/4,5,6;",2400,1
"Consumer Knitex Limited (CMT Bangladesh) Dhamsur,Bhaluka,Mymensingh",,Mymensingh,Dhaka,2204,,1833322488,,,,No,No,,1630,1
CONTINENTAL APPARELS LIMITED,"145, Monipuri Para,Airport Road Super Market,Tejgaon, Dhaka.",DHAKA,Dhaka,1215,2,8114834,,,"1/6,",Yes,No,"1/3,4,5,6;",1150,1
"CONTINENTAL GARMENTS IND. (PVT.) LTD. PLOT 8, WARD 2, BLOCK B, DEWAN IDRIS ROAD,",BORA RANGAMATIA,DHAKA,Dhaka,1340,2,7709124,,,1/4;,No,No,,2100,3
"Copper Co., Ltd","FS‐SFB‐4 (1ST FLOOR BOTH WINGS) CHITTAGONG EXPORT PROCESSING ZONE SOUTH HALISHAHAR, CHITTAGONG",Chittagong,Chittagong,,,1759920794,,1,1/4;,No,Yes,1/2;,201,1
Cordial Design LTD,"25/2 Shah Ali Bag, Mirpur‐01, Dhaka",Dhaka,Dhaka,1216,2,8057340,,,,No,No,,,2
Cortz Apparels Limited,"Nawjor,Kadda",Gazipur,Dhaka,2010,2,9264348,,1,1/6;,No,No,,1300,1
Cortz Apparels Ltd.,"Baniarchala, Bagher Bazar, Mirzapur",Gazipur,Dhaka,,2,9897529,,2,1/2;2/2;,No,No,‐,1310,1
Cosmopolitan Industries PVT Ltd (Epic),"Khejurbagan, Baro Ashulia, Ashulia",Dhaka,Dhaka,,2,8054697,,4,1/5; 2/3; 3/2; 4/2;,No,No,,5071,1
COSMOS SWEATERS LTD.,"DHAKA ROAD, CHANDANA, CHOWRASTA",Gazipur,Dhaka,1702,2,92570513,,3,1/1; 2/1; 3/1;,No,No,,2300,2
Cotton Club (BD) Ltd,"Jarun (South), Kashimpur, Gazipur., Cotton Clout (BD) Ltd, Jarun (South), Kashimpur, Gazipur., Tropical Knitex Ltd. Chandra (Polli Biddut), Kaliakoir, Gazipur",Gazipur,Dhaka,1700,2,9298645,,7 3,1/8; 2/4; 3/8;,No,No,,5048,3
Cotton Dyeing & Finishing Mills Ltd.,"Vill: Amtoli Union, 10 No. Habirbari PO: Seed Store Bazzar Thana: Valuka, Mymenshingh",Mymensingh,Dhaka,2240,2,8827502,,9,1/2; 2/2; 3‐9/1;,No,Yes,"1/1,2; 2/2; 3/1; 6‐ 9/1;",3200,3
Cotton Field (BD) Limited,"Shima Complex, Plot # 23,Shataish Road, Gazipura",Gazipur,Dhaka,,2,7788982,,1,1/8;,No,Yes,"1/8;0,1,2,3,4;",1465,3
Cotton Harvest LTD,1,Dhaka,Dhaka,,2,9291558,,1,1/8;,No,No,No,1360,1
Cotton Sourcing (Pvt) Ltd,"House #79, Road#5,Mirpur DOHS, Dhaka",Dhaka,Dhaka,1221,,1714091719,,,1/6;,Yes,Yes,1/1;,20,1
Cotton Textile and Apparels Ltd.,"Plot‐I/2,3 & 4(Ground Floor),I/4(1st to 4th Floor) Road‐7,Section‐7,Mirpur.Dhaka.",Dhaka,Dhaka,1216,2,90000,,,1/8;,No,No,,700,2
CPM composite knit pvt ltd,"98‐99 Zinzira, Savar, Dhaka",Dhaka,Dhaka,,2,7741526,,,,No,No,,,1
Creative Apparels Ltd.,"136,Mollartek,Udayan School Rd",Dhaka,Dhaka,,,1711526063,,,,No,No,,,1
Creative Woolwear,3/B Darus Salam Road,Dhaka,Dhaka,,,,,,,No,No,,,3
CRESCENT FASHION AND DESIGN LIMITED,"Beximco Industrial Park, Sarabo, Kashimpur",Gazipur,Dhaka,,2,8618220,,4,1/5;2/1;3/1;4/1;,No,No,,4900,4
CRONY GROUP ABANTI,"Plot No S, A‐646, Shoshangoan, Enayetnagar, Fatullah, Narayangonj",Narayanganj,Dhaka,1400,2,8415126,,2,10 Stories 2 buldings,No,No,,6000,1
Crony Tex Sweater Ltd.,"Plot No. 190‐193, 206‐209, Block B, BSCIC Industrial Estate, Fatullah, Narayangonj",Narayanganj,Dhaka,1400,2,8415123,,1,1/4;,No,No,,1354,3
CROSSLINE KNIT FABRICS LTD.,"3/C , VADAM , NISHAT NAGAR , TONGI , GAZIPUR Gazipur",,Dhaka,1711,2,9815257,,2,1/7; 2/7;,No,No,,3000,2
Crossline Woven Garments Ltd. (unit 1),"House 01, Road 02, Section 07, Industrial Area, Pallabi, Mirpur",Dhaka,Dhaka,,,,,1,6;,Yes,Yes,"Floors 1,2 : Washing Floor 3 : Crossline Woven unit 1; Floor 4 Print Floor 5, 6 : Crossline Woven unit 1",690,1
Crossline Woven Garments Ltd. (unit 2),"House 16, Road 13, Section 11 1/2, Pallabi, Mirpur, Dhaka",Dhaka,Dhaka,1216,,,,1,8;,Yes,No,"1st floor : Market Florrs 2, 3, 4, 5 : Other garment makers Floors 6, 7, 8 : Crossline Woven (unit 2)",450,1
Crown Fashion & Sweater Ind. Ltd.,"Crown Plaza , Plot No. 781 – 782, Vogra, Joydevpur, Gazipur",Gazipur,Dhaka,1704,2,9252574,,2,1/7 ; 2/8;,No,Yes,"1/0 ,1, 2, 3, 4, 5, 6 ; 2/0, 1, 2, 4 , 5, 6, 7;",4618,6
Crown Knitwear Ltd,"Plot #781‐782, Vogra, Joydebpur, Gazipur",Gazipur,Dhaka,1702,,,,,,No,No,,,5
Crown Wears (Pvt.) Ltd.,"Jamirda, Seedstore, Habirbari, Bhaluka, Mymensingh",Mymensingh,Dhaka,2240,2,9261233,,1,1/3;,No,No,,2150,1
Crystal Composite Ltd,"Khajur Bagan, Ashulia",Dhaka,Dhaka,1341,2,9012979,,2,"1/1, 1/6;",No,No,n/a,500,4
CUTTING EDGE INDUSTRIES LTD.,"1612, Dakhin Salna, Salna Bazar, Sadar",Gazipur,Dhaka,,2,9205131,,3,1/6; 2/3; 3/1;,No,No,,2700,2
D&S PRETTY FASHIONS LTD,"Pretty Square, South Salna, Joybedpur, Gazipur",Gazipur,Dhaka,1740,2,920444951,,5,"1/6; 2/1, 3/1; 4/1; 5/1;",No,No,,3000,3
D.S. Fashion Ltd.,"Mamun Nagar, Bara Vabanipur, Kashimpur, Gazipur",Gazipur,Dhaka,1346,2,8414697,,4,1/4;,No,No,,482,3
DADA DHAKA LTD.,"PLOT # 28 ROAD #13 SECTOR # 6, UTTARA C/A, DHAKA",Dhaka,Dhaka,1230,,,,1,1/4;,No,No,,2362,2
Daeyu Bangladesh LTD,"731, Bhannara Mouchak",,,,2,9298001,,2,,No,No,,,4
Dana Sweater Industries Ltd,"Soildubi, Kashimpur, Gazipur, Dhaka",Gazipur,Dhaka,1346,2,8618220,,7 10,1/2; 2/2; 3/2; 4/2; 5/1; 6/1; 7/1; 8/1; 9/1; 10/1;,No,No,‐,2150,9
Day Apparels Ltd.,"1351 Sultan Chawk Market, Aturar Depot‐West Sholashahar",Chittagong,Chittagong,,31,682690,,,,No,No,,,2
Day Fashions Ltd.,"1351 Sultan Chawk Market, Aturar Depot",Chittagong,Chittagong,,31,682690,,,,No,No,,,1
DAZZLING DRESSES LIMITED,"51/52, ISMAIL PLAZA, SHAH KABIR MAZAR ROAD DHAKA",,Dhaka,1230,2,9006747,,,1/6;,No,No,"1/3,4,5;",800,1
Debonair Limited,"Gorat, Sarker market Road, Ashulia, Savar, Dhaka Dhaka",,Dhaka,1341,31,7790844,,1,1/3; Debonair has sister concern Orbitex Knitwear Limited under same building & same ownership & management,No,No,,1600,4
"Debonair Limited Unit‐2Plot # 356, Shorifpur, Ozarpara, National","University, Joydebpur",Gazipur,Dhaka,,,1938898978,,2,1/3; 2/1;,No,No,,780,1
DEKKO APPARELS,"62, Kathgora, Amtola, Ashulia, Savar, Dhaka",Dhaka,Dhaka,1341,2,7792867,,,"1/5,",No,No,Not Shared,3100,1
Dekko Apparels Ltd.,"M/4, road 7, section 7 mirpur, Dhaka",Dhaka,Dhaka,,,1711531207,,1,1/7;,No,No,,1631,6
Dekko Designs Ltd,"Purba Naroshinhapur, Ashulia, Savar, Dhaka",Dhaka,Dhaka,,,1711531207,,4,1/6;2/2;3/2;1/1;,No,No,,4132,5
Dekko Fashions Ltd,"Plot # M/4, Road # 7, Section # 7, Mirpur, Dhaka Dhaka",,Dhaka,1216,,182369004398,,1,1/7;,No,No,"1/4,",1100,3
Dekko Garments Ltd.,"C‐35, Purabi, Mirpur",Dhaka,Dhaka,1216,,1841296483,,1,6;,Yes,Yes,1/2;,2300,2
DEKKO KNITWEARS LTD.,"Plot # M / 2 ‐ 1, Road # 7, Section # 7, Mirpur I / A",Dhaka,Dhaka,1216,2,9006747,,,1/8;,No,No,"1/4,5,6,7,8;",391,1
"DEKKO KNITWEARS LTD. UNIT ‐ 2Plot # M / 2 ‐ 1, Road # 7, Section # 7, Mirpur I /",A,Dhaka,Dhaka,1216,2,9006747,,,1/8;,No,No,"1/4,5,6,7,8;",469,1
Dekko Ready Wear Ltd.,"Plot # M/1, Road # 7, Section # 7, Mirpur, Dhaka Dhaka",,Dhaka,1216,2,9132934,,1,"1/10,",Yes,Yes,"1/7,",2850,5
Delicate Garments LTD.,"Rajaghat, Rajfulbaria, Savar, Dhaka",Dhaka,Dhaka,,2,8153681,,,,No,No,,,3
Delicate Knitwears Limited,"1/G, North Adabar, Shyamo",Dhaka,Dhaka,1207,0,888417478,,1,1/7;,No,No,,543,2
DELMAS APPARELS (pvt) LIMITED,"PLOT# 05, SECTOR# 2/A, ROAD# 1, CEPZ",Chittagong,Chittagong,4214,31,740974,,103,"1/5,",No,No,Not Shared,1250,1
Delta Clifton Textile & apparels,"180 Baizid Bastami Road, Nasirabad I/A",Chittagong,Chittagong,,31,684413,,1,1/5;,No,No,‐,3365,1
Denim Expert Limited,"Plot #96‐100, Sector #3, Kepz, North Patenga",Chittagong,Chittagong,,2,8052340,,3,1/3; 2/1; 3/1;,No,No,‐,1500,2
DENIM EXPERT LIMITED,"Plot 91‐93,, Karnaphuli EPZ",Chittagong,Chittagong,,,,,,,No,No,,,1
Denim Plus ( BD ) Ltd.,"Plot 3‐8, Sector 7, CEPZ, Chittagong, Bangladesh, Chittagong Export Processing Zone",Chittagong,Chittagong,,0,8054697,,4,1/4; 2/1; 3/1; 4/1;,No,No,,1650,3
Denimach,"Kewa Mouja, Ward No. 5, Gorgoria Masterbari, Sreep",Dhaka,Dhaka,,,,,,,No,No,,,2
Denison,"West isdaie, police line, Fatullah, Narayangonj, Dhaka",Narayanganj,Dhaka,,2,7632156,,1,1/4;,No,Yes,"1/2,3;",300,2
DESH SWEATER LTD,"SHARIFPUR(SONDA), NATIONAL, UNIVERSITY GAZIPUR",Gazipur,Dhaka,,2,9293485,,,1/5;,No,No,,600,1
Design Destination limited,"Sayed M hossain Road , west Isdire Tagarpar , Fatullah",Narayanganj,Dhaka,1400,2,7645817,,106,3;,No,No,,330,3
Designtex Fashions Ltd.,"Zirabo, Ashulia, Savar, Dhaka",Dhaka,Dhaka,1341,2,7708996,,,"1/6,",Yes,No,"2,3,4,5;",1350,1
Designtex Sweater Ltd.,"255, Konabbari, Gazipur",Gazipur,Dhaka,,,1711523665,,2,1/6;2/1;,No,No,,2367,2
Desun Garments Ltd.,"89/1,Birulia Road,Savar, Dhaka",Dhaka,Dhaka,1340,1,7743668,,1,4;,No,No,,450,1
Dew Fashion Ltd,"House # 65, Board Bazar, Gazipur",Gazipur,Dhaka,,2,9292461,,2,"1/0, 1/1, 1/2, 1/3, 1/4, 1/5; 2/0;",No,Yes,"1/1, 1/3; 2/0 (shed)",1667,1
DGN Appraels Ltd,"Habibullah Tower,Vogra, National University",Gazipur,Dhaka,1704,2,88264293,,1,1/6; 1/7;,No,No,No,462,1
DHAKA PULLOVER LTD.,"63.GOLARTEK,MINEUR    DHAKA",Dhaka,Dhaka,,2,9252746,,,,No,No,,,1
Diana Garments,"Mili Super Market,199/1,Ibrahimpur",Dhaka,Dhaka,,0,8828151,,1,1/6;,No,No,,1283,1
DICA TEX LTD,"House 49 Road 13, Sector 11, Uttara Dhaka 1230, House 49 Road 13, Sector 11, Uttara Dhaka",Dhaka,Dhaka,1230,2,1833314380,,2,1/5;,No,No,‐,480,1
Dica‐Tex Ltd,"South Panishail Zeerani Kashimpur, Gazipur Dhaka",Gazipur,Dhaka,,,,,,,No,No,,,1
Diganta Sweaters Ltd,"Tangail Road, Chandana, Chowrasta",Gazipur,Dhaka,1702,2,9257051,,5,1/7; 2/7; 3/6; 4/1; 5/1;,Yes,No,1/0‐5; 2/0‐6; 3/1‐ 5; 4/0; 5/0;,12000,2
Digital Fashion,"House#3, Road#15, Sector#10, Uttara Model Town , Dhaka",Dhaka,Dhaka,1230,,1915728602,,,1/2;,Yes,Yes,"1/1,2;",20,1
Bangladesh),"Betjuri, Natun Bazaar, Sreepur, Gazipur",Gazipur,Dhaka,1400,,1833322488,,,,No,No,,666,1
Dinatex International Ltd.,"Landmark Complex, Sadhupara, Boro Ashulia, Ashulia, Savar",Dhaka,Dhaka,1348,2,7741935,,2,1/1; 2/9;,No,Yes,"1/0,1; 2/1;",1188,2
Dip Knitwear Ltd.,"34‐35, Chaydana, National University, Gazipur Sadar, Gazipur, Dhaka",Gazipur,Dhaka,1704,2,9293333,,,1;,No,No,No,430,1
Dipta Garments Lts ‐ Unit of Dird Group,"Nagarchar, Rajfulbaria, Savar",Dhaka,Dhaka,,2,8823621,,2,1/6;2/3;,No,No,All,1950,3
Dird Composite Textiles Ltd.,"Shathiabari, Dhaladia, Rajendrapur, Sreepur",Gazipur,Dhaka,1741,2,8825397,,10,1/7; 2/7; 3/1; 4/1; 5/1; 6/1; 7/1; 8/1; 9/1; 10/1;,No,No,,3200,5
Disari Apparel Pvt.Ltd.,"193,BSCIC,Tongi",Gazipur,Dhaka,1710,2,9804159,,1,"1/6,",No,Yes,"1/0,1,3,4;",400,1
Disari Industries Pvt.Ltd.,"193,BSCIC,Tongi",Gazipur,Dhaka,1710,2,9804159,,1,"1/6,",No,Yes,"1/0,2,3,4",350,5
Divine Design Ltd,"12/13 BSCIC Industrial Area Kalurghat, Chandgoan",Chittagong,Chittagong,3343,,2572868,,1,1/7;,No,No,,800,5
DIVINE TEXTILE LTD.,"Chandra, Kaliakoir",Gazipur,Dhaka,1750,,1711698617,,10,1/9; 2/3; 3/3; 4/4; 5/1; 6/1; 7/1; 8/1; 9/1; 10/1;,No,No,,2400,4
DK Knitwear Ltd.,"Zamgora, Savar, Dhaka, Bangladesh, Dhaka",Dhaka,Dhaka,1217,2,8827134,,1,,No,No,,750,1
DK Sweater Ltd.,"Shampur, Dhaka",Dhaka,Dhaka,1217,0,7417882,,,,No,No,,,1
"DK Textil Ltd., DK Knitwear Ltd.","Zamgora, Savar, Dhaka Khal, Khulna",Dhaka,Dhaka,1217,0,8827134,,,,No,No,,,1
"DK.Sweater LTD, Unit 110/2 Hazi Pear Prathomik Biddaloy Road, Baro","Dewra, Tongi, Gazipur",Gazipur,Dhaka,1700,,1841122114,,1,1/4;,Yes,No,"1/1, 1/2;",250,1
"DK.Sweater LTD, Unit 2Plot # 09, Road # 02, Shyampur I/A, Dhaka",,Dhaka,Dhaka,1200,,1841122114,,1,1/4;,Yes,No,"1/2, 1/3, 1/4;",350,1
DNV Clothing,"Plot No. 100/101, AEPZ, Adamjee Nagar, Siddhirgonj",Narayanganj,Dhaka,,,,,,,No,No,,,3
Dody Exportwear Ltd,"Satter Tower,Kunia‐BaroBari Sadar",Gazipur,Dhaka,1704,2,9291231,,,1/9;,No,No,,1320,3
Doreen Garments Ltd,"Dakkhin Panishail,N.K.Link Road",Gazipur,Dhaka,1700,2,8651212,,1,1/5;,No,No,,2000,2
Dotcom Sweater Limited,"Plot 92, Nawzore, Codda Bazar, Gazipur",Gazipur,Dhaka,1700,2,9263159,,2,"1/6,2/1,",Yes,Yes,"1/6,2/1;",1650,2
Dragon Sweaters Bangladesh Ltd,"25/2 Dit Road, Malibagh, Chowdhury Para",Dhaka,Dhaka,1219,2,9252817,,1,1/18;,No,No,‐,1080,2
DRAGONI FASHIONS LTD,"Kulgaon, Baluchara",Chittagong,Chittagong,4214,31,682043,,,1/4;,No,No,,0,3
Dream Top (BD) Ltd.,"Plot#38, J.L‐ 153,National University, Board Bazar Gazipur",,Dhaka,1704,,1711977397,,1,6;,No,Yes,"1/0,1,2;",700,1
Dreamwears Ltd.,"Plot #M/17, Section #14, Senpara Parbata",Dhaka,Dhaka,,2,900916,,,,No,No,,,2
GROUP),"1101. D.I.T Road, Malibagh Chowdhury para, Dhaka",DHAKA,Dhaka,1219,2,9336501,,,"1/8,",No,No,Not Shared,1100,1
Dress Shirts Ltd.,"49, NP Kalurghat Heavy Industrial Area, Chittagong",Chittagong,Chittagong,4208,31,670463,,2,"1/8, 2/10;",No,Yes,4th Floor,1300,1
Dress up Ltd,"Dakshin Krishnapur,Rajason,Savar",Dhaka,Dhaka,1340,2,958003,,,"1/3,",No,No,,700,1
Dress World Ltd.,"Varari, Rajfulbaria, Tetuljhora, Savar, Dhaka",Dhaka,Dhaka,1340,1,7743312,,1,1/7;,No,Yes,1/3;,,4
Garments Ltd,"Pallirani, Chandra, Kaliakoir",Gazipur,Dhaka,1750,2,8815863,,,1/3;,No,No,,0,2
DRESSMEN FASHION WEAR LIMITED.,"Khan Tower, (4th & 5th Floor), Sabek‐20/1‐ A,Hal#17, Sataish, Main Road, Tongi, Gazipur",Gazipur,Dhaka,1712,2,8815863,,,"1/6,",No,Yes,"1/4,5;",1350,1
DSL SWEATER LTD,"PLOT#450, KALAMESWOR, BOARD BAZAR, NATIONAL UNIVERSITY, GAZIPUR",Gazipur,Dhaka,,2,9292952,,,1/5;,No,No,N/A,750,1
D‐Tex Limited,"Mauchak, Gazipur, Dhaka",Gazipur,Dhaka,1710,,1711288546,,,1/3;,No,No,"1/1,2,3;",120,1
Ducati Apparels Ltd.,"Kathgora, Ashulia, Savar",Dhaka,Dhaka,,,1711531378,,3,1/2; 2/4; 3/4;,No,No,,987,3
Duranto Knit Textiles,"A/64‐66,BSCIC Industrial Estate, Konabari, Gazipur",Gazipur,Dhaka,,2,9298588,,,,No,No,,496,1
Dynamic Fashoin Ltd,"1/1 RingRoad Shamoli,Mohammadpur, Dhaka",Dhaka,Dhaka,1207,2,91200489122963,,1,"1/5,",Yes,Yes,"1/2,",470,1
Dynasty Sweaters (BD) Ltd,"Aukpara, Ashulia, Savar, Dhaka",Dhaka,Dhaka,1341,1,7748701,,1,1/7;,No,Yes,1/4;,1592,3
DZ Garments Ltd.,"Plot No. M‐2/1, Street & Section‐7, Mirpur (Pallabi)",Dhaka,Dhaka,,2,8014852,,,,No,No,,,1
EAST WEST SERVICES LTD,"232‐234,Tejgaon Industrial Area, Tejgaon",Dhaka,Dhaka,1208,2,8821993,,1,1/6;,No,No,All,802,1
ECHOTEX LTD.,"Chandra, Palli Biddut, Kaliakoir",Gazipur,Dhaka,1750,2,6820,,10,1/10; 2/7; 3/2; 4/2; 5/2; 6/1; 7/1; 8/1; 9/1; 10/1;,No,No,,6000,6
EFA APPARELS LIMITED,"JAHAN BUILDING‐4, 76 AGRABAD COMMERCIAL AREA (5th AND 6th FLOOR)",Chittagong,Chittagong,4100,31,713748,,,"1/7,",Yes,Yes,"1/5,6;",500,1
EH Fabrics Ltd,"221‐225,sataish road,Gazipura,Tongi",Gazipur,Dhaka,,,1913383384,,1,1/7;,No,No,,1650,6
Ehsan Fashion Ltd.,"B‐40, Bscic Industrial Estate, Tongi, Gazipur",Gazipur,Dhaka,,2,9800364,,1,1/6;,No,No,No,1339,4
Ehsan Gaments Ltd.,"Kuniapachar, Targach, Gazipur",Gazipur,Dhaka,1704,2,9291372,,5,1/7 ; 2/2 ; 3/1 ; 4/1 ; 5/1;,No,Yes,"1/0 , 1 , 4 , 5 , 6 ; 2/0 , 1 ; 3/0 ; 4/0 ; 5/0;",1650,5
Ekram Sweaters Ltd.,"Kathalia, Valuka, Mymensing",Mymensingh,Dhaka,,,1748428918,,,,No,No,,,1
ELEGANCE ORIENTAL LTD,"9, SHALIKCHURA, ERSHADNAGAR, TONGI",Gazipur,Dhaka,,2,29815630,,2,1/6;2/5;,No,Yes,"1/5;0,1,2,3,4,5;",1325,1
ELITE GARMENTS INDUSTRIES LTD.,"Bade Kalmeswer, Board Bazar",GAZIPUR,Dhaka,,2,9291465,,5,1/3;2/4;3/6;4/4;1/1;,No,No,,2450,2
Emerald Dresses ltd,"Hazi Adam ali,Complex,Dagerchala,board bazar",Gazipur,Dhaka,1704,2,9293991,,3,"1/5,",No,Yes,"1/5,",700,1
Energypac Fashions Ltd,"Hotapara Bokran Monipur; Bhabanipur; Gazipur, Dhaka",Gazipur,Dhaka,1749,2,9651883,,1,1/5;,Yes,Yes,"1/2,3,4,5;",1087,2
Enrich Sweater,"East Kolmashor, Bottola Road, Board Bazar, Gazipur,Dhaka",Gazipur,Dhaka,1710,,1966600022,,3,1/4 ; 2/2 ; 3/1;,Yes,Yes,"1/1,2,3,4 ; 2/1,2 ; 3/1;",632,1
Envoy Fashions Limited,"Diakhali, Yearpur, Jamgara, Savar",Dhaka,Dhaka,1341,,1713025071,,1,1/7;,No,No,,1936,3
Epcot Apparels Ltd,"Chandana, Joydebpur",Gazipur,Dhaka,1700,2,8917549,,,1/3;,No,No,1/0;,612,2
Epcot Jeans Ltd,"Chandana, joydebpur, Gazipur",Gazipur,Dhaka,1207,,1713450000,,,1/3;,No,No,1/1;,560,1
Epic Garments manufacturing Co Ltd,"Plot #11‐17, 32‐34 Adamje EPZ, Adamjee Nagar",Narayanganj,Dhaka,,2,7691986,,11,1/2; 2/1; 3/1; 4/1; 5/1; 6/1; 7/1; 8/2; 9/1; 10/1; 11/1;,No,No,,5050,2
EPOCH GARMENTS LTD,"54, SHANTINAGAR, DHAKA",Dhaka,Dhaka,1217,2,8313293,,1,"1/6,",No,No,N/A,850,1
Epyllion Knitex Ltd,"Jangaliapara, Banglabazar, Vhawal, Mirzapur, Gazipur Sadar",Gazipur,Dhaka,1706,,1730051843,,,1/4.2/1;,No,No,,740,1
EPYLLION KNITWEARS LTD.,"Plot # I / 6, Road # 6, Section # 7, Mirpur I / A",Dhaka,Dhaka,1216,2,9006747,,240,1/7;1/7;3/7;,No,No,,1900,1
EPYLLION STYLE LTD.,"Bahadurpur, Bhawal, Mirzapur",Gazipur,Dhaka,1940,2,9205619,,1,1/2;,No,No,,3200,3
Ershad Knit,"Latifpur, Sardagonj, Kashimpur, Gazipur Sadar, Dhaka",Gazipur,Dhaka,1710,,1726452737,,,1/3;,No,No,"1/1,2,3;",305,1
ESE Knitwear LTD.,"Plot No‐1147,Khejurbagan, Baro‐Ashuliya,Savar",Dhaka,Dhaka,1341,,1819243570,,,,No,No,,,1
Esquire Knit Composite Ltd.,"22/58, Kanchpur, Sonargaon, Narayangonj",Narayanganj,Dhaka,1430,2,9112539,,10,1/3; 2/3; 3/3; 4/4; 5/1; 6/3; 7/3; 8/1; 9/13; 10/3;,No,Yes,"1/0,1,2; 2/0,1,2; 3/0,1,2; 4/0,1,2,3; 5/0; 6/0,1,2; 7/0,1,2; 8/0; 9/0,1,2,3,4,5,6,7,8 ,9,10,11,12; 10/0,1,2;",5800,11
Esses Fashions Ltd.,"Beximco Industirial Park, Sarabo",Dhaka,Dhaka,,2,8618220,,1,1/1;,No,No,,1955,2
Ethical Garments Ltd.,"376, South Monda (3rd, 4th, 5th, 6th Floor), Saburbagh",,,,2,7274114,,,,No,No,,,2
Eton Fashions Ltd,64 Purana Paltan Lane,Dhaka,Dhaka,,,,,,NA,No,No,NA,,1
ETTADE JEANS LTD,"1670/2091, BUILDING NO# 3,WEST SHOLOSHAHAR, ATURAR ,DEPOT, PANCHLAISH, CHITTAGONG",Chittagong,Chittagong,,2,580957,,3,5;,No,No,‐,1400,3
Euro Jeans Ltd,"Vogra,Chowdhury Bari,Gazipur",Gazipur,Dhaka,1704,2,8814484,,2,"1/2,2/2,",No,No,"1/2,2/2;",1550,4
Euro Washing Ltd.,"Chowdhuri Bari, Vogra, Gazipur",Gazipur,Dhaka,,2,9264240,,1,1/1;,No,No,,218,1
EUROTEX KNITWEAR LTD.,"Nayamati, Kutubpur, Fatullah, Narayangong",Narayanganj,Dhaka,1400,2,7646605,,2,1/6; 2/0;,No,No,NA,1200,7
Eurozone Fashion Ltd.,"Plot#Ka‐189/3,Jamaj Road,Joar Shahara,Badda",Dhaka,Dhaka,1229,,1720339808,,1,1/6;,No,Yes,"1/2,3,4,5;",3000,1
Eve Garments,"Ashulia, Savar, Dhaka",Dhaka,Dhaka,1341,2,7741720,,1,6;,No,No,,870,1
Ever Fashion Tongi Ltd,"Plot # D‐204,205,206, BSCIC Industrial Area, Tongi, Gazipur",Gazipur,Dhaka,1710,,1713063130,,,,No,No,,,1
Ever Smart Bangladesh Ltd.,"BEGUMPUR, HOTAPARA, Bhabanipur",Gazipur,Dhaka,1740,,555149,,2,1/7; 2/1;,No,No,,1450,2
Everbright sweaters ltd,"Kathgora,Ashulia,Savar,Dhaka",Dhaka,Dhaka,1341,2,7791418,,,"1/6,",No,No,,1150,1
Everest Sweaters Ltd.,"M.H. Building, 15 Strand Road",,,,31,171762213,,,,No,No,,,1
EVITEX APPARELS LIMITED,"SHIRIR CHALA,, BHABANIPUR",Dhaka,Dhaka,,,,,,,No,No,,,1
EVITEX FASHIONS LIMITED,"Vill‐ Shirir Chala,, P.O. : Bhabanipur",Dhaka,Dhaka,,,,,,,No,No,,,1
EWS,"Akran Birula Savar, Dhaka",Dhaka,Dhaka,1216,,,,,,No,No,,,1
Exensive fashion Ltd,"Rajfulbaria, Savar, Dhaka",Dhaka,Dhaka,,2,7114175,,1,1/5;,No,No,No,480,1
Experience Clothing Co.Ltd,"Plot # 72,82, DEPZ. Ganakbari, savar, Dhaka",Dhaka,Dhaka,1349,,7789101,,2,"1/5,2/5;",No,No,"1/5,2/5;",3100,7
Faa Apparels Ltd.,"Joynabari, Hemayetpur, Savar",Dhaka,Dhaka,,,1723043111,,,,No,No,,,2
Fabin Apparels Ltd,"33/8 Esha kha road ,killarpul,Narayanganj",Narayanganj,Dhaka,1325,2,7645961,,1,,No,No,,215,1
Fabulous Fashions Ltd.,"Plot # 15‐16, Road # 04 Section # 07, Mirpur I/A",Dhaka,Dhaka,,,,,,NA,No,No,NA,,1
FAIR CHOICE GARMENTS LIMITED.,"DELUX HOUSE#03 (2nd FLOOR), 209/227 KULGAON, BALUCHARA",Chittagong,Chittagong,4214,31,2583451,,,"1/5,",No,Yes,"1/3,4;",260,1
FAIR WASHING LTD,"East Chandura,Shafipur,Kaliakoir",GAZIPUR,Dhaka,1751,2,9883481,,260 3,1/2;2/2;3/1;,No,No,Not Shared,750,1
FAIRLON GARMENTS LIMITED,"WEST DOGORI, BHAWAL MIRZAPUR, GAZIPUR.",Gazipur,Dhaka,1230,2,29564082,,1,2;,No,No,N/A,196,1
Fakhruddin Textiles Mills Limited,"Ghargharia, Master Bari, Kewa, Sreepur, Gazipur Gazipur",,Dhaka,1740,68,255142023,,11,1/3;2/6;3/3;4/1;5/1;6/1;7/1;8/1;9 /1;10/1;11/1;,No,No,,4500,10
FAKIR APPARELS LTD.,"16/17A BSCIC INDUSTRIAL AREA, ENAYETNAGAR, FATULLAH",Narayanganj,Dhaka,1400,2,7671300,,10,"1/9; 2/7; 3/11; 4/3; 5/6; 6/5; 7/1; 8/1, 9/1; 10/1",No,No,,5500,3
Fakir Apparels Ltd.,"A127‐131, 135‐138, 142‐145, B501‐503, Bscic Hosiery Industrial Estate, Enayetnagar, Fatullah, Narayanganj",Dhaka,Dhaka,1400,86,7671214,,9,1/10; 2/7; 3/10; 4/6; 5/6; 6/3; 7/2; 8/1; 9/1;,No,No,,5500,5
Fakir Fashion,"Dohargaon, Baliapara, Rupgonj",Narayanganj,Dhaka,1460,2,966677448,,11,1/7; 2/2; 3/2; 4/3; 5/4; 6/1; 7/1; 8/1; 9/1; 10/1; 11/1;,No,No,,6000,6
FAKIR KNITWEARS LTD.,"KAYEMPUR, FATULLAH",Narayanganj,Dhaka,1400,2,764137980,,12,1/8; 2/6; 3/5; 4/14; 5/3; 6/2; 7/1; 8/3; 9/3; 10/1; 11/1; 12/1;,No,No,,9000,4
Faltex Composite Limited,"B18 (PART), BSCIC, Industrial Estate, Tongi, Gazipur.",Gazipur,Dhaka,1341,2,9816946,,2,1/6 ; 1/1;,No,Yes,"1/2 , 3 , 4 ,5 , Rooftop ; 1/0;",495,1
FAME DESIGN LTD.,"Plot No: A115/116, Bscic Hoisiery Shilpanagary,",Narayanganj,Dhaka,1421,2,7670400,,,,No,No,,,2
Fame Knitwears Ltd.,"Hazi Kudrat Ali Molla Super Market,1 Harunabad,Pallabi,Section‐12",Dhaka,Dhaka,1216,,1718115580,,1,8;,Yes,Yes,"1/2,3;",3500,3
Fame Sweater Ltd.,"124,Darail,Shataish,Tongi",Gazipur,Dhaka,1712,,1718115580,,1,7;,No,Yes,"1/0,1,2,3,4;",1400,5
Familytex (BD) Ltd,"Plot 47‐48, Road 05 Sector 4, CEPZ",Chittagong,Chittagong,,2,7615933,,5,1/5; 2/1; 3/1; 4/1; 5/1;,No,No,‐,1435,4
Fancy Fashion,"1153‐54, Shahid Siddique road,Khailkur, board bazar, gazipur, Dhaka",Gazipur,Dhaka,,,1711563140,,1,1/5;,No,No,,1896,5
Far East Knitting & Dyeing Industries Ltd,"Chandona, Thana‐Kaliakoir, Gazipur",Gazipur,Dhaka,,2,7672022,,6,1/5; 2/7; 3/2; 4/1; 5/1; 6/1;,No,No,‐,4298,9
FARIHA KNIT TEX LTD.,"Westmasdair Road, Enayetnagar, Fatullah",Narayanganj,Dhaka,1400,2,76703813,,8,1/7; 2/6; 3/3; 4/2; 5/3; 6/1; 7/1; 8/1;,No,No,,3200,10
FARKANTEX LTD.,"PLOT#1‐2, SECTOR #5/A, CEPZ , CHITTAGONG",Chittagong,Chittagong,4223,31,741520,,2,1/1;2/1;,No,No,Not Shared,968,1
Farmin Fashion Design Ltd.,"154, Kamrabad, Aturar Depot, P.O. Amin Jute Mills,",Chittagong,Chittagong,,31,682918,,,,No,No,,,2
FARR CERAMICS LIMITED,"Noulapara, Bhabanipur",Gazipur,Dhaka,1700,2,9340991,,8,1/1;2/1;3/1;4/1;5/1;6/1;7/1;8/1;,No,No,All,942,4
Farseeing knit composite Ltd,"Faridpur,Telihati, Sreepur",Gazipur,Dhaka,1703,2,8917890,,1,1/1;,No,No,‐,441,2
Farzana Fashion World Ltd.,"N‐224/A, Nur Complex, Dighir Par, D.T. Road, Dewanhat, Double Mooring",Chittagong,Chittagong,,31,717231,,,,No,No,,,1
Fashion 2000 Ltd,367/1 Senpara parbota Mirpur Dhaka,Dhaka,Dhaka,1216,2,8020125,,248,1/10;,No,No,,2000,2
Fashion Asia Ltd.,"4/2A,Plot#49&57,135 Gopalpur, Monnunagar,Tongi, Gazipur",Gazipur,Dhaka,1710,,1833313626,,,1/7;2/2;,No,No,N/A,2000,5
Fashion Crafts & Design Ltd.,"47, Tagnogpara, Chandona, Gazipur, Ghaga, Dhaka",Gazipur,Dhaka,1702,2,9261896,,1,1/3;,No,No,1/3;,,2
Fashion Exposure Ltd,"4 Harunabad, Mollah Market,Pallabi, Mirpur‐12, Dhaka",Dhaka,Dhaka,1221,2,9004002,,1,"1/9,",Yes,Yes,"1/9,",722,1
FASHION FLASH LTD,"149, Shah Kabir Mazar Road, Azampur, Uuttara, Dhaka",Dhaka,Dhaka,1230,2,8960710,,1,1/5;,No,No,NA,780,5
Fashion Forum,"367/1, Senpara Parbota",Dhaka,Dhaka,,,,,,,No,No,,,1
Fashion Forum Limited (Ashulia),Jamgara,Dhaka,Dhaka,,2,9006232,,1,1/5;,No,No,All,3354,1
Fashion Forum Ltd,"53, 54 Diakhali, Zamgora Asulia Savar",Dhaka,Dhaka,1216,2,7790733,,,1/7;,No,No,,4000,4
Fashion Knit Garments Ltd (Pride),"4,Karnapara,Savar",Dhaka,Dhaka,1340,2,7747952,,5 4,1/5; 2/1; 3/1;4/8;,No,No,,2850,3
FASHION NETWORK LTD.,"86, New Elephant Road, New Market, Dhanmondi",Dhaka,Dhaka,1205,,193729660000,,,,No,No,,,1
Fashion Step Limited,"16/3, Tilargati Road, Shataish, Gazipura, Tongi, Gazipur",Gazipur,Dhaka,1217,,1713206096,,1,1/5;,No,No,,500,1
Fashion Suits and Trousers ltd,"Chhoydana, K.B.Bazar, National University",Gazipur,Dhaka,,2,9291397,,3,1/5; 2/6; 3/7;,No,Yes,"1/0,1,2,3,4; 2/0,1,2,4,5; 3/0,1,2,3,4,5;",593,8
Fashionit Co. Ltd.,"Hazi Hamidullah Mansion, Jamgora, Ashulia, Saver, Dhaka",Dhaka,Dhaka,,,1740914035,,1,1/10;,No,No,,1403,1
Fashionit Company,"Hazi Hamidullah Mansion, Jamgara, Ashulia, Savar, Dhaka",Dhaka,Dhaka,1349,2,740914035,,1s,Building 1 ‐ 9 Storied,No,No,,1189,2
Fashrobe Garments Ltd,"2nd Floor, Malibagh Super Market, 468,, DIT Road, Malibagh",Dhaka,Dhaka,1217,2,9343947,,0,1/4;,Yes,No,shopping center In the 2 first floors,2000,1
Fast Wear Ltd,"68/Y, Sagarika Road,Phartali, Chittagong.",Chittagong,Chittagong,4219,31,752871,,1,"1/6,",Yes,Yes,"1/4,",760,1
Fatullah Fashion ltd,"Post office road, Fatullah",Narayanganj,Dhaka,1420,2,7671787,,,,No,No,,350,1
FCI (BD) Ltd.,"Plot No:36‐39, DEPZ, Ganokbari, SAVAR",Dhaka,Dhaka,,2,7788228,,4,1/2; 2/2; 3/2; 4/1;,No,Yes,1/1;,1950,3
Fergasam (Bangadesh),"Sfb, S‐F 3, 1st ‐ 3rd Floor, Chittagong Export Processing Zone,Chittagong",Chittagong,Chittagong,,2,31741404,,,Building ‐ 4 Storied (shared with Regency garments),No,No,,2148,3
FGS Denim Wear Ltd,"Kathgora,Zerabo, Ashulia, Dhaka",Dhaka,Dhaka,1000,,1755645606,,,1/2;,No,No,,950,2
Fgs Knit Wear Ltd.,"Beltola, Mirzanagar, Savar",Dhaka,Dhaka,1334,2,8913722,,1,"1/0,",No,No,,650,1
Fiat Fashion Ltd,"878, 879 , Sharifpur , Gazipur Sadar , Gazipur",Gazipur,Dhaka,1704,2,9292751,,2,1/6 ; 2/1;,No,Yes,"1/4,5 ; 2/0;",600,3
Fin Fashion Ltd,"10/A, Bonomala Road,Duttapara Road, Haji Market, Tongi, Gazipur",Gazipur,Dhaka,1712,2,9815718,,1,1/7;,No,No,,648,1
FINE STITCH APPRAELS LTD,"98 Chaydana ,Signboard , Gazipur",Gazipur,Dhaka,,2,9888865,,,"1/6,",No,Yes,"1/4,5,6;",1023,1
Finetex Knittwear ltd,Chowdhury complex,Narayanganj,Dhaka,,2,7643173,,1,1/4;,Yes,No,1/3;,750,1
FIRST WEAR LIMITED.,"68/Y, SHAGARICA ROAD, PAHARTALI, PAHARTALI THANA, CHITTAGONG",Chittagong,Chittagong,4219,31,752871,,,"1/6,",No,Yes,"1/3,4,5,6;",600,1
Florence Fashions Ltd,284.Ibrahimpur.Mirpur.Dhaka,Dhaka,Dhaka,1216,2,9871604,,1,"1/10,",Yes,Yes,"1/5,",850,3
Florescent Apparels,"81, Barabagh, Mirpur, Section 2, Dhaka",Dhaka,Dhaka,1216,2,8013739,,,,No,No,,450,1
Foptex (Pvt.) Ltd.,"Plot # A/24‐25, VSCIC Hosiery I/A Fatullah",Chittagong,Chittagong,,2,7672036,,,,No,No,,,1
Fortis Garments Ltd,"Holding ‐ 100/1, Block‐B,Shaheed Mosharraf Hossain Road, Purba Chandora, Shafipur,Kalikoir, Gazipur",Gazipur,Dhaka,1751,2,8412042,,1,1/7;,No,No,1/7;,1500,3
Fountain Garments Manufactorin,"Plot 61 ‐ 62, Baipal, Gizir Chat, Epz Road, Savar, Dhaka",Dhaka,Dhaka,1211,2,7702068,,,Building 1 ‐ 4 Storied,No,No,,1150,2
Four Brothers Fashion,"Dhaka Uddan, Beribadh, Mohammad pur, Dhaka Dhaka",,Dhaka,1207,,8125608,,1,"1/9,",Yes,Yes,"1/9,",2000,4
FOUR DESIGN (PVT.) LTD.,"Plot No. B359/360, BSCiC Hosiery I/E, Shasongaon, Enayetnagar, Fatullah, Narayanganj",Narayanganj,Dhaka,1400,2,7672087,,,1/8;,No,No,"1/1,2,3,4,5,6,7,8;",250,2
Four H Apparels Ltd.,"295, Jalalabad, Hathazari Road, Chittagong",Chittagong,Chittagong,4214,31,2584249,,157,1;,No,No,,1280,1
Four H Fashions Ltd.,"778,D.T.Road, Askarabad, Double Mooring, Chittagong",Chittagong,Chittagong,4224,,1818517490,,3,6;,No,No,N/A,520,2
Four H Intimates Ltd,"1154 DT Road, West Dhaniala Para",Chittagong,Chittagong,4100,,2510539,,1,1/7;,Yes,Yes,"1/7/5,6,7;",700,1
Four H Lingerie Ltd.,"BRTC Bus Depot, Baluchara",Chittagong,Chittagong,4335,,258032425,,2,1/3; 2/1;,No,No,,950,6
FOUR WING LIMITED,"PLOT # M/2, MAIN ROAD, MIRPUR‐14",Dhaka,Dhaka,,2,9011471,,1,1/9;,No,Yes,"1/0,2,3;",550,3
Freedom Knitwear Ltd.,"Plot # B‐504, Sasongaon,",NARAYANGANJ Dhaka,,,,1715393116,,,,No,No,,,1
French Fashions Knitting Pvt. Ltd.,"Plot no: 117, 125‐126, Adamjee EPZ, Siddhirgonj Narayanganj",,Dhaka,1431,,1729098816,,5,1/4; 2/1; 3/1; 4/1; 5/1;,No,No,‐,415,2
Fresh Fashion Wear,"638 Sharifpur, National University Gazipur Sadar Gazipur",,Dhaka,,,,,,,No,No,,,2
LIMITED,"13, W.P. MOHARA INDUSTRIAL ESTATE , KALURGHAT, CHANDGAON",Chittagong,Chittagong,,31,670024,,,"1/2,",No,No,Not Shared,675,1
Friends Stylewear Ltd.,"Maukhan, Harbald Sadar, Gazipur, Dhaka",Gazipur,Dhaka,1704,2,9816611,,2,1/2; 2/1;,No,No,1/2; 2/1;,,1
FUNNY SWEATER LTD,"A.R.Complex,Godnail,Chowdhurybary Shiddirganj",NARAYANGANJ Dhaka,,,2,7641801,,1,,No,No,,500,1
Future Clothing Ltd.,"Chatol Market, Surabari, Kashimpur, Gazipur sador, Gazipur",Gazipur,Dhaka,,,,,,,No,No,,,1
Fyne Sweaters Ltd.,"Degarchala, National University, Joydebpur, Gazipur, Dhaka",Gazipur,Dhaka,1704,2,9293505,,1,1/7;,No,Yes,1/6;,,1
G. K. Garments Ltd..,"89, Berulia Road, Savar, Dhaka",Dhaka,Dhaka,1340,2,7745622,,1,"1/8,",No,Yes,2ND FLOOR,705,1
Garib & Garib Company Ltd,"Vogra, Gazipur",Gazipur,Dhaka,1702,2,9257048,,4,"1/6,2/6,3/1,4/1;",No,No,,3000,6
GARIB&GARIB COMPONY LTD.,"VOGNO‐GOZIPUR SADAR., GOZIPUR",Gazipur,Dhaka,,2,7790755,,,,No,No,,,1
GARMENTS EXPORT VILLAGE LTD,"Maa Tower KBM Road, Tongi I/A Tongi, Gazipur",Gazipur,Dhaka,1710,2,9814200,,1,1/10;,No,No,NA,2850,7
Gartex Garments Ltd.,"1731, Mostafa Hakim Collage Road, Cornel Hat, North Kattali,Pahartai, Chittagong",Chittagong,Chittagong,4217,,1812375498,,1,1/4;,No,No,,500,1
Gazipur Fashion ltd,"Konabari bazar,Konabari",Gazipur,Dhaka,1751,,,,,"1/5,",Yes,No,"1/4,",500,1
Geebee (Bangladesh) Limited,"Karnaphali, EPZ, North Patenga",Chittagong,Chittagong,4204,31,2503399,,1,1/2;,No,No,All,1191,1
Generation Next Fashions Ltd,"Dhonaid, Earpur, Savar,",Dhaka,Dhaka,1341,2,682555161,,6,1/6; 2/2; 3/1; 4/1; 5/1; 6/1;,No,No,‐,2178,6
Genesis Fashions Ltd.,"228/1, Tin Sarak (1st floor) Luxmipura, Joydevpur Gazipur",,Dhaka,,2,9264012,,4,1/5;2/1;3/1;4/1;,No,Yes,"1/1,4;",1000,1
GH HAEWAE CO LTD,"GH Haewae Co Ltd. Plot # 19‐24, Sector ‐ 08, CEPZ",Chittagong,Chittagong,,2,800156,,2,1/5; 1/1;,No,No,,3300,4
Giant Apparel Ltd,"Mouza, Chandora, Jaydevpur Chow Rasta,Joydebpur, Gazipur 1700, dying : Shafi Processing Industries Ltd. 2, Tongi, BASIC,",Gazipur,Dhaka,1700,,,,2,"1/8, floor # 4,5,1/1, under one ownership & management.",No,No,,570,3
Giant Knit,"Mouza : Chandana, Chowrasta, Joydebpur, Gazipur",Gazipur,Dhaka,,2,9252518,,2,1/3; 2/8;,No,No,,382,2
GIVENSEE GARMENTS LTD.,"Bishia, Kuribari, Bokran, Monipur, Bhabanipur, Gazipur",Gazipur,Dhaka,1749,2,8932813,,,1/1.,No,No,Not Shared,1698,1
Global Apparel Sourcing Group LTD,"House#457(1st floor), Road#8 (east), DOHS, Baridhara, Dhaka",Dhaka,Dhaka,1206,,1611450015,,,1/6;,Yes,Yes,1/1;,30,1
Global Apparels Ltd.,"49, NP Kalurghat Heavy Industrial Area, Chittagong",Chittagong,Chittagong,4208,31,670463,,1,"1/8,",No,Yes,2nd Floor,700,1
Global Fashion Garments Ltd.,"89, Berulia Road, Savar, Dhaka",Dhaka,Dhaka,1340,2,7745621,,1,"1/8,",No,Yes,"Ground Floor, 1st Floor.",690,2
Global Garments Ltd.,"11, Kalurghat Heavy Industrial Area, Chittagong",Chittagong,Chittagong,4208,31,670463,,1,"1/1,",No,No,‐,1400,1
GLOBAL KNITTWEAR,"Vhuain Tower, Plot‐110, Gazir Chat, Jamgora, Asulia, Savar, Dhaka, Bangladesh.",Dhaka,Dhaka,1349,,,,1,1/4;,No,No,NA,750,1
Global Knitwear Ltd.,"Bhuiyan Tower, Plot No‐10, Mouja‐ Diakhali, Jamgora, Ashulia, Savar.",Dhaka,Dhaka,,,1711977287,,1,"1/0, 1/1, 1/2, 1/3;",No,No,,2100,1
Global Merchant Ltd. (Tulip),"Chandona, Collegepara. Gazipur",Gazipur,Dhaka,1702,2,9264112,,1,1/7;,No,No,,1098,1
Global Merchants,"Baimail, Konabari, Kashem Cotton Mills, Konabari, Joydevpur",Gazipur,Dhaka,,,,,,,No,No,,,4
Global Outerwear Ltd.,"89, Berulia Road, Savar, Dhaka",Dhaka,Dhaka,1340,2,7745623,,3,"3/8,",No,Yes,"1/ 3, 4, 6;",2100,4
Global Shirts Ltd.,"49, NP Kalurghat Heavy Industrial Area, Chittagong",Chittagong,Chittagong,4208,31,670463,,2,"1/8, 2/10;",No,Yes,1/3;,1300,1
"Global Specialised Garments Ltd ‐1Hazra Complex, 52 Sadarghat Road",,Chittagong,Chittagong,4000,31,612694,,1,1/6;,Yes,No,"1/1,2,3,4,5;",729,1
Global Specialised Garments Ltd. Unit‐02,12‐13P Kalurghat Heavy Industrial Area,Chittagong,Chittagong,3343,31,622209,,1,1/4;,No,No,,2673,2
Global Trousers Ltd.,"11, Kalurghat Heavy Industrial Area, Chittagong",Chittagong,Chittagong,4208,31,670463,,1,"1/4,",No,Yes,"1/1, 2, 3;",1300,1
GLOBAL Wisdom International Limited.,ALIF APPARELS LIMITED. 23/8B & 23/8C HOLDING NO. 24/2 KHILJI ROAD SHYAMOLI CINAMA COMPLEX BLDG. (3R,Dhaka,Dhaka,,2,993639,,1,1/5;,Yes,Yes,1/2; 1/5,350,1
GLOBAL Wisdom International Limited.,"HONEYWELL GARMENTS LTD. DAG NO. 1010,1011, AMBAGH, MOUZA‐BAGIYA, KONABARI, GAZIPUR",Gazipur,Dhaka,1700,2,993639,,1,1/4;,No,No,All,560,1
Globus Garments Ltd.,"C‐35, Purabi, Mirpur",Dhaka,Dhaka,1216,,1841296483,,1,6;,Yes,Yes,1/4;,2300,2
Glory Dresses ltd,"Shakhertak,Adabar,Mohammadpur",Dhaka,Dhaka,1207,,,,,"1/1,",Yes,No,only 1st flor ( total building‐G.F & 1st floor),200,1
Glory Fashion Wear Limited,"247/248 , West Tejgaon I/A",Dhaka,Dhaka,1207,2,9898475,,1,1/6;,Yes,No,"1/1,2,3,4,5;",952,1
GLORY FASHIONS LTD,"House ‐79, New Airport Road, Chairmanbari, Dhaka",DHAKA,Dhaka,1213,2,8713494,,,"1/8,",Yes,Yes,"1/3,5,6,7;",1050,1
Glory Industries ltd,"7/A Sholashahar Light Industries Area, Baizid Bostami, Nasirabadh",Chittagong,Chittagong,,,683580,,2,1/6;2/2;,No,No,,1750,1
GMS Composite,"Sardagonj,Kashimpur Gazipur",Gazipur,Dhaka,,,1711566433,,5,1/7;2/7;3/7;4/7;5/7;,No,No,,11242,1
LTD,"SF SFB‐2, KEPZ, NORTH PATENGA, PATENGA THANA",Chittagong,Chittagong,4203,31,2501461,,,"1/3,",No,No,Not Shared,1500,1
Gold Star Fashions Ltd,"B‐193, Bscic, Tongi, Gazipur",Gazipur,Dhaka,,2,9817815,,1,1/7;,No,No,,1192,1
Gold Star Garment Ltd,"13/1, Ring Road ‐ 2nd to 7th Floor, Shamoly, Dhaka",Dhaka,Dhaka,1207,2,9125989,,,,Yes,Yes,"1/2; 2/4, 5, 7;",,1
Golden Heights Ltd.,"Plot 49 NP (C), Kalurghat Heavy Industrial Area",Chittagong,Chittagong,,,2571995,,2,1/6; 2/1;,No,No,,2350,1
Golden Horizon Ltd.,"53/B Baizid Bostami Road, Nasirabad",Chittagong,Chittagong,,,682980,,6,1/8; 2/2; 3/1; 4/1; 5/1; 6/1;,No,No,,4350,2
Golden Refit Garments Ltd.,"589 Chirir Chala, Baghar Bazar, Bhabanipur, Gazipur",Gazipur,Dhaka,1704,,1711933422,,5,"1/5 , 2/2 ; 3/1 ;4/1 ; 5/1;",No,No,"1/ 0 ,1 , 2, 3 , 4 ; 2/0 ,1 ; 3/0 ; 4/0 ; 5/0;",1550,6
GOLDEN TIMES SWEATER & DYEING LTD.,"Mulaied, Mawna, chowrasta, Sreepur",Gazipur,Dhaka,1740,,1714168476,,1,1/6;,No,No,,1200,9
Goldland International Ltd.,"Landmark Complex , Sadhur Para , Baro Ashulia, Savar",Dhaka,Dhaka,1341,2,7741935,,7,1/6 ; 2/3 ;3/7 ;4/5 ; 5/1; 6/1;7/1 ; 8/1; 9/1;,No,Yes,"1/3 ,4 ; 2/0 ,1, 2 ; 3/0 ,1,6 ; 4/2 ; 5/0 , 6/0 ; 7/0 ; 8/0 ; 9/0;",900,1
Goldstar Garments LTD,"#24/1 Khilzi Road, Samoly Cinema Hall, Building, Samoli",Dhaka,Dhaka,,2,8114128,,,,No,No,,,1
Goldtex Garments Ltd,"Plot 98‐100, Depz, Savar, Dhaka",Dhaka,Dhaka,,2,7789276,,,"Shared with South China Bleaching & Dyeing Building 1 ‐ 2 Storied, building 2 ‐ 4 Storied",No,No,,2720,3
Good Rich Sweaters Ltd,"Palashbari, Ashulia, Savar, Dhaka",Dhaka,Dhaka,1349,2,7791659,,2,"1/7, 2/2;",Yes,No,"0,1,2;",1000,2
GOORYONG FASHIONS LTD.,"86 TONGI I/A, TONGI, GAZIPUR",Gazipur,Dhaka,,,1715154612,,1,1/2;,No,No,N/A,950,1
Gourmati Knitwear,"Talla Road Khapur, Fatullah, Narayanhonj",Dhaka,Dhaka,,2,8878970,,3,1/4; 2/7; 3/1;,No,No,‐,506,1
GOUS FASHION INDUSTRIES LTD.,"Block: B, Plot: A (6&7) BSCIC I/A, Sagorika Road, Pahartali",Chittagong,Chittagong,4219,,1713104566,,2,1/6;1/1;,No,No,,1500,1
Grameen Knitwear Ltd,"Plot‐102,103 & 126‐127, DEPZ (Ext‐II) Ganakbari, Savar, Dhaka",Dhaka,Dhaka,1349,2,7701293,,2,1/4; 2/4;,No,No,‐,2563,5
Gramtech,"Road 14, Sector 1",Dhaka,Dhaka,1230,2,8923220,,1,1/5;,No,No,,1850,1
Ind. Ltd.,"Rupgonj, Araihazar Road",Narayanganj,Dhaka,,,1713013960,,1,1/3;,No,No,,,2
Graphics Textiles Ltd.,"Sreerampur, Kalampur, Dhamrai",DHAKA,Dhaka,1351,37,720138035,,5,1/7; 2/1; 3/1; 4/1; 5/1;,No,No,,3300,7
Green leaf Apparels ltd.,"15/G Zigatola Siddique Mansion, Dhaka",Dhaka,Dhaka,1209,,1681857728,,1,1/6;,Yes,Yes,"1/1,2;",290,1
Green Life Group Clothing Ltd.,"Jamgora, Gazirchot Alia Madrasa, Savar Dhaka",Dhaka,Dhaka,,2,40645,,4,1/3;,No,No,NO,1200,4
Green Life Knittex Ltd.,"874, Dewan Iddress Road, Khaghara Bazar, Ashulia, Savar, Dhaka",Dhaka,Dhaka,,2,40645,,,,No,No,,,1
Green Sotne Sweater,"Lalpur, Fatullah, Narayangonj",Narayanganj,Dhaka,1400,2,7672388,,,,No,No,,250,2
"Greenland Garments Ltd. Unit‐01,","Hasna Tower, Kashimpur Road, Konabari, Gazipur",Gazipur,Dhaka,1216,2,9130058,,59,"1/5, 1/2;",No,No,,900,1
"Greenland Garments Ltd. Unit‐02,","Mollik Tower (6th Floor), Zoo Road, Mirpur, Section‐01, Dhaka.",Dhaka,Dhaka,1216,2,9130058,,59 1,"1/15,",No,No,,600,1
GREENLIFE KNIT COMPOSITE LTD,"Tonggabari,, Ashulia,",Dhaka,Dhaka,,,,,,,No,No,,,2
Greenstone Knitwear Limited,Lalpur‐Fatullah‐Narayanganj,Narayanganj,Dhaka,,2,76723,,1,1/6;,No,No,,,1
Gulf Knitting & Textiles,"221‐222, Khortoil, Sataish Road, Gazipura, Tongi, Gazipura, Dhaka",Gazipur,Dhaka,1712,,1975190562,,,1/9;,No,Yes,1/1;,271,1
H.B. Fashions Ltd.,"590,Colonel Jhones Road,North Kattali,Pahartoli Chittagong",,Chittagong,4202,,1731886203,,,6;,No,Yes,"1/3,4,5;",1600,7
H.R. Textile Mills Ltd,"4, Karnapara, Savar",Dhaka,Dhaka,1340,0,771295255,,1,1/6;,No,No,,1650,1
Haesong Corporation Limited,"Hizalhati (Baroipara),Kaliakair, Gazipur",Gazipur,Dhaka,1751,,1819191131,,3,1/6;2/1;3/2;,No,No,N/A,6000,8
Haesong Korea,"Han Complex (Ground Floor), Bara Rangamatia, Zirabo",Dhaka,Dhaka,,,,,,,No,No,,,3
Haesong Sweater Limited,Hizalhati (Baroi Para) Kaliakair,Gazipur,Dhaka,1750,0,682252115,,,1/2;,No,No,,2650,1
Hamid Sweaters Ltd.,"140, Dhour, Ashulia, Turag, Dhaka",Dhaka,Dhaka,,2,7671220,,1,1/3;,No,No,"1/0,1,2;",600,2
Hamid Tex Fashion Ltd.,"203,Habir bari, Seed store bazar, Bhaluka,Mymensingh.",Mymensingh,Dhaka,,,1710940009,,1,1;,No,No,N/A,1200,2
HAMS GARMENTS LTD.,"South Vangnahati, Chapilapara, Sreepur",Gazipur,Dhaka,1740,,1929998090,,5,1/5; 2/1; 3/1; 4/2; 5/3;,No,No,,2800,8
"Hams Washing Ind Ltd,","190 Tejgauon ind. Area, Tejgauon",Dhaka,Dhaka,1208,2,9885674,,1,1/2;,No,No,,470,1
Hamza Textiles Ltd.,"Noyapara, Kashimpur, Gazipur",Gazipur,Dhaka,,2,779006067,,225,3 stories building,No,No,N/A,550,1
Hanaro Fashion Ltd,"114, Baipail, Mosjid Road, Savar, Dhaka",Dhaka,Dhaka,,2,8417761,,1,1/6;,No,No,No,500,1
HANARO FASHIONS LTD,"PLOT NO # 640 , WARD NO # 106 , KONIA , K.B. BAZAR GAZIPU SADAR, GAZIPUR",Gazipur,Dhaka,,2,9292591,,,1/5;,Yes,Yes,1/5;,967,1
Hannan Fashions,"1153‐54, Shahid Siddique road,Khailkur, board bazar, gazipur, Dhaka",Gazipur,Dhaka,,,1711563140,,2,1/5;2/1;,No,No,,1538,1
Hannan Fashion's Ltd.,"1155, Shahid Siddique Road,Khailkur, Board Bazar",Gazipur,Dhaka,1704,2,1971102206,,1,4,No,No,N/A,1800,4
Hannan Knit & Textiles Ltd.,"505, Kalmeshor, Board Bazar, Dhaka",Dhaka,Dhaka,,,1711563140,,3,1/4;2/1;3/1;,No,No,,1583,4
Harrods Knitwear,"15/B, Sweden Plaza, Kalawalapara, Mirpur‐1",Dhaka,Dhaka,1216,2,8053333,,,,No,No,,300,1
Harry Fashions Ltd,"Vordoba, Valuka, Maymensingh,",Mymensingh,Dhaka,,2,9817584,,85 8,1/4; 2/1; 3/2; 4/unknown 5/2; 6/1; 7/; 8/2;,No,No,‐,1970,1
Haseen Knit Composite Ltd.,"Mulaid,Mouna, Sripur, Gazipur",Gazipur,Dhaka,,2,9565770,,3,1/4; 2/4; 3/1;,No,No,"1/,01,2,3; 2/0,1,2,3; 3/0;",700,3
HASHMATULLAH KNIT WEARS LTD.,"183, NORTH GAZIRCHAT,UNIQUE, ALIA MADRASHA ROAD,ASHULIA, DHAKA.",DHAKA,Dhaka,1349,2,7788523,,,"1/6,",No,Yes,"1/4,5,6;",1500,1
Hdf Apparels Limited,"College Road, Joina Bazar, Telihati, Shreepur, Gazipur",Gazipur,Dhaka,1740,2,8956993,,1,0/1;,No,No,,120,2
Helicon Ltd,"Plot # 127, Dhaka EPZ (Old Area), Ganakbari, Savar",Dhaka,Dhaka,,2,7790414,,1,3;,No,No,,1491,1
Hemple Rehee Mfg Co.(Bd) Ltd,"Plot#23‐24, Sector‐6, Cep",Chittagong,Chittagong,4223,31,800100,,1,1/4;,No,No,,1800,1
HI APPARELS,"271,DT, ROAD KADAMTALI, Chittagong",Chittagong,Chittagong,,31,2529536,,1,1/4;,Yes,Yes,1/1;,475,2
Hi‐Fashion Composite textiles Ltd.,"Sreechala, Bagerbazar, Joydebpur, Gazipur",Gazipur,Dhaka,,2,678077839,,5,1/6; 2/1; 3/1; 4/1; 5/1;,No,Yes,"1/0,1,2,5; 2/0; 3/0; 4/0; 5/0;",650,2
HI‐FASHION LIMITED,"JAHAN BUILDING#2 (4th floor), 24 AGRABAD COMMERCIAL AREA",Chittagong,Chittagong,,31,714845,,,"1/4,",No,No,Not Shared,800,1
HKD INTERNATIONAL (CEPZ) LIMITED,"PLOT# 49‐55, SECTOR# 8, CEPZ",Chittagong,Chittagong,4214,31,740239,,406,"1/2,",No,No,Not Shared,950,1
Home Textiles Ltd,"East Chandora, Shafipur, Kaliakoir, Gazipur",Gazipur,Dhaka,,2,955363,,1,1/2;,No,No,,285,1
HONEYWELL GARMENTS LTD,"Plot # 1010,1011 Ambag, Mouza Baghia, Konabari",Gazipur,Dhaka,1346,2,9871235,,1,1/5;,No,No,‐,570,2
Hongkong Denim Ltd,"Plot # 9‐14 , 21‐26,Sector 03, Karnafuly Export Processing Zone",Chittagong,Chittagong,,,25022512,,2,"1/6,2/1;",No,No,,3300,1
Hop Lun (Bangladesh) Ltd.,"SFB #3,4,5,6 & 7 Export Processing Zone(Old), Ganakbari,Savar",Dhaka,Dhaka,1349,,1730069170,,5,1/4;2/4;3/3;4/3;5/3;,No,Yes,"1/0,1,2,3;2/0,1,3;3 /0,1,2;4/0,1,2;5/2;",4342,8
Hop Lun Apparel Ltd,"Sheema Complex & Shahin Complex Shataish Road, Gazipura Tongi, Gazipur,",Gazipur,Dhaka,,2,9297904,,2,1/7; 2/8;,No,No,‐,2319,2
Hop Yick (Bangladesh) limited,"61‐65, DEPZ, Ganakbari",Dhaka,Dhaka,1349,2,77891118,,4,1/3; 2/1; 3/1; 4/1;,No,No,,2850,5
Horizon Fashion wear ltd,"5,Bishuya Kuribari,Mirzapur union",Gazipur,Dhaka,1741,2,7920235,,3,"1/4,1/3,",No,No,,700,1
Hornbill Apparels Ltd.,"S.A. Plot 310, Baimail",Gazipur,Dhaka,1346,,1711687886,,,1/2;,No,No,,628,1
Hot Dress Limited,"Kalme, Dairy Farm, Saver",Dhaka,Dhaka,1341,2,7744130,,2,1/5; 2/0;,No,Yes,"1/2,3,4,5;2/0;",1600,8
Hotapara Garments Ltd:,"Bokran, Monipur, Hotapara",Gazipur,Dhaka,1740,2,8913802,,2,1/0;2/0;,No,No,‐,1147,2
Hydroxide Knitwear Ltd.,"Mouchak Kaliakur,Gazipur,Dhaka, Kaliakoir",Gazipur,Dhaka,,2,9297923,,6,1/7; 2/1; 3/1; 4/1; 5/1; 6/1;,No,Yes,1/5;,2149,4
Hypoid Composite Knit Ltd.,"176, South Krishnapur, Rajashan, Savar",Dhaka,Dhaka,,2,7713933,,,,No,No,,,1
Godnyle),"1 No Godnyle, Narayanganj",Narayanganj,Dhaka,,,,,,,No,No,,,1
"Dhakessary, Godnail)","2 no, Dhakessary, Godnail, Siddirgonj, Narayangonj, Dhaka, Bangladesh",Narayanganj,Dhaka,1431,2,7691051,,,Not Applicable,No,No,,547,1
Ibrahim Knit Garments (Pvt.) Ltd.,"Ailpara, Pathantoli, Siddirganj",Narayanganj,Dhaka,1400,,1711549803,,14,1/6; 2/5; 3/5; 4/0; 5/0;6/0; 7/0; 8/0; 9/0; 10/0; 11/0; 12/0; 13/0; 14/0;,No,No,‐,1361,2
ICCL,"Naojur, Codda Joydevpur",Dhaka,Dhaka,,2,8825826,,3,1/6; 2/1; 3/1;,No,Yes,1/1;,1500,2
IFS TEXWARE,"631, KUTUBPUR, FATULLAH,NARAYANGONJ",Narayanganj,Dhaka,,2,7691908,,2,"1/1, 2/4;",No,No,,1000,3
Ind's Ltd.,"Plot #10, Road #10, Shampur, Kadamtoli I/A, Dhaka",Dhaka,Dhaka,1204,2,721199688,,1,4;,No,Yes,"1/2,3;",752,1
Impress Newtex Composite Textile Ltd.,"Gorai, Mirzapur, Tangail",Tangail,Dhaka,,2,9830329,,1,"1/0, 1/1, 1/2, 1/3;",No,No,,2274,1
Indesore Embroidery Ltd,"F‐6, Main Road, Pallabi",Dhaka,Dhaka,,2,9813768,,1,0/1;,No,No,,30,1
Indesore Sweater Factory,"Hazirpukur, Choydana, National University",Gazipur,Dhaka,1704,2,9293771,,2,1/8; 2/1; 3/1; 4/1; 5/1;,No,Yes,1/6‐7; 5/1;,2700,3
INDIGO FASHIONS LTD,"KATHORA, GACHHA, NATIONAL UNIVERSITY, JOYDEPPUR, GAZIPUR",Gazipur,Dhaka,1704,2,9293947,,,1/4.,No,No,Not Shared,350,1
Intercare Limited,"687, South Agrabad, CDA, R/A,Road#20,Chittagong, Bangladesh.",Chittagong,Chittagong,4100,,713674,,2,"1/5,",Yes,Yes,"1/2,2/1;",660,1
Interfab Shirt Mfg Co,"302 / 547 Gasa Union Rd, Gazipur",Gazipur,Dhaka,,2,9291329,,,"Building 1 ‐ 6 Storied, Building 2 ‐ 2 Storied extension building",No,No,,4400,6
Interlink Apparels,"Plot no #1619‐21, Vogra Joydebpu, Gazipur",Gazipur,Dhaka,,2,8052362,,2,1/2; 2/1;,No,No,‐,1215,2
Interlink Dresses,"Shirin Chowdhury Complex, Vogra, Joydebpur",Gazipur,Dhaka,,,,,,,No,No,,,2
INTERLOOP BD LTD,"86,SOYDANA, NATIONAL UNIVERSITY",Gazipur,Dhaka,1704,2,929184,,2,"1/5, 1/1;",Yes,Yes,"0,2,4;",1200,2
LIMITED (UNIT‐1),"Beximco Industrial Park, Sarabo, Kashimpur, Gazipur",Gazipur,Dhaka,1349,2,8618220,,1,1;,No,No,,1893,2
International Classic Composite Ltd,"Naojur, kodda, Joydebpur",Gazipur,Dhaka,,2,9262369,,1,1/4;,No,No,‐,1550,4
(Unit 2),"Beximco Industrial Park, Sarabo, Kashimpur",Gazipur,Dhaka,,,,,4,1/2; 2/1; 3/1; 4/1;,No,No,‐,2473,3
International Trading Services Ltd,"Jarun, Konabari",Gazipur,Dhaka,,2,928940410,,2,1/10;2/9;,No,No,All,7422,2
INTERSTOFF APPARELS LIMITED,Pollibiddut Bus Stand,Dhaka,Dhaka,,,,,,,No,No,,,1
INTERSTOFF APPARELS LTD.,"Chandra, Kaliakoir",Gazipur,Dhaka,1753,2,9289103,,6,1/7; 2/4; 3/8; 4/1; 5/1; 6/1;,No,No,,3800,7
Interstoff Clothing Ltd.,"Kalameshwer, National University, Board Bazer",Gazipur,Dhaka,1704,2,9293373,,4,1/7; 2/3; 3/1; 4/1;,No,No,,1100,3
INTIMATE APPARELS LTD,"Karnaphuli EPZ, Plot no. 91‐93, North Patenga",Chittagong,Chittagong,4204,,250148184,,2,1/3; 2/1;,No,No,,2000,6
Intraco design Ltd,"241‐243 South Azampur,Dhakkin Khan,Dhaka",Dhaka,Dhaka,1230,2,8953914,,1,1/3;,No,No,,576,1
Intraco Sweaters Ltd.,"DEPZ Road, Ashulia, Savar, Dhaka",Dhaka,Dhaka,,2,7790670,,1,6;,Yes,Yes,"1/2,3,5;",530,2
Intramex Knitwear Ltd,"Laxmipura Chandona, Joydebpur, Gazipur,",Gazipur,Dhaka,,2,7790561,,8,1/7; 2/7; 3/7; 4/1; 5/1; 6/1; 7/1; 8/1;,No,No,‐,1074,2
Iqbal Texware Ltd.,"West Masdair, Fatullah, Narayanganj",Narayanganj,Dhaka,,2,7631416,,,,No,No,,,1
Irene Knitwear ltd,"Dailla, Demra,Dhaka",Dhaka,Dhaka,1362,2,7501317,,,"1/7,",No,Yes,,400,1
IRIS FABRICS LIMITED,"Zirani Bazar, Kashimpur",Gazipur,Dhaka,1349,2,7788142,,12,1/9; 2/6; 3/2; 4/1; 5/1; 6/1; 7/1; 8/1; 9/1; 10/1; 11/1; 12/1;,No,No,,3900,5
Iris Fashions Ltd.,"Dewan Idris Road,Zirabo,Savar",Dhaka,Dhaka,1341,2,7792922,,1,"1/10,",No,Yes,"1/0,1,2,3,4,",1580,5
Ishaqpur Sweater Industries Ltd,"Isaqpur, Mannan Nagar, Maizdi, Noakhali",Noakhali,Chittagong,3802,,17337110880,,1,1/2;,No,No,,498,1
ISLAM GARMENTS LIMITED (UNIT‐2),"ZARUN, KONABARI KONABARI",GAZIPUR,Dhaka,1346,,1711542071,,,1/3;2/6;3/1;4/1;5/1;,No,No,,2798,3
Islam Knit Designs Ltd.,"Zarun, Konabari, Gazipur Sadar, Gazipur",Gazipur,Dhaka,,2,92971014,,,"Building 1 ‐ 5 Storied, Building 2 ‐ 5 Storied Building 3 ‐ 9 Storied, Building 4 ‐ 4 Storied, ETP (Islam Knit uses Buildings 4 Ground Floor and Building 3)",No,No,,2259,6
J M FABRICS,"South Nayapara,, Bangla Bazar,",Dhaka,Dhaka,,,,,,,No,No,,,1
J.K SHIRT & FABRIC LIMITED,"3395, NAYAHAT ROAD, PANCHLISH.",Chittagong,Chittagong,,31,2583969,,,"1/3,",No,No,Not Shared,700,1
J.K. KNIT COMPOSITE LIMITED,"South Dariapur, Savar",Dhaka,Dhaka,1340,2,7710500,,9,1/6; 2/4; 3/7; 4/6; 5/4; 6/1; 7/1; 8/1; 9/1;,No,No,,1600,2
J.L Fashions ltd,Baimail.Konabari,Gazipur,Dhaka,,2,9297074,,,"1/5,",No,No,,1000,1
Jalal Ahmed Knit Composite Ltd.,"105,Dogourmura,Aricha road,Savar",Dhaka,Dhaka,1343,2,7742985,,5,1/2;2/1;3/0;4/0;5/0;,No,No,‐,400,2
Jams Apparels (PVT) LTD.,A‐69 & 76 BSCIC Hosiery Industrial Area Fatullah Narayanganj,,Dhaka,,2,7601595,,,,No,No,,,1
Jamuna Apparels Ltd.,"94/95 (Old), 46 (New), Block ‐ C, Tongi Industrial Area, Tongi, Gazipur",Gazipur,Dhaka,1710,2,9804563,,1,1/6;,No,No,,1400,4
Jamuna Denims Ltd.,"Jamuna Complex, Konabari, Gazipur",Gazipur,Dhaka,1370,2,2971436,,2,1/0;2/4;,No,No,,2200,1
Jamuna Fashion Wears Ltd.,"Plot#75,Road#5,Block#K,Rupnagar‐I/A,Mirpur",Dhaka,Dhaka,1216,2,8031342,,,,No,No,,460,3
Jamuna Knit Concern,"Road# 1 House#34 Kutubail,Fatullah,Narayanganj",Narayanganj,Dhaka,1400,,,,1,1/4;,No,No,"1/0,1,2,3;",240,1
Jamuna Knitting & Dyeing Ltd,"Konabari, Jodebpur, Gazipur",Gazipur,Dhaka,,2,9297109,,,Building 1 ‐ 4 Storied,No,No,,1600,2
Jamuna Knitting & Dyeing Ltd.,"Ka‐244, Kuril, Progoti Sharani, Baridhara",Gazipur,Dhaka,1200,,1728635727,,1,1/4;,No,No,,1900,1
Jann Composite Mills Ltd.,"Plot #4, Road #02, Abdullah Bag, North Badda, Dhaka",Dhaka,Dhaka,1212,2,8814942,,1,1/7;,No,No,,490,1
"Jay Jay Mills ( Bangladesh ) Pvt Ltd, Unit‐1Unit‐1, DS‐3 & FS‐1, Road No.2, CEPZ,Chittagong Chittagong",,,Chittagong,4223,31,740788,,2,N/A,No,Yes,N/A,552,1
"Jay Jay Mills ( Bangladesh ) Pvt Ltd, Unit‐3Unit‐3, Plot No.9‐11 & 2‐4, Sector‐7/A, CEPZ,",Chittagong,Chittagong,Chittagong,4223,31,740788,,212 1,N/A,No,Yes,N/A,2432,2
Jaya Knitting Limited,"Kanchpur, Narayangonj",Narayanganj,Dhaka,,,1728635727,,1,1/3;,No,Yes,1/2;,300,1
Jaycee's Apparels,"227 Outer Circular Road, Boro Moghbazar. Dhaka Dhaka",,Dhaka,1217,2,9331213,,,,No,No,,425,1
"JC Pozitif Tekstil SSection Seven Ltd. Plot# 21‐26, Sector# 3 Road‐4","CEPZ, Chittagong",Chittagong,Chittagong,,,1711563848,,1,1/5;,No,No,All,4200,1
JCK International Trading.,"Crown Fashion & Sweater Ind. Ltd. Plot #781‐782 Vogra, Joydevpur, Gazipur",Gazipur,Dhaka,,2,1711548190,,1,1/7;,No,No,All,4400,1
JEACON,"SOUTH SHALNA, JOYDEBPUR, GAZIPUR",Gazipur,Dhaka,1703,,178024117,,1,4;,No,No,N/A,1706,2
Jeans 2000 Ltd,"Plot# 67,Sector# 07,CEPZ, Chittagong",Chittagong,Chittagong,4223,31,801075,,1,"1/7,",No,No,"1/7,",3100,4
JEANS APPARELS LIMITED,"PLOT# 49/A, CDA, FUZDERHAT HEAVY INDUSTRIAL AREA, SAGARIKA ROAD",Chittagong,Chittagong,4219,31,2770925,,,"1/7,",No,No,Not Shared,2950,1
JEANS CARE LIMITED,"348/B, Tejgaon I/A, Dhaka",DHAKA,Dhaka,1208,2,8891447,,1,1/5;,No,Yes,1/3;,750,1
Jeans Express Ltd.,"49/A, CDAs, Fauzdarhat, Heavy I/A, Sagarika Road, Pahartali",Chittagong,Chittagong,,31,2770005,,,,No,No,,,1
Jeans Manufacturing Co. Ltd.,"13‐14, Zoo Road, Mollik Tower, Mirpur‐1",Dhaka,Dhaka,1216,2,8311374,,1,1/15;,Yes,Yes,"1/0,1,2,3;",1900,2
JEANS PLUS LTD.,"Plot No‐398, Sreepur Bus Stand, Ganakbari, Savar, Dhaka",Dhaka,Dhaka,1341,2,7788373,,,"1/4,",No,Yes,"1/0,1;",700,1
Jerat Fashion Ltd.,"1676/U, South Bakulia,Shah Amanat Bridge Connecting Road,Rajakhali",Chittagong,Chittagong,4000,,175596655,,1,6;,No,Yes,"1/0,1,2,5;",1400,2
Jericho Imex Ltd,"House 500, Road 34, (g.F) New DOHS, Mohakhali, Dhaka",Dhaka,Dhaka,1712,2,98911721,,,,No,No,,,1
Jerkin Wear,"1670/2091, West Sholashar, Building No. 3",Chittagong,Chittagong,,,,,,,No,No,,,2
JINNAT APPARELS LTD.,"SARDAGONJ ROAD, SARDAGONJ KASHIMPUR",Gazipur,Dhaka,1349,2,814020712,,6,1/7; 2/1; 3/4; 4/2; 5/1; 6/1;,No,No,,3500,3
Jinnat Fashion & Knitwears Ltd,"Saradaganj, Kashimpur",Gazipur,Dhaka,1349,3,814020713,,2,"1/3, 2/10;",No,No,,5600,2
Jiz Textile LTD,"Habibullah Tower, Vogra, Gazipur",Gazipur,Dhaka,1702,,1819227598,,,,No,No,,,1
"Jk Knit Composite Ltd,","10, South Dariapur , Savar Dhaka",Dhaka,Dhaka,1340,2,7745034,,4,1/6; 2/4; 3/7;4/6,No,No,,1650,4
JL SWEATER LIMITED,"Zirabo Post,, Ashulia Thana,, Savar",Dhaka,Dhaka,,,,,,,No,No,,,4
JM Fabrics Ltd.,"South Nayapara, 6 No Dogri, Bhawal, Mirzapur",Gazipur,Dhaka,1740,2,9201450,,7,1/6; 2/5; 3/1; 4/1; 5/1; 6/1; 7/1,No,No,,3100,5
JMS GARMENTS LTD.,"Plot # 1‐ 4, Sector # 6, CEPZ",Chittagong,Chittagong,,2,801142,,3,1/4;1/1;1/1;,No,No,,2100,2
Joint Garments Ltd.,"Siraj Shopping Complex (3rd Floor), 85, Muradpur, Panchlaish",Chittagong,Chittagong,,31,657179,,5,,No,No,,,1
JOOWON GLOBAL FASHION (BD) LTD,"CS‐158, CHAIDANA, K.B.Bazar",GAZIPUR,Dhaka,,2,9292537,,,"1/6,",Yes,Yes,"1/6,",685,1
Jovian Sweater Ltd.,"Razzak Plaza, B‐120, Jaleshwar, Savar Bus Stand, Savar",Dhaka,Dhaka,1206,2,9887939,,1,1/8;,Yes,Yes,"1/6,7;",750,2
JP Garments Ltd.,"Shiraj Shopping Complex, 85, Muradpur, Painchlaish, Chittagong",Chittagong,Chittagong,,2,657179,,1,5;,Yes,Yes,"1/2,4,5;",480,3
Jupiter R.G. Ltd.,"Plot: I/2 Rod:06.Sec.:07 Pallabi,Mirpur, Dhaka",Dhaka,Dhaka,1216,,,,1,9;,No,No,N/A,770,1
JUST WEST,H 492/3 R 9 DOHS BARIDHARA DHAKA,DHAKA,Dhaka,1206,2,8848020,,3,1/5; 2/3; 3/2;,No,No,‐,1234,1
K.B Apparels Ltd.,"30, 46, 47 Postogola I/A, Dhaka",Dhaka,Dhaka,1204,2,7413557,,1,1/3;,No,No,No,400,2
K.Morium Garments Ltd.,1219 DHAKA,Dhaka,Dhaka,1219,,,,,NA,No,No,NA,,1
KAC Fashion Wear Ltd,"12/13 Tetui Bari, Savar, Gazipur,",Gazipur,Dhaka,,2,9005562,,5,1/2; 2/1; 3/1; 4/1; 5/1;,No,No,‐,2079,1
Kalam Sweater Limited,"Paragon, Seedstore, Valuka, Mymensingh",Mymensingh,Dhaka,,,1713038372,,1,1/3;,No,No,No,378,1
Kamtex Limited.,"B1/1, Harinhati, Chandra, Kaliakoir, Gazipur",Gazipur,Dhaka,,,1934351124,,,,No,No,,,1
"Kang Book Co.,(Bd) Ltd","Plot#21 Sector No 01,Cepz",Chittagong,Chittagong,4223,3,1740036,,1,1/2;,No,No,,1084,1
Kaniz Fashions Ltd.,"228/A, Tejgaon Industrial Area",Dhaka,Dhaka,1208,2,8853811,,1,1/9;,No,No,,3000,3
Kappa Fashion Wear Ltd.,"65/2, Sirajdullah Road, Kalir Bazar,Narayangonj",Narayanganj,Dhaka,1400,2,9752329,,1,1/5;,No,No,,220,1
KARIM FASHION,"PLOT‐1/2‐1/3, BLOCK‐KA,SECTION‐1,MIRPUR",Dhaka,Dhaka,1216,2,902223,,,"1/5,",No,No,Not Shared,300,1
KARIM TEXTILES LIMITED,"Noorbag, Kaliakoir, Gazipur",Gazipur,Dhaka,1751,2,9297931,,4,1/11; 2/6; 3/4; 4/0;,No,No,NA,1576,3
Karnaphuli Knit Wear Ltd.,"Fatta Paza, 70 Green Road",Dhaka,Dhaka,,,1711592224,,,,No,No,,624,2
Karnaphuli Shoes Industries Ltd,"KEPZ, Anowara, Chittagong",Chittagong,Chittagong,4371,,1713104301,,1,1/1;,No,No,,715,1
KAROONI KNIT COMPOSITE LIMITED,"RATANPUR, SHAFIPUR, KALIAKOIR",Gazipur,Dhaka,1751,,1730700170,,11,1/7; 2/3; 3/4; 4/1; 5/1; 6/1; 7/1; 8/1; 9/1; 10/1; 11/1;,No,No,,3400,5
Karotoa Apparels Ltd,Tatkhana road,Dhaka,Dhaka,,,1919990767,,,,No,No,,,1
Kattali Textile Ltd.,CHOWDURY BARI;KORNEL JONS ROAD;NORTH KATTALI;CHITTAGONG,Chittagong,Chittagong,,31,713661,,1,1/5;,No,No,,900,1
Kayaba Knitwear,"A‐99, BSCIC, Fatullah, Narayangonj, Dhaka",Narayanganj,Dhaka,1400,2,7671938,,1,6;,No,No,"1/0,1,2,3,4,5;",350,2
KC Lingerie,"57/1, Water Works Road, Godnail",Narayanganj,Dhaka,1400,2,7641086,,3,"1/6; 2/6, 1/2;",No,No,‐,390,1
KDS Apparels Ltd.,251 / 252 Nasirabad Industrial Area,Chittagong,Chittagong,4211,31,681240,,2,1/6; 2/1;,No,No,,1500,1
KDS Fashions Ltd.,"253‐254, Nasirabad I/A",Chittagong,Chittagong,4211,31,681240,,1,1/3;1/2;,No,No,N/A,2650,2
Keen App.Ltd.,"B‐487‐488 BSCIC I/E, Fatullah, Narayangonj",Narayanganj,Dhaka,1400,2,713036988,,1,6,No,No,"1/0,1,2,3,4,5",1200,2
Kento Asia Limited,"Plot # B‐32, BSCIC Industrail Estate,Tongi, Gazipur",Gazipur,Dhaka,1710,2,9816595,,2,1/1; 2/1;,No,No,No,830,2
Kera/ Zahintex Ind.Ltd Unit‐3&4,"Araishaprashad, Kaultia, Gazipur",Gazipur,Dhaka,1740,2,8932813,,4,"1/5,2/1,3/1,4/1;",No,No,"1/5,2/1,3/1,4/1;",2763,1
Keya Knit Composite Ltd.,"Jarun, Konabari, Gazipur",Gazipur,Dhaka,1246,2,9297779,,3,1;,No,No,1;,4521,1
Khaja Attires,"Haji S.H.K. Musa I/A, Kayempur, Fatullah",Narayanganj,Dhaka,1420,2,7642807,,1,1/3;,No,No,,600,1
Kimberley Apparels Ltd,"586/1, Shewrapara, Begum Rokeya Saroni, Mirpur, Dhaka",DHAKA,Dhaka,,2,8052931,,1,1/9;,Yes,Yes,"1/5,6,7,8,9;",800,3
KIMIA APPARELS LTD.,"KA‐59, JOAR SHAHARA BAZAR, BADDA,, DHAKA",Dhaka,Dhaka,1229,2,8415638,,3,"1/6, 2/6, 3/4;",No,No,N/A,3500,1
KIMS CORPORATION Ltd,"16, SUTAR NOARDDA,ARAPARA,SAVAR,DHAKA",DHAKA,Dhaka,1340,2,7741775,,,"1/4,",No,No,Not Shared,1100,1
Knit & Knitex Ltd,"Choydana, Dagerchala Road",Gazipur,Dhaka,1704,2,9890311,,1,1/4;,No,No,,820,1
KNIT ASIA LIMITED,"SHAFIPUR,GAZIPUR",Gazipur,Dhaka,,2,8832771,,1,1/1;,No,No,‐,,1
Knit Asia Limited. Unit‐3,"Nishchintapur, Shafirur, Kaliakoir , Gazipur",Gazipur,Dhaka,1751,2,8832771,,1,1/4;,No,No,,1200,1
Knit Asia Ltd (Unit ‐2),"Nischintapur, Kaliakoir",Dhaka,Dhaka,1751,,1713338313,,1,1/6;,No,No,,1272,1
Knit Asia Ltd.,"East Narshinghapur, Buripara, Earpur, Dhaka",Dhaka,Dhaka,1741,2,8832771,,1,"1/9,",No,No,"1/9,",2000,5
Knit Bazar (Pvt.) Ltd.,"40/41,Vadam,Tongi",Gazipur,Dhaka,1708,2,8963544,,2,1/5;2/0;,No,No,‐,752,1
KNIT CONCERN LTD.,62 WATER WORKS ROAD,Narayanganj,Dhaka,1400,2,7641088,,12,1/6; 2/6; 3/1; 4/2; 5/2; 6/1; 7/3; 8/2; 9/2; 10/1; 11/1; 12/1;,No,No,,6000,3
Knit Export (Bd) Ltd,"175, Kazi Market ,Mymensingh Road ,Tongi",Gazipur,Dhaka,1710,2,8923156,,1,1/5;,Yes,No,"1/2,3,4;",210,1
Knit Express Ltd. (C&A Group),"Plot: 32/A; BSCIC Industrial Estate (Extn.) , Kalurghat Chittagong",Chittagong,Chittagong,4212,2,40324,,3,1/7 ; 2/1 ; 3/1;,No,Yes,"1/0 , 2 , 3 , 4 , 6 , Rooftop ; 2/0 ; 3/0;",401,1
Knit Fashion,"1,R.K.Das Road Nitaiganj",NARAYANGANJ Dhaka,,,,,,,,No,No,,,1
KNIT HOUSE LTD,"North Chan Mari, Near Police Super Office, Narayanganj",Narayanganj,Dhaka,1400,2,7634356,,1,1/5;,No,No,NA,200,1
Knit Plus Ltd,"PLOT NO‐2036, MOUCHACK, KALIAKOIR, GAZIPUR",Gazipur,Dhaka,1751,2,9297858,,2,"1/7, 2/1;",No,No,n/a,1200,2
Knit Studio Ltd.,"Badshah Miyan School Road, Khailkur, National University, Gazipur",Gazipur,Dhaka,1704,2,92930,,1,1/4;,No,No,,,1
Knit Syndicate,"Jalkuri, Siddirganj, Narayanganj",Narayanganj,Dhaka,1400,,,,1,1/7;,No,No,"1/0,1,2,3,4,5,6;",405,1
KNIT ZONE MODE (PVT.) LTD.,"Plot # 90, Domna, Zirani Bazar, Gazipur",Gazipur,Dhaka,1344,2,7702181,,1,1/7;,No,Yes,"1/0, 1, 2, 6;",350,2
KNITEX APPARELS LTD,"28‐30, BSCIC I/A, KALURGHAT, Chittagong, Kalurghat chittagong, Chittagong",Chittagong,Chittagong,4203,,,,,,No,No,,,1
Knitivo Fashion Limited,"Road # 1, Plot #A‐40 & 41 BSCIC, Narayanganj, Dhaka",Narayanganj,Dhaka,1400,86,7670627,,2,1/10; 2/1;,No,No,1/10; 2/1;,943,8
Knittex Industries Limited,"247‐252, Baimile Konabari, Gazipur",Gazipur,Dhaka,,2,9297233,,5,1/3; 2/3; 3/6; 4/3; 5/1;,No,No,NO,,1
KS APPARELS LTD.,"Bahadurpur, Kaultia, Gazipur, Bangladesh",Gazipur,Dhaka,1703,2,7788373,,,"1/4,",No,No,Not Shared,650,1
Kuliarchar Sweater Industries Ltd,"BADA KALMASHER, K.B. BAZAR, GAZIPUR",Gazipur,Dhaka,1704,,1711528939,,2,"1/6, 2/6;",No,No,,3500,2
KUMUDINI APPARELS LTD,"72, Sirajuddowla Rd, Khanpur, Narayangang",Narayanganj,Dhaka,1400,2,7633543,,3,1/3; 2/0; 3/0;,No,Yes,"1/0, 1, 2; 2/0; 3/0;",550,1
Kushiara Composite Knit Industries Ltd.,"Tetoibari, Dehar, Savar, Dhaka, Dhaka",DHAKA,Dhaka,1343,,1916291932,,6,1/4;2/8;3/6;4/5;5/4;6/1;,No,No,,1500,4
Garment Corporation Limited),"Plot # 59‐87, Adamjee Export Processing Zone (AEPZ), Adamjee Nagar",Narayanganj,Dhaka,,,7691792,,6,1/2; 2/2; 3/1; 4/1; 5/1; 6/1;,No,No,,1984,1
L Usine Fashion Ltd ( Unit‐2),"36, Shataish Road, Rahamat Complex Gazipura, Tongi.Gazipur, bangkladesh.",Gazipur,Dhaka,1712,2,9816127,,1,"1/8,",Yes,Yes,"1/8,",980,7
L Usine Fashion Ltd.(Unit‐1),"216/172, Shamim Complex, Gazipura, Sataish Road, Tongi, Gazipur, Bangladesh",Gazipur,Dhaka,1712,2,9816127,,1,"1/9,",Yes,Yes,"1/2,",960,2
Label For Us,"5/2 Golapbag (Bramonchiron), Saydabad, Dhaka Dhaka",,Dhaka,1203,,1715663636,,,1/6;,No,No,"1/1,2,3;",45,1
Lakhsma Sweaters Ltd,"Joy Bangla Sharak KB Baza, Khailkor Baro Bari, Gazipur",Gazipur,Dhaka,1704,2,9261456,,1,1/5;,No,No,‐,1919,3
Lalmai Footwear Ltd.,"Vill.: Dhanpur, P.O: Chapapur, Dist.: Comilla",Comilla,Chittagong,,0,888163133,,17,1/4; 2/3; 3/5; rest of one storied,No,No,No,1255,3
Landmark Fabrics Ltd,"Baro Ashulia, Savar, Dhaka",Dhaka,Dhaka,1341,2,9289365,,3,1/7; 2/6; 3/1;,No,Yes,1/4; 2/2; 3/1;,1000,2
Latest Fashion,"Joy bangla road, Khailkair, Barobari, Gazipur",Gazipur,Dhaka,,2,9293189,,1,1/5;,No,No,"1/0,1,2,3,4;",450,1
Latest Garments Ltd,"519 Chator (Chotobari), Post : DUET, Gazipur",Gazipur,Dhaka,1700,2,9204285,,1,1/3;,No,Yes,1/2;,491,2
Latif Fashion Ltd.,"Plot no: 327, Road no: 01, Mizmizi T.C Road, East Painadi, Siddirgonj, Narayangonj",Narayanganj,Dhaka,,2,7691868,,1,1/1;,No,No,No,300,2
Latif Knitting Mills Ltd.,"Plot # A111‐112 BSCIC Industrial Estate, Fatullah, Naranyanganj",Narayanganj,Dhaka,1420,2,7672664,,4,,No,No,,421,2
Lax Lingerie Ltd.,"Plot # A/1 & 2, Block‐B, BSCIC Industrial Area, Fouzdarhat, Sagorika Road",Chittagong,Chittagong,,31,2771523,,,,No,No,,,1
LEGACY FASHION LTD,"BSCIC, INDUSTRIAL ESTATE, KALURGHAT",Chittagong,Chittagong,,,2570801,,2,1/6; 1/6;,No,No,,3000,2
Legend Textiles Ltd,"Plot # 3 ‐ 5, Sector # 3, Karnaphuli Export Processing Zone, North Patenga, Chittagong",Chittagong,Chittagong,4204,31,2502287,,1,1/3;,No,No,,960,2
LEMOND FASHIONS LTD,"545 East Madarbari, Majhirghat Road, Chittagong",Chittagong,Chittagong,,31,623386,,,,No,No,,,1
Lenny Apparels Ltd.,"54‐56, DEPZ, Ganakbari, Savar, Dhaka",Dhaka,Dhaka,,2,7789065,,1,1/4;,No,No,,1480,1
LENNY FASHIONS LTD.,"66‐68 EXPORT PROC.ZONE , GANAKBARI, SAVAR Dhaka",,Dhaka,,2,7701065,,1,1/4;,No,No,,3000,3
"Lenny Fashions Ltd. Unit 2SFB 1 DEPZ, 1FL WestWing, 2FL Eastwing,","Ganakbari Savar, Dhaka",DHAKA,Dhaka,,2,7789065,,1,1/4;,No,No,,1146,1
Le‐Nouveautex (Pvt.) Ltd.,"65, Kunia, Barabari, Board Bazar",Gazipur,Dhaka,1704,2,9292468,,3,1/7 ; 2/1 ; 3/1;,No,Yes,"1/0, 2 , 4 ,5 ,6 ; 2/0 ; 3/0;",1350,4
Libas Knitwear Ltd.,"Kewa,Boherarchala, Gila beraeed,Sreepur",Gazipur,Dhaka,1740,,9606500434,,5,1/6;2/0;3/0;4/0;5/0;,No,No,,2300,2
LIBAS TEXTILES LTD.,"Mouchak, Kaliakoir",Gazipur,Dhaka,1751,,1616324112,,11,1/5; 2/3; 3/1; 4/1; 5/1; 6/1; 7/1; 8/1; 9/1; 10/1; 11/1;,No,No,,3300,3
LIBERTY FASHION WEARS LIMITED,"PLOT : 101, MOUZA : TENGURI, ZIRANI, BAZAR, SAVAR, DHAKA",DHAKA,Dhaka,1349,2,7789801,,10,"1/ 3: Sewing section, 2/4: GF ‐ Fabric store & rest 3 floors are closed, 3/2: Dry process, printing & ETP, 4 / Tine shed: Day care medical & finishing, 5/ Tin shed: Sewing line, 6/ Tin shed: office &",No,No,N/A,3200,5
Liberty Garments Industries Ltd.,"Plot # 09, Road # 03, Block‐D, Section – 2,Mirpur,Dhaka",DHAKA,Dhaka,1216,2,8013916,,,,No,No,,572,1
LIBERTY KNITWEAR LTD.,"RAMARBAGH, KUTUBPUR, FATULLAH",Narayanganj,Dhaka,1420,2,7641772,,6,1/5; 2/1; 3/1; 4/1; 5/4; 6/1;,No,No,,2000,2
Life Textile (Pvt.) Ltd.,Bscic Industrial Estate,Gazipur,Dhaka,,1,7134900,,1,1/7;,No,No,,750,1
Lithe Apparels Ltd,"Bagher bazar, gazipur sadar, Gazipur",Gazipur,Dhaka,,2,9897951,,,,No,No,,,1
Liz Fashion Industry Ltd.,"Zamirdia (Seed Store), P.S. Bhaluka",Mymensingh,Dhaka,,2,8417601,,6,"1/4; 2/1, 3/1, 4/1, 5/2; 6/1",No,No,,1200,1
LIZ FASHION INDUSTRY LTD.,"Holding‐1, Building‐2, Block‐C,Shaheed Mosharraf Hossain Road,Purba Chandora, Shafipur, Kaliakoir",Gazipur,Dhaka,1751,2,52051,,3,1/5; 2/3; 3/5;,No,No,,1600,2
LLOYD Textile,"Sienkee Apparels Ltd. Dr. Abdur Rashid Complex,Dr. M. A. Rashid Road,South Auch Para, Nishat Nagar",Gazipur,Dhaka,,2,1670301286,,1,1/5;,No,No,All,1100,1
Lodestar Fashions Ltd.,"Industrial Plot # M‐16, Section # 14 Mirpur, Dhaka",Dhaka,Dhaka,1216,2,804253,,3,1/8: 2/12: 3/12; Lodestar has their own wash plant & emb plant in same building under same ownership & management,No,No,,4000,2
LOGOS APPARELS LTD,"TELIRCHALA, MOUCHAK, KALIAKOIR, Gazipur, GAZIPUR",Gazipur,Dhaka,1750,2,9551857,,1,"1/6,",No,No,N/A,1650,2
Love craft Garments( Pvt) Ltd,"7 & 8 A.C. Roy Road, Armanitola",Dhaka,Dhaka,,2,7312932,,1,1/7;,Yes,No,1/7;,674,1
Loyal Apparels Ltd,"403 Kulgaon, Hathajari road, Jalalabad, Baizid",Chittagong,Chittagong,4214,,258460103,,4,1/6; 2/1; 3/1; 4/1;,No,No,,1100,5
Luman Fashions LTD,"475/B, Dit Road, Malibagh",DHAKA,Dhaka,,2,8319895,,,,No,No,,,1
Lumbini Limited,"Meghla, Bandarban",Chittagong,Chittagong,,2,8412793,,1,1/4;,No,No,,611,1
M & M Shirts Ltd,"964 Shewra Para, Begum Rokeya Shohoni, Mirpur",DHAKA,Dhaka,,2,8052340,,1,1/9 (Incl roof top),No,Yes,"1/3, 4, 5, 9 (shared)",835,2
M&M Dresses Ltd,"964 Shawrapara Begum, Rokeya Shoroni, Mirpur, DHAKA",,Dhaka,1216,2,8813803,,1,1/9;,No,No,‐,467,1
M*S Sterling Styles Ltd.,"Baron, Yearpur, Ashulia",DHAKA,Dhaka,1349,,1711567098,,1,1/6;,No,No,,2500,1
M. K. Fashions Limited,"Taibpur, Zirabo, Ashulia, Savar, Dhaka",DHAKA,Dhaka,1341,2,8917920,,1,1/10;,No,Yes,"1/3, 5,6,8;",951,1
M. M. Knitwear Ltd.,"Ambagh Road, Konabari, Nilnagar",Gazipur,Dhaka,,2,9297840,,,,No,No,,,4
M. N CLOTHING LIMITED.,"516/590, CORNEL JONES ROAD, NOTRTH KATTALI Chittagong",,Chittagong,,31,2770921,,,"1/6,",No,No,Not Shared,960,1
M. N KNITWEARS LIMITED.,"201/A, M.N PLAZA, RAMPUR, EIDGAH, D.T ROAD Chittagong",,Chittagong,,31,712970,,,"1/6,",No,No,Not Shared,960,1
M.A.C.K Shirts Ltd,"Plot #135‐138, Abdullahpur, Uttara,",Dhaka,Dhaka,,2,8958932,,1,1/5;,No,No,‐,716,3
M.B. Knit Fashion,"A/15 BSCIC Industrial Estate, Fatullah, Narayanhanj,",Dhaka,Dhaka,,2,9664247,,2,1/8; 2No,,No,‐,475,1
M.I.T Apparels,"Pathantuli, Godnail, Siddirgonj,",Narayanganj,Dhaka,,,17555548843,,3,1/1; 2/1; 3/1;,No,No,‐,280,2
M.N Sweaters ltd,"79/B,Malibag Chowdhury para,Dhaka.",Dhaka,Dhaka,1219,2,9336361,,,"1/7,",No,No,,700,1
M.S.Attires Ltd.,A.Rahman Plaza (2nd‐4th Floor),Dhaka,Dhaka,,,1713045749,,,,No,No,,,1
M/S MAXCOM INTERNATION (BD) LTD,"37 Hemayetpur, Savar, Dhaka",Dhaka,Dhaka,1340,2,8015664,,2,1/3;2/7;,No,No,Not Shared,1602,1
M/S. JANGWON CORPORATION LTD.,"CS11,CS KHATIAN NO.23, CHAYDANA, JOYDEBPUR, GAZIPUR",Gazipur,Dhaka,,2,8811276,,1,1/6;,No,Yes,1/5;,750,1
M/S. MEGA CHOIS KNITWAER LTD.,"118, BAIPAIL MOSJID BUS STAND, ASHULIA, SAVAR, DHAKA",Dhaka,Dhaka,1349,2,7790535,,1,1/6;,No,Yes,"1/1,2,3,4,5;",800,1
M/S. OLIO APPARELS LTD,"1/1 NORTH KAMLAPUR,, DHAKA‐1219,, DHAKA",Dhaka,Dhaka,1217,2,9343738,,1,"1/7,",No,No,N/A,1900,1
M/S.HRB APPARELS LTD.,"34, KAZI NAZRUL ISLAM AVENUE, KAWRAN BAZAR, DHAKA",DHAKA,Dhaka,1215,2,8124108,,1,1/3;,Yes,No,1/2;,550,1
MABTEX WEAR LTD,"1241 EAST MONIPUR, ROKEYA SHARANI, MIRPUR,DHAKA",Dhaka,Dhaka,1216,,1713063654,,1,1/6;,Yes,Yes,"1,2,3,4;",450,3
Maceton Ldt Bangladesh,"House no. 6, Road no. 12, Sector 6, Uttara",Dhaka,Dhaka,,,1745818811,,,,No,No,,,1
Madinaple Fashion Craft Ltd.,"Plot 193, Diakhali, Jamgora, Ashulia",Dhaka,Dhaka,1349,2,7790694,,1,"1/6,",No,Yes,"1/3,4,5;",850,2
Magpie Composite Textile Ltd.,"832/833, Dewan Idris Road, Amtoli, Ashulia, Savar, Dhaka",Dhaka,Dhaka,,2,8954194,,,,No,No,,,2
MAGPIE COMPOSITE TEXTILE LTD.,"DHONANJAPUR, ASHULIA, SAVAR, DHAKA",Dhaka,Dhaka,,2,8215491,,3,1/5; 2/3; 3/2;,No,No,,1234,1
MAGPIE KNIT WEAR LTD,"Yarpur, Plot # 141, Zirabo, Savar",Dhaka,Dhaka,1341,2,7791729,,5,1/6; 2/6; 3/1; 4/1; 5/1;,No,No,,1800,4
MAHBOOB APPARELS LTD,"Zirabo Pukurpar, Kundulbag, Eyarpur, Ashulia, Savar",Dhaka,Dhaka,1340,,1755596786,,1,1/1;,No,No,,600,1
Mahdeen Sweater Ltd.,"Joyna Bazer Road, Jamirdia, Valuka",Mymensingh,Dhaka,2240,,1711400769,,8,1/4; 2/1; 3/1; 4/1; 5/1; 6/1; 7/1; 8/1;,No,No,,4000,5
MAHMUD JEANS LIMITED,"Hartokitola, Chandra, Kaliakoir",Gazipur,Dhaka,,2,8961679,,4,1/6; 2/2; 3/2; 4/1;,No,No,,2230,7
Majumder Apparels Ltd,"Kunia K.B. Bazar, Barobari, Tongi",Gazipur,Dhaka,,2,9293603,,1,,No,No,,520,3
Majumder Fashions Ltd.,"Kunia, K.B. Bazar, Gazipur Sadar, Gazipur",Gazipur,Dhaka,1704,2,9293605,,1,1/4;,No,No,,1040,1
Majumder Garments Ltd.,"Plot # 415, Hariharpara, Panchabati, Fatulla, Narayanganj",Narayanganj,Dhaka,,2,7672713,,,,No,No,,,8
Malz,"House # 18; Road # 34; Sector # 7, Uttara, Dhaka Dhaka",,Dhaka,1230,,,,,1/5; 2/3; 3/2; '1/3; 2/7,No,Yes,,,1
Mamiya OP Bangladesh Ltd,"Sector 3, Export Processing Zone, South Halishahar",Chittagong,Chittagong,4223,31,741146,,1,1/1;,No,No,,800,1
MANAMI FASHION LTD,"KOBIRPUR, ASHULIA",DHAKA,Dhaka,1349,2,8922200,,1,1/6;,No,No,‐,715,2
Man's Attires Ltd,"Hosiery Ind.Estate, Pl.A‐87,Enayet Nagar Fatullah Narayanganj",,Dhaka,,,,,,,No,No,NA,,1
MANTA APPARELS LTD,"DIAKHALI,YEARPUR,JAMGARA, SAVAR, DHAKA",DHAKA,Dhaka,1341,2,7211228,,1,"1/8,",No,No,N/A,5500,3
Marina Apparels Limited,"Dapa Idrakpur, Fatullah",Narayanganj,Dhaka,,2,7672778,,1,1/4;,No,No,All,1275,2
Mark,"B.K. Bari, Taltoli, Mirzapur Bazar, Gazipur Sadar",Gazipur,Dhaka,,,,,,,No,No,,,6
MARK 2000 LIMITED,"PLOT 12‐13,ROAD 04,SECTION 07,MIRPUR",Dhaka,Dhaka,1216,2,9010390,,,6;,No,No,,1150,2
Mark Designers Limited,"Plot#12‐14, Road # 3, Section # 7, Mirpur",Dhaka,Dhaka,1216,2,9000534,,1,1/8;,No,No,,861,2
Mark Mode Ltd.,"20/1, Sataish Tongi, Gazipura, Gazipur",Gazipur,Dhaka,,31,671492,,2,1/6; 2/1;,No,No,‐,853,3
Marma Composite Ltd.,"Tongabari, Ashulia, Savar",Dhaka,Dhaka,1341,,1929910501,,4,1/1 ; 2/1 ; 3/1 ; 4/1;,No,No,1/0 ; 2/0 ; 3/0 ; 4/0;,550,1
Mars Sportswear Ltd.,"Sector‐1, Plot: 15‐16,, KEPZ, North Patenga",Chittagong,Chittagong,4204,2,2500518,,1,1/2;,No,No,‐,820,1
Mars Stitch Ltd.,"1/E, Nayem Uddin Mollah Road, Ayuch Para, 1712 Tongi, Gazipur",Gazipur,Dhaka,1712,2,9815738,,1,1/6;,No,No,,1700,7
Martin Knitwear PVT LTD,"74/75, BSCIC, Hoshiary Industrial Area, Shasongaon, Fatullah",Narayanganj,Dhaka,1400,2,7671148,,1,1/7;,No,No,‐,496,3
Maryland Garments,"Plot‐A 89, Fatullah",NARAYANGANJ Dhaka,,,,1713003438,,,,No,No,,,1
MAS Intimates Bangladesh Pvt Limite,"FSFB # 1, Karnaphuli Export Processign Zone, North Patenga",Chittagong,Chittagong,4002,,2501421,,2,1/4; 2/1;,No,No,,2100,3
Masco Cottons Ltd,"45 Redwan, Gazipur, Dhaka",Gazipur,Dhaka,1712,2,98133600,,3,1/8; 2/8; 3/8;,No,No,,1580,1
Masco Industries Ltd,"23, Shataish Road, Gazipura, Tongi, Gazipur",Gazipur,Dhaka,,2,98150412,,2,1/7; 2/10;,No,Yes,1/3; 2/4;,658,6
Mascom Composite Ltd,"Surabari, Kashimpur, Gazipur",Gazipur,Dhaka,1346,,1739993057,,1,1/1;,No,No,,250,1
MASCOT GARMENTS LTD,"No 146, Dewan Idris Road, Zirabo, Ashulia, Dhaka DHAKA",,Dhaka,,0,7791582,,,,No,No,,,1
MASCOTEX LIMITED,"Shataish Road, 31/32, Khartail, Tongi",Gazipur,Dhaka,1712,2,9815041,,1,1/6;,No,No,,1600,3
Masihata Sweaters Ltd,"South Panishail, BKSP, Kashimpur",Gazipur,Dhaka,1349,2,7788316,,7,1/6; 2/6; 3/1; 4/1; 5/1; 6/1; 7/1;,No,No,,8300,4
Mastrade,"Helal Complex (4th‐6th Floor), Plot # 72 Bypass Biswa Road, Mogarthat, Gazipur",Gazipur,Dhaka,,2,9261047,,,"Building 1 ‐6 Floors Shared with Red Fury Ltd, Lazim Apparels Ltd., Needle Touch Point, All Korea International Ltd. Mstrade occupies 4th ‐ 6th Floor",No,No,,1530,1
Mastrade International Garments Ltd.,Mogarkhal,Gazipur,Dhaka,,2,9261048,,1,1/7;,No,Yes,3;,1668,2
Matrix Dresses Ltd.,"Plot‐ 6, Road‐27/KA, Roopnagar C/A, Pallabi, Mirpur, Dhaka",Dhaka,Dhaka,1216,2,9002446,,,,No,No,,301,1
MATRIX SWEATERS LIMITED,"Choydana, National University",Gazipur,Dhaka,1704,2,929371119,,4,1/8; 2/1; 3/1; 4/1;5/1;,No,Yes,1/0‐5; 2; 3; 4;,7400,7
Mavis Garment Ltd.,"Mouza, Chandora, Jaydevpur Chow Rasta, Joydebpur, Gazipur 1700, dying : Shafi Processing Industries Ltd. 2, Tongi, BASIC,",Gazipur,Dhaka,1700,,,,2,"1/8, floor # 1,2,3 ‐under one ownership & management, 1/1;",No,No,,603,3
Max Sweater (Bd) Ltd,"24‐21Dighi Barabo, Tarabo, Ruganj",Narayanganj,Dhaka,1464,2,9883184,,1,1/4;,No,No,,2900,1
Maxcom International (Bd.) Ltd.,"37 Hemayatpur, Savar",Dhaka,Dhaka,1347,,1730021223,,4,1/7;2/3;3/2;4/1;,No,No,N/A,2000,3
Mayc's Garments Ltd.,"House‐9, Road‐1, Block‐Kha, Section‐6, Mirpur",Dhaka,Dhaka,,,191349489,,,,No,No,,,2
MBM GARMENT LTD,"M19 & M14, SECTION 14, MIRPUR",Dhaka,Dhaka,,2,9001357,,3,1/10; 2/4; 3/1;,No,No,,1600,1
Mccoy Sweater,"83, Mollartek, Uttara, Dhaka",Dhaka,Dhaka,,2,8931771,,1,1/10;,No,Yes,"1/6,7,8,9;",400,1
Meditex Industries Limited,"Plot 912, Kashimpur Road, Konabari, Gazipur",Gazipur,Dhaka,1700,2,9297345,,1,"1/6,",No,No,"1/6,",2000,5
Medona Fashions Ltd.,"H‐79,Block‐M,Airport Road,Banani Chairman Bari,Banani",Dhaka,Dhaka,1213,2,9880343,,1,1/9;,Yes,Yes,"1/4,5,6,7,8;",650,2
Meek Sweater Limited,"Noor Complex, Aochpara, Sataish Link Road, Tongi",Gazipur,Dhaka,,2,981669,,7,,No,No,,,5
Mega Dyeing Ltd.,"Shardagonj, Gabindopur, Jaidebpur",Gazipur,Dhaka,1702,,1711821872,,10,1/7; 2/6; 3/5; 4/1; 5/1; 6/3; 7/1; 8/1; 9/1; 10/1;,No,No,,300,1
Meghna Dresses Limited,"Gilarchala, Shreepur",Gazipur,Dhaka,,2,8833171,,1,1/6;,No,No,,2450,1
MEGHNA KNIT COMPOSITE LIMITED,"SRIIPUR ROAD, GILARCHALA, SRIIPUR",Gazipur,Dhaka,1740,,1727027027,,5,1/6; 2/1; 3/1; 4/1; 5/1; 6/1;,No,No,,1800,5
Mehnaz Styles & Craft,"Bangabandhu Road, Tongabari, Ashulia, Savar",Dhaka,Dhaka,,2,77437679,,8,1/1;2/1;3/1;4/1;5/1;6/1;7/1;8/1;,No,No,,1100,4
Mellow Fashion Ltd.,"524, DT Road (Floor ‐3), Kadamtali, Chittagong",Chittagong,Chittagong,,31,2517254,,,,No,No,,,1
MENS APPARELS LIMITED,"1351 SULTAN CHAWK MARKET, ATURAR DIPU, WEST SHOLASHAR",Chittagong,Chittagong,4203,,1676482992,,,"1/5,",Yes,Yes,"1/1,",500,1
Mens Fashion Ltd.,"49, NP Kalurghat Heavy Industrial Area, Chittagong",Chittagong,Chittagong,4208,31,670463,,1,"1/8,",No,Yes,"Ground Floor, 1st Floor, 6th Floor.",2100,1
MERCURY KNIT WEAR (PVT) LTD,PLOT B‐24.BSCIC INDUSTRIAL ESTATE‐KANCHPUR Narayanganj,,Dhaka,,2,7540095,,1,1/1;,No,No,,,1
MERIM CO. LTD,"PLOT # 4‐6, SECTOR # 6/A, CEPZ",CHITTAGONG,Chittagong,,2,7401012,,2,"1/6, 2/1;",No,No,,3500,1
Merimo Limited,"Plot # 25‐26, Sector: 6, EXPORT PROCESSING ZONE",Chittagong,Chittagong,,,7401012,,2,"1/4,1/1;",No,No,,1600,1
Mesh Exports House Ltd,"Vogra,, National University, Joydebpur",Gazipur,Dhaka,1704,2,9890311,,1,1/6;,No,No,,780,4
METRO KNITTING & DYEING MILLS,"RAMARBAG, KUTUBPUR, FATULLAH",Narayanganj,Dhaka,1400,2,7647649,,11,1/8; 2/8; 3/1; 4/8; 5/1; 6/7; 7/8; 8/8; 9/1; 10/4; 11/8;,No,No,,3300,2
02),"Charabag, Ashulia, Savar",Dhaka,Dhaka,1340,,1730333911,,2,1/9; 2/1;,No,No,,2600,4
MG Knit Flair Ltd.,"31/1, Laxmipura, Chandana, Joydebpur",Gazipur,Dhaka,1700,2,9264035,,3,1/6; 2/1; 3/1;,No,No,,920,4
MG Shirtex Ltd,"31/1, Luximpura, Chandra, Jaydebpur",Gazipur,Dhaka,,2,9264036,,2,1/6;1/1;,No,No,,850,2
MHC APPARELS (PVT) LTD,"Ka 79/3 Khilkhet khapara, Dhaka",Dhaka,Dhaka,1229,2,8915265,,1,1/5;,No,Yes,"1/1, 2, 3, 4;",467,1
MHC WEARS (PVT.) LTD.,"Holding‐122, Word‐2, Sataish road, Tongi, Gazipur",Gazipur,Dhaka,1712,2,9815648,,1,1/6;,No,Yes,"1/0, 1, 4, 5;",750,1
Ltd (sister concern of Midasia),"Plot No: M‐16, Section: 14, Mirpur, Dhaka",DHAKA,Dhaka,1216,2,8012225,,1,"1/0, 1/1, 1/2, 1/3, 1/4, 1/5, 1/6 (5 floors under construction)",No,No,,1535,1
Midland Knitwear Ltd.,"Ramarbagh, Kutubpur, Fatullah, Narayangonj",Narayanganj,Dhaka,,2,7641772,,3,"1/0, 1/1, 1/2, 1/3, 1/4, 1/5, 1/6, 1/7; 2/0; 3/0;",No,No,,1784,3
Mifkif Apparel Ltd.,"67, Khilgaon, Chowdhurypara, DIT Road, Rampura",DHAKA,Dhaka,,,1715269747,,,,No,No,,,1
"Miles Fashion (Durgapur, Ashulia)","Durgapur, Ashulia, Savar. Dhaka",Dhaka,Dhaka,,,,,,,No,No,,,1
"Miles Fashion (FATULLAH, NARAYANGANJ) A‐16/17,BSCIC INDUSTRIAL AREA,","SASHONGAON, FATULLAH, NARAYANGANJ",Narayanganj,Dhaka,,,,,,1/1;,No,No,,,1
"Miles Fashion (GANAKBARI,SAVAR)","ANWAR PLAZA, GANAKBARI,SAVAR, DHAKA",Dhaka,Dhaka,,,,,,1/1;,No,No,,,1
"Miles Fashion (Jarun ,Konabari)","Jarun ,Konabari ,Gazipur",Gazipur,Dhaka,,,,,,,No,No,,,1
"Miles Fashion (Khajur Bagan, Ashulia)","Khajur Bagan, Ashulia",Dhaka,Dhaka,,,,,,1/2;,No,No,,,1
"Miles Fashion (Sanarpar, Siddirganj)","Sanarpar, Siddirganj, Narayangong",Narayanganj,Dhaka,1429,,,,,,No,No,,,1
"Miles Fashion (Surabari, Kashimpur)","Surabari, Kashimpur, Gazipur",Gazipur,Dhaka,1346,,,,,,No,No,,,1
MILLENNIUM TEXTILES ( SOUTHERN ) LTD,"Bara Rangamatia, Zirabo, Ashulia , Savar",DHAKA,Dhaka,,2,7791790,,5,1/5; 2/2; 3/1; 4/1; 5/1;,No,No,,800,4
MIM Design Ltd,"Basan Sarok Bazar, Vogra Gazipur, Dhaka",Gazipur,Dhaka,,,1676718757,,2,1/7;2/1;,No,No,,3100,7
MIM Dresses Ltd,"Baishakhi Super Market, 4th Floor, Plot no. 10,11,19 & 21, Kalwalapara, Mirpur 1,",DHAKA,Dhaka,1216,2,8055426,,1,1/6;,Yes,No,"1/6;2,3,4,5",462,2
MIM Sweater Ltd,"Bashan Sarak Bazar, Vogra, Gazipur",Gazipur,Dhaka,1704,,1676718757,,2,"1/7, 2/5;",No,Yes,1/4;2/2;,1200,3
Minimax Ltd.,"Plot # 33, 35, 37&39, Gacha, National University, Gazipur, Dhaka",Gazipur,Dhaka,1704,2,9291513,,1,1/2;,No,No,1/2;,,2
MIRABELLA DRESSES LTD.,"Plot # M / 2 ‐ 1, Road # 7, Section # 7, Mirpur I / A",DHAKA,Dhaka,1216,2,9006747,,240,4;,No,No,,408,1
MIRAGE WEARS (PVT) LIMITED,"ABDUL HAMID ROAD, 411 SULOK BAHAR (2nd FLOOR), PANCHLISH.",Chittagong,Chittagong,4212,31,656162,,,"1/4,",No,No,Not Shared,312,1
Misami Garments Ltd,"822/3 BEGUM ROKEYA SHARANI, SHEWRAPARA, MIRPUR",DHAKA,Dhaka,,2,8053418,,1,1/9;,No,No,,1200,5
Mission Fashion,"Surabari, Kashimpur, Gazipur",Gazipur,Dhaka,1346,2,8950081,,2,1;,No,No,2/2;,450,1
Mitali Apparels Ltd.,"Hatimara Road, Barenda, Kashimpur, Gazipur",Gazipur,Dhaka,,2,9297771,,4,1/6; 2/4; 3/6; 4/1;,No,Yes,"1/4; 2/0,1,2,3; 3/0,1,2,3,4,5; 4/0;",1800,4
MM Knit Wear,"Ambagh Road, Konabari, Nilnagar",Gazipur,Dhaka,,,,,,,No,No,,,1
Modele De Capital Ind Ltd,"Talla Road, Kha‐pur Fatullah, Narayangonj",Narayanganj,Dhaka,,2,7452133,,202 8,1/7; 2/3; 3/2; 4/1; 5/1; 6/1; 7/1; 8/1;,No,No,‐,2688,3
MODISTE (CEPZ) LTD,"Plot No # 33‐36, Sector # 07, Export Processing Zone",CHITTAGONG,Chittagong,,,740238,,2,1/2;1/1;,No,No,,1050,1
Mohammadi Apparels Ltd,"50, Lalbagh Road",Dhaka,Dhaka,,2,9292940,,2,1/6; 2/1;,No,No,‐,680,1
MOHAMMADI FASHION SWEATERS LTD,"Ka, 52/A Khilkhet",DHAKA,Dhaka,1229,2,8952710,,2,1/5; 1/1;,No,No,,1350,3
Mohammadi Group Ltd.,"52/A, Khil Khat",Dhaka,Dhaka,,2,8952704,,2,1/5; 2/1;,No,No,,900,5
Mohammadi Knit star,"Monna Vobanipur, Mizapur, Gazipur,Dhaka",Gazipur,Dhaka,,,1713014147,,4,1/4;2/3;3/1;4/1;,No,No,,1216,4
MOHARA ASIAN APPARELS,"472, Kalurghat Industrial Area",Chittagong,Chittagong,,,670207,,3,1/4; 2/1; 3/1;,No,No,,1500,1
MOMEN APPARELS,"220/A‐ 11/1, Begum Rokeya Sharoni, Kafrul,Mirpur, Dhaka",Dhaka,Dhaka,1216,2,9020835,,,"1/10,",Yes,Yes,"1/5,6,7;",1200,1
Mondol Fabrics Ltd.,"Nayapara, Kashimpur",Gazipur,Dhaka,1346,2,9297893,,3,1/9 ; 2/6 ; 3/1;,No,Yes,"1/1, 2 , 3 , 5 , 6 , 7 , 8 , Roof top; 2/1 ,2 ; 3/0;",1600,3
Mondol Fashions Ltd.,"Rashid Tower, Tongabari, Ashulia, Savar, Dhaka",Dhaka,Dhaka,1341,2,98136846,,,,No,No,,1200,1
MONDOL KNIT TEX LTD,"NAYAPARA, KASHIMPUR, GAZIPUR, Gazipur, GAZIPUR,",Gazipur,Dhaka,1346,2,9298557,,2,"1/9,",No,No,N/A,3200,3
Moni fashion ltd,"Sardagonj, kashimpur, Gazipur",Gazipur,Dhaka,,2,7790594,,2,1/0; 2/0;,No,No,,1400,3
Monira Knit Apparels Ltd.,"191, West Masdair, Fatullah, Narayangonj",Narayanganj,Dhaka,1400,2,7645111,,2,"1/1, 2/5;",No,No,,100,1
MONNO ATTIRE LIMITED,"ISLAMPUR, DHAMRAI",DHAKA,Dhaka,1250,2,7730590,,,"1/2,",No,No,Not Shared,800,1
Monno Ceramic,"Islampur, Dhamrai",Dhaka,Dhaka,1350,2,7730585,,2,1/1;2/1;,No,No,All,2084,1
Moon Readywears Ltd.,"Beron, Diakhali, Ashulia, Savar",Dhaka,Dhaka,,2,7788367,,5,1/6; 2/2; 3/1; 4/1; 5/1;,No,No,,2350,1
Moonlight Garments Ltd,"K.B. Bazar, Targach, Gazipur",Gazipur,Dhaka,1704,2,9291372,,,1/6; 2/3; 3/1;,No,Yes,"1/0,1,2,3,5; 2/0‐3; 3/0;",1143,3
Moonlux Knit Garments Ltd.,"7504 ‐ 7505 Waxbill Plaza, Sumilpara, Siddhirgonj, Narayangonj",Narayanganj,Dhaka,,2,8399624,,1,1/6;,No,No,1/4;,565,2
MOTALEB MONOWARA COMPOSITE,"Kutubain, Fatllah Narayanjong",Narayanganj,Dhaka,1420,2,764758,,3,1/7; 2/3; 3/2;,No,No,,1500,1
Mother Colour Ltd.,"160, Shashongaon, Enasetnagor, Fatullah, Narayangonj",Narayanganj,Dhaka,,2,7671678,,1,5;,No,No,"1/0,1,2,3,4;",1000,1
Mozart Knit Ltd,"Bashaid,Ashulia",Dhaka,Dhaka,,2,8931142,,5,1/4;2/2;3/2;4/4;5/1;,No,No,‐,1589,3
MT SWEATER LTD,"Gacha, Plot#1703‐1704, Post# Gacha, Gazipur",Gazipur,Dhaka,1704,2,9293335,,1,1/5;,No,Yes,"1/0, 1, 2, 3;",2000,4
Muazuddin Knit Fashion Limited,"Plot # B‐31, East Chandura, Kaliakoir, Gazipur",Gazipur,Dhaka,1751,,1714259169,,7,1/7 ; 2/6 ; 3/1 ; 4/1 ; 5/1 ; 6/1 ; 5/1;,No,Yes,"1/0 , 1 , 2 , 3, 4 ; 5/0 ; 7/0;",1180,3
MUAZUDDIN TEXTILE LTD,"PLOT # 235/236, EAST CHANDURA, SHIFIPUR, KALIAKOR, GAZIPUR",Gazipur,Dhaka,1751,2,9891363,,4,1/7; 2/7; 3/7; 4/7;,No,No,,6000,7
Mukul Knitwear Limited,"Konabari, Nilnagar, Gazipur Sadar , Gazipur",Gazipur,Dhaka,,2,9297137,,1,1/5;,No,No,No,532,1
Multi Modern Appareals Ltd,"Yusef Maket, Dhonaid, Yarpur, Ashulia, Savar, Dhaka",Dhaka,Dhaka,1341,,1937352696,,,1/5;,Yes,Yes,"0,1,2;",450,1
Multifabs Ltd,"Kashimpur, Nayapara, Gazipur",Gazipur,Dhaka,,2,9297450,,4,1/5; 2/7; 3/5; 4/5;,No,No,No,3500,6
Multisafh Ltd.,PLOT#29‐32 ;SECTOR#3;ROAD#4 CEPZ;SOUTH HALISHAHAR,Chittagong,Chittagong,,31,741687,,4,1/1;1/1;1/1;1/1;,No,No,,1050,3
Murad Apparels Ltd.,"190, Inner Circular Road, Arambagh, Motijheel, Dhaka",Dhaka,Dhaka,1000,2,7193052,,1,1/8;,No,No,"1/0,1,2,3,4,5,6,7;",375,3
Ltd.(Unit‐2)),Shinaboha Mouschak,Gazipur,Dhaka,1751,2,9884905,,,,No,No,,,1
M‐Yew Fashion Ltd.,"H.S.S. Complex (2nd Floor), Ka‐15/6, Rasulbagh, Mohakhali",DHAKA,Dhaka,,2,8855659,,,,No,No,,,1
N. T. Apparels Ltd.,"Dhaka Munshiganj Road, Kashipur, Fatullah, Narayanganj",Narayanganj,Dhaka,1400,2,27640539,,2,"1/4, 2/5;",No,No,No,700,2
N.A Garments,"Plot # 36, Road # 46, Gulshan North C/A, Dhaka",Dhaka,Dhaka,1212,2,29884649,,1,1/6;,No,No,No,620,1
N.A.Z Bangladesh Ltd.,"5, Bishuya, Kuribari, Mirzapur, Gazipur",Gazipur,Dhaka,1700,2,9289054,,56 10,1/3;1/1;1/4;1/2;1/1;1/1;1/1;1/4;1 /1;1/2;,No,No,,2400,3
N.A.Z. BANGLADESH LIMITED,BHABANIPUR,Dhaka,Dhaka,,,,,,,No,No,,,1
N.K.L. Apparels Ltd.,"House # 52, Plot # 238, Satarkul Road, Abdullahbagh More, North Badda, Dhaka",Dhaka,Dhaka,1212,,,,,,No,No,,,1
N.R.KNITTING MILLS LTD,"Enayetnagar, Fatullah",Narayanganj,Dhaka,1400,2,7670177,,10,1/5; 2/11; 3/7; 4/7; 5/6; 6/1; 7/1; 8/1; 9/1; 10/1;,No,No,,1600,2
NAAB FASHIONS LTD.,"KA‐220/12 (3rd & 4th Floor), Khilkhet, Namapara Dhaka",Dhaka,Dhaka,1229,2,8412365,,1,1/5;,No,Yes,1/3‐4;,630,1
Naba Knit Composite Ltd. (SONIA Limited),"Zamgora EPZ Road Ashulia, Dhaka",DHAKA,Dhaka,,,1711568575,,1,1/6;,No,No,All,1000,1
Nafa Apparels Ltd.,"London Plaza, Plot # 35, Sector, ‐3, Uttara",Dhaka,Dhaka,1230,2,8824422,,2,"1/8,1/8;",Yes,No,"1/3,4,5,6,7,;2/3,4, 5,6,7,8;",1100,2
NAHK Singapore Pte. Ltd,"Lumbini Limited, Bandarban Zilla Parishad Complex, Meghla, Bandarban",Bandarban,Chittagong,,2,1713148116,,1,1/12;,Yes,Yes,1/7; 1/8; 1/9; 1/10,1800,1
Nandan Apparels Ltd.,"Kathora, Board Bazar",Gazipur,Dhaka,,2,9293530,,3,1/6; 1/1; 1/1;,No,No,,1480,1
Naomi Sweaters Ltd.,"A‐46/47, BSCIC, Konabari",Gazipur,Dhaka,,2,8350948,,,,No,No,,,1
Nar Sweaters Limited,"747, Jajhor, National University, Thana‐ Joydevpur,Dist‐Gazipur.",Gazipur,Dhaka,1704,0,981334808,,1,1/6;,No,No,,830,5
Nassa Basics Ltd.,"4 Tayebpur, Nischantopur",Dhaka,Dhaka,1341,2,7790599,,1,1/2;,No,No,,4221,1
Natural Apparels Ltd.,"464, West Rampura, D.I.T Road, Mollah Tower (4Th ‐ 6Th Floor)",Dhaka,Dhaka,1219,,85523983322,,2,1/10;2/10;,Yes,Yes,"1/5,6,7; 2/5,6,7;",1050,2
Natural Denim Ltd,"Tonga Bari, Ashulia, Savar",Dhaka,Dhaka,,,1711804303,,2,1/7; 2/2;,No,No,,3000,11
NATURAL SWEATER VILLAGE LTD,"RAJU TOWER, GOURIPUR, ASHULIA,SAVAR,DHAKA",Dhaka,Dhaka,1341,2,7744982,,2,1/4: 1/5;,No,No,,1800,10
Navid woolwear ltd,"Shaheen complex(3rd floor), 23, shataih road, gazipura, tongi, gazipur",Gazipur,Dhaka,1740,2,8836177,,1,1/1;,No,No,,1200,1
Navid Woolwears Limited,"Village:Shaitalia,Telehati,Thana:Sreepur,District: Gazipur",Gazipur,Dhaka,1740,,1916033221,,1,1/1;,No,No,,586,1
Navy Hosiery,"Navy Hosiery Plot A2, A3 BSCIC Indusrial Estate Enayet Nagar, Fatulla, Narayanganj",Narayanganj,Dhaka,1420,2,7672828,,,1/10;,No,No,,800,1
Naz Knit Wear Ltd.,"Ganakbari, Savar, Dhaka",Dhaka,Dhaka,,2,7789202,,3 1,6;,No,No,"1/0,1,2,3,4,5;",850,4
Naziat Sweaters Ltd.,"309, Challaban Shah Kabir Mazar Road, Uttara",Dhaka,Dhaka,,2,8959916,,,,No,No,,,1
Nazmul Hosiery (Pvt)ltd.,"193, Khapur Mouza, Dag no : 31 Chandmari Fatullah, Narayangonj, Chandmari Fatullah, Narayangonj",Narayanganj,Dhaka,,2,40931902,,1,Ground to 2nd floor,No,No,N/A,250,1
ND Knit Composite Ltd,"Rashid Market, Gazirchat, Ashulia Savar, DHAKA Dhaka",,Dhaka,1344,,,,2,1/3; 2/7;,Yes,Yes,"1/2; 2/4, 5, 7;",356,1
Need Dresses (Pvt.) Ltd,"1113/1140, Enayet Bazar Road",Chittagong,Chittagong,,31,633895,,1,1/6;,No,No,,700,1
Needle Drop Ltd,"50, Chamdpara, Basin Road, Joydevpur national university, Joydevpur, Gazipur",Gazipur,Dhaka,,2,8900158,,5,"1/3,2/1,3/1,4/1,5/1;",No,No,,900,2
Neo Fashion Ltd.,"Vorari, Rajfulbaria, Savar",Dhaka,Dhaka,1340,,1757074733,,1,1/7;,No,No,,1003,5
Network Clothing Ltd.,"Afiz Complex (4th ,5th and 6th floor) Chowdhury Bari, Vogra, Gazipur",Gazipur,Dhaka,1704,2,9252695,,2,1/6 ; 2/1;,No,Yes,"1/3,4,5, Roof top ; 2/0;",700,2
New Dacca Industries Ltd,"Sarabo, Kashimpur, Gazipur",Gazipur,Dhaka,1346,2,8618220,,1,1/1;,No,No,,4911,1
New Era Fashions MFRS.(BD) Ltd,"Plot # 10,11 &12 (Part) ,Sector # 8 ,Road #3 CEPZ, Chittagong",Chittagong,Chittagong,4223,31,740838,,1,"1/3,",No,No,"1/3,",700,1
New Frontier,"South Panishail, Zirani Bazar Kashimpur, Gazipur, Dhaka",Gazipur,Dhaka,1349,,1710912376,,,1/4;,No,No,,,1
New Horizon BD Limited,"Kolma, Savar, Dhaka",DHAKA,Dhaka,,2,7744073,,1,3;,No,No,‐,400,1
NEW Ideas Trading.,"TTS MANUFACTURING LTD. DILAN COMPLEX, DHAKA ROAD, CHANDONA CHOWRASTA, GAZIPUR, GAZIPUR",Gazipur,Dhaka,,,1712246364,,1,1/8;,Yes,Yes,1/GF; 1/1; 1/2; 1/3; 1/4;,850,1
New Light Sweaters Ltd,"Chandana, Joydelpur Road",Gazipur,Dhaka,1704,,1711836757,,,,No,No,,,1
New Line Clothings Ltd,"Plot No.1945, Kouchaukuri, Kamrangachaia, Mouchak, Kallokoir, Gazipur",Gazipur,Dhaka,,2,80234956,,1,1/5;,No,No,‐,1850,4
NEW MORNING APPARELS LIMITED,"1290, O.R NIZAM ROAD, MEHEDIBAG",Chittagong,Chittagong,,31,670301,,,"1/6,",No,Yes,"1/0,1;",256,1
New Town Knitwear Co.LTD,"Plot +345‐350, Nilnagar Konabri",Gazipur,Dhaka,,2,929714,,1,,No,No,,,3
Newage Apparels Ltd.,"Purbo Narshinghapur, Zirabo, Ashulia, Dhaka",Dhaka,Dhaka,,,1713438929,,5,1/3;2/8;3/1;4/2;5/3;,No,No,,4000,4
NEWAGE GARMENTS LIMITED,"42‐I, Indira Road, Farmgate",DHAKA,Dhaka,,2,9126535,,1,1/9;,No,No,,1000,1
NEWTECH APPARELS LTD,"SALEHA COMPLEX, 215 DT ROAD, DEWANHAT, DOUBLE MOORING THANA",Chittagong,Chittagong,4100,31,2513810,,,"1/6,",Yes,No,"1/1,2,3,4,5;",630,1
Newtex Design Ltd,"Gorai, Industrial Area, Mirzapur",Tangail,Dhaka,1942,,1717057826,,7,1/4; 2/2; 3/1; 4/1; 5/1; 6/1; 7/1;,No,No,,1100,3
Next Sourcing Ltd,"House #217, Road #10, Mirpur DOHS, Dhaka",Dhaka,Dhaka,1216,2,8080974,,,,No,No,,,1
Nexus Fashion LTD,"Nexus Tower, Vogra Joydebpur",Gazipur,Dhaka,,2,9252774,,,,No,No,,,1
Nexus Knit,"Begum Rokeya Shoroni, 179/1, West Kafrul, Taltola",Dhaka,Dhaka,,2,9145910,,,,No,No,,,1
Nexus Sweater Ind.(pvt) Ltd.,"Vogra, Joydebpur",Gazipur,Dhaka,1704,2,9252774,,3,1/8; 2/1; 3/1;,No,No,,1300,9
Niagara Textiles Ltd,"Chandra circle, Union‐Atabaha, Kaliakair",Gazipur,Dhaka,,2,2512334,,,,No,No,,,6
NIGHTINGALE FASHION LTD,"Plot A 84/85 BSCIC Ind Estate, Konabari, Gazipur Gazipur",,Dhaka,1346,2,9297190,,1,1/8;,No,No,NA,900,1
Nipa Fashionwear Ltd,"Selina Tower, Holan Road, Islam Bag, Dhaka",Dhaka,Dhaka,1230,2,8962683,,4,1/8; 2/1; 3/6; 4/1;,No,Yes,1/0‐7; 2/0; 3/0‐5; 4/0;,2019,8
Nipa Knitwear Company,"SELINA TOWER 4, ISLAM BAG, HOLAN ROAD, DHAKKINKHAN, UTTARA,",Dhaka,Dhaka,1230,2,8952410,,1,1/7;,No,No,‐,900,1
Nirzhor Knitwear Ltd,"D.N.Road, Pagla",NARAYANGANJ Dhaka,,,,,,,,No,No,,,1
Nkk Knitwear Ltd.,"Kutubail,Fatullah,Narayangong",Narayanganj,Dhaka,1420,,1714097821,,1,1/8;,No,No,,969,1
Nofs Garments Ltd.,"Plot & Holding # 1, Turag Housing Ltd., Beribadh, Mohammadpur",Dhaka,Dhaka,,2,400,,,,No,No,,,1
Noman Fashion Fabrics Ltd.,"Pagar, Tongi, Gazipur, Dhaka, Bangladesh",Gazipur,Dhaka,1710,2,9801012,,3,1/6; 2/4; 3/5;,No,Yes,1/5; 2/4; 3/0;,886,5
Noman Terry Towel Mills Ltd,Vawal Mirzapur,Gazipur,Dhaka,,,,,11,1/4; 2/2; 3/2; 4/1; 5/2; 6/1; 7/2; 8/1; 9/1; 10/1; 11/1;,No,No,‐,2042,4
Norban Comtex Ltd.,"Mouza Sarabo, Chakraborty, Kashimpur Union, Gazipur, Dhaka,",Gazipur,Dhaka,,2,3341420,,,"Building 1 ‐ Storied, Building 2 ‐ 1 Storied, Building 3 ‐ 2 Storied, Building 4 ‐ 2 Storied, Building 5 ‐ Under construction",No,No,,1690,4
"Norp Knit Industries Ltd Unit 1North Khailkur, National University",,Gazipur,Dhaka,1704,2,9292036,,2,1/2;2/2;,No,No,‐,1200,3
Norp Knit Industries Ltd Unit 2,"Reliance Ind Park, 93,Islampur, Kodda",Gazipur,Dhaka,,2,9264371,,2,1/3;2/2;,No,No,‐,3700,3
Northern Corporation Limited,"Plot # 43‐45,BSCIC I/A, Tongi, Gazipur",Gazipur,Dhaka,1710,,1833313626,,4,1/5;,No,No,N/A,1250,3
Northern Fashion,"Plot 16‐18 Dakkin Panishail,EPZ kaliakur road, Kashimpur, Gazipur,Dhaka",Gazipur,Dhaka,,,1819813951,,3,1/7;2/4;3/4;,No,No,,1970,2
Novel Hurricane Knit Garments Ltd.,"Bokran, Monipur, Mirzapur, Gazipur",Gazipur,Dhaka,1703,,1713093770,,1,1/5;,No,No,,519,2
NR EXPORTS,"House#15(2nd floor), Road#30, Sector#7, Uttara Model Town , Dhaka",Dhaka,Dhaka,1230,,1611557722,,,1/6;,Yes,Yes,1/2;,15,1
NR Knit Composite,"Enayetnagar, Volail, Fatullah",Narayanganj,Dhaka,,,,,,,No,No,,,4
NR Knitting Mills (own production),"Enayetnagar, Bholail, Fatullah",Narayanganj,Dhaka,,2,7670042,,1,1/6;,No,No,‐,817,1
NRN Fashion,"House#227, Road#4, Mirpur, DOHS, Dhaka",Dhaka,Dhaka,1221,,1710877777,,,1/6;,Yes,Yes,1/5;,25,1
NRN Printing & Accessoreid (Unit‐1),"181 Diamond Mur, Jamgara, Ashulia, Dhaka",Dhaka,Dhaka,1340,,1710877777,,,1/4;,No,Yes,"1,2,3;",58,1
NRN Printing & Accessoreid (Unit‐2),"B/55, Road #1, BSCIC, Shasongaon, Fatullah, Narayanganj",Narayanganj,Dhaka,1400,,1710877777,,,1/3;,No,Yes,1/1;,40,1
NTKC,"Plot# 345‐350, Nilnagar, Konabari, Gazipur",Gazipur,Dhaka,,2,9297141,,4,"1/10, 2/8, 3/4, 4/4;",No,No,,2115,1
NUCON GARMENTS LIMITED,"SHAHN PLAZA (2nd FLOOR) 375, BANDARTILA, AIRPORT ROAD",Chittagong,Chittagong,,31,741475,,,"1/5,",Yes,Yes,"1/2,3;",400,1
Nurani Dyeing & Sweater Ltd.,"Fatehpur, 2 No Shorshodi Union, Dhaka Chittagong Road, Feni",Chittagong,Chittagong,,2,9887507,,1,1/5;,No,No,,600,1
NZN Garments Ltd,"Patherghata 4000, Chittagong",Chittagong,Chittagong,4000,31,740136740161,,1,"1/6,",Yes,Yes,"1/1,",285,1
OASIS HI‐TECH SPORTSWEAR LIMITED.,"PLOT# 12‐14 & 21, COMILLA EPZ",COMILLA,Chittagong,3500,81,71051,,,"1/2,",No,No,Not Shared,1000,1
"Oasis Unit 2Kashem Complex , Gacha Roard , Gazipur",,Gazipur,Dhaka,,2,9291812,,1,1/6;,No,No,,987,1
OCEAN APPARELS LIMITED,"BUILDING DS 02, EAST WING 1ST FLOOR, ROAD# 02, CEPZ",Chittagong,Chittagong,4223,31,800098,,2,1/2;2/1;,No,No,Not Shared,882,1
OCEAN Garment,"GRAMEEN KNITWEAR LTD. PLOT NO. 102, 103, 126 & 127, EXPORT PROCESSING ZONE (EXT‐II), GANAKBARI, SAVAR",Dhaka,Dhaka,1349,2,77892934,,1,1/3;,No,No,All,2200,1
Ocenian Fashion,"I/E 43,Chiriakhana Road, Mirpur‐1",Dhaka,Dhaka,1216,2,9020781,,,,No,No,,280,1
Odessa Fashions Limited,"Nalzani, Chandana, Joidevpur, Gazipur",Gazipur,Dhaka,1702,2,9252412,,1,"1/6,",No,No,"1/6,",1960,4
Oeko‐Tex Limited,"South Panishail zerani bazar, BKSP, Gazipur, Dhaka",Gazipur,Dhaka,,,1711591280,,3,1/6;2/7;3/4;,No,No,,1399,1
Oishi fashion ( pvt) ltd.,"Shaheen complex,(3rd floor) 23, shataish road,gazipura,tongi, gazipur",Gazipur,Dhaka,1712,2,6557258,,1,1/6;,Yes,Yes,"1/2,3;",475,1
"Okamoto (Jamgora, Ashulia)","Plot No‐SA‐179, RS‐1356, Jamgora, Ashulia, Savar, Dhaka",Dhaka,Dhaka,,,,,,,No,No,,,1
"Okamoto (Kaliakoir, Gazipur)","Polly Biddut, Handra, Kaliakoir, Gazipur, Dhaka",Gazipur,Dhaka,1706,,,,,,No,No,,,1
Old Town Fashions Ltd,"Salima Complex, Silo Road, Siddhirgonj, Narayangonj",Narayanganj,Dhaka,1430,2,7692010,,1,1/4;,No,No,,750,2
One Composite Mills,"Bishuya Kuribari, Mirzapur Thana, Gazipur Sadar Gazipur",,Dhaka,1703,2,9289514,,,,No,No,,2300,1
One Up Sweaters Ltd,"122‐123, Choydana, P.O. National University",Gazipur,Dhaka,,2,929280,,1,,No,No,,,1
ONE WAY TEXTILE LTD.,"One Way Textile Alam super market, Kathgora bazar, Zirabo, Savar",Dhaka,Dhaka,1340,2,7792460,,1,"1/1,2;",No,No,,288,1
ONUS DESIGN LTD,"ONUS DESIGN LTD, JOY BANGLA ROAD,, KUNIA, K B BAZARBARA BARI, GAZIPUR",Gazipur,Dhaka,1703,2,9291713,,1,"1/7,",No,No,N/A,2250,1
Opex Fashions Ltd.,"I/1, I/2 Block‐C,Section‐13, Mirpur, Dhaka",Dhaka,Dhaka,1216,2,9013766,,1,1/9;,No,No,,1400,1
Opex Stylewear Ltd,"56/1, Block‐C,Section‐13, Mirpur, Dhaka",Dhaka,Dhaka,,2,8828860,,3,1/12;2/10;3/9;,No,No,All,4500,2
OPTIMUM FASHION WEAR LTD,"Shashongaon, Enayet Nagar, Fatulla, Narayanganj",Narayanganj,Dhaka,1420,2,7670181,,1,1/6;,No,No,NA,450,2
Optimum Limited,"Amir Complex (9th Floor), Plot # 43, Sector 3, Uttara, Dhaka",Dhaka,Dhaka,1230,2,89530967,,1,1/10;,Yes,Yes,1/2;,750,1
ORBITEX KNITWEAR LIMITED,"GORAT, SARKER MARKET ROAD, ASHULIA",DHAKA,Dhaka,,2,779084445,,3,1/3; 2/1; 3/1;,No,No,,2450,1
ORCHID,"13‐14 Zoo Road, Molik Tower, 11th Floor section, Mirpur, Dhaka",Dhaka,Dhaka,1216,2,8415126,,1,,No,No,,600,1
Orchid Garments,"247/248 , West Tejgaon I/A",Dhaka,Dhaka,1208,2,986246,,1,1/12;,No,Yes,"1/1,2,3,5,6,",2450,1
Orchid Sweater Ltd,"B‐7/ B‐8 Bisic‐1/A, Fidc Road, Kalurghat",Chittagong,Chittagong,4212,31,672019,,1,1/5;,No,No,,1050,2
Organic Jeans Ltd.,"Plot No. A/1 & 2, Block‐B, BSCIC Industrial Area, Fouzderhat, Sagarika Road",Chittagong,Chittagong,,,1855545541,,,,No,No,,,1
Orient Allure Lingerie Ltd.,"Konabari, Gazipur Sadar, Gazipur, Dhaka",Gazipur,Dhaka,1346,,1779563280,,1,1/6;,No,Yes,1/3;,,2
Oriental Industrial Co. Ltd.,"Mogarkhal, C.S. Plot # 97, Vogra Industrial Area,P.O. : National University, P.S. Joydebpur",Gazipur,Dhaka,,,,,,,No,No,‐,115,1
Orion Knit Textiles Ltd.,"Jamirdia, Habir bari, Valuka, Mymensingh",Mymensingh,Dhaka,,2,8836278,,,,No,No,,,3
Ornate Knit Garments Industries ltd,"Dewan Idris Road, Boro Rangamatia, Ashulia, Savar, Dhaka",Dhaka,Dhaka,1342,2,7791773,,,1/6; 2/7; 3/5;,No,Yes,"1/1‐5; 2/0,3,5,6; 3/0,2,4;",795,2
ORNOB FASHION WEAR LIMITED,"KATHORA, GACHHA, NATIONAL UNIVERSITY, JOYDEPPUR, GAZIPUR",Gazipur,Dhaka,1704,2,9293801,,3,1/1;2/1;3/1;,No,No,Not Shared,577,1
Osanian Style and Fashion Wear,"43 Chiriakhana Road, Mirpur‐1 Dhaka",Dhaka,Dhaka,1216,2,9020749,,1,1/6;,No,No,,,1
Ospinter Garments Ltd.,SFB# 1+2(1st floor) DEPZ(old zone),DHAKA,Dhaka,1349,2,7800000,,,1/2;,No,No,,404,2
Outright Fashion Ltd.,"965, Shewrapara, Rokeya Sharani, Mirpur,Dhaka Dhaka",,Dhaka,1216,2,9012996,,1,1/10;,Yes,Yes,"1/1,2,3,4,5,6;",680,2
Outwear Fashion Ltd,"965, Shewrapara Rokeya Sharani, Mirpur, Dhaka Dhaka",,Dhaka,1216,2,9012996,,1,"1/0, 1/1, 1/2, 1/3, 1/4, 1/5, 1/6, 1/7, 1/8, 1/9;",Yes,No,"1/1, 1/2, 1/3, 1/4, 1/5, 1/6, 1/7, 1/8, 1/9;",1350,1
OVEN BOTTOM,"S.A‐179, R.S‐ 1356, JAMGARA, ASHULIA, DHAKA",DHAKA,Dhaka,,,9611689362,,,,No,No,4;,1075,1
P. A Knit Composite Limited,"Hobirbari, Jamirdia,Valuka,Mymensingh",Mymensingh,Dhaka,2240,1,714029,,1,1/5;,No,No,,1250,1
P.M. Knittex ( Pvt.) Ltd.,"Chowdhuri bari, Godhnail, Narayangonj",Narayanganj,Dhaka,1400,,1711524689,,2,1/4 ; 2/4;,No,No,No,1500,2
P.N. Composite Limited,"Ambagh, Konabari",Gazipur,Dhaka,,2,9298165,,1,1/8;,No,No,All,2643,5
Pabna knit Design ltd.,"Plot#2, Road#4, Block#B, Section#02",Dhaka,Dhaka,1216,2,9001514,,,"1/6,",Yes,Yes,"1/6, 2/3, floor Pabna Knit",260,2
PACIFIC BLUE (JEANS WEAR) LTD,"Razzak Plaza, 120‐B Jaleshwar, Bazar Bus Stand, Savar",Dhaka,Dhaka,1340,2,7712373,,5,"1/8, 2/7, 3/7, 4/7,5/1;",Yes,Yes,"1/4,5,6; 2/5,6,7; 3/0,2,3,4,5,6,7; 4/2,3,4,5,6,7; 5/0;",2800,1
Pacific Enterprise,"41/13A,zikatala",Dhaka,Dhaka,1209,2,9134184,,,1/5;,Yes,Yes,"1,2,3,4;",20,1
Pacific Jeans Ltd,"Plot#14‐19, Sector‐05, CEPZ, Chittagong",Chittagong,Chittagong,4223,31,740006,,3,"1/6,2/6,3/6;",No,No,"1/6,2/6,3/6;",9500,4
Pacific Sweaters Ltd.,"231/6, BB Road. Chashara C/A, Narayanganj",Narayanganj,Dhaka,,2,7630906,,,,No,No,,,2
Paddocks Jeans Ltd.,"Plot # 59‐60, Dhaka Export Processing Zone (DEPZ), Ganakbari, Savar",Dhaka,Dhaka,1349,2,7742849,,1,1/3;,No,No,,2350,3
PADMA POLYCOTTON KNIT FABRICS LTD,"131, Tejgaon Industrial Area",DHAKA,Dhaka,1208,2,9123928,,2,1/6;2/8;,No,No,Not Shared,2500,3
PADMA SATEL ARAB FASHION LTD,"Luna Complex 6th Floor,Joybangla Road,Khailkur,Brobari, Gazipur",Gazipur,Dhaka,1704,2,9292226,,,"1/8,",No,Yes,"1/7,8;",750,1
Padma Sweaters,"1/B Darus Salam Road, Section 1Dhaka",,Dhaka,,,,,,,No,No,,,1
Padma Wears Ltd.,"Plot # 25, Sector # 1, Road #4, CEPZ, Chittagong",Chittagong,Chittagong,,2,740288,,1,4;,No,No,No,950,2
Palmal knitwear Factory Ltd.,"Hijolhati, Baroipara, Kaliakoir",Gazipur,Dhaka,1700,,1714099491,,3,1/7; 2/1; 3/1;,No,No,,2486,3
Palmal Knitwear Factory Ltd. (Unit‐2),"KABIRPUR, ASHULIA, SAVAR, DHAKA., Gazipur",Gazipur,Dhaka,1700,,1730068494,,3,"1/4, 2/6, 3/3;",No,No,N/A,1800,1
PAN PACIFIC SWEATERS LTD,"Pretty Square , South Salna, Joybedpur, Gazipur",Gazipur,Dhaka,1706,2,8911078,,1,1/6;,No,Yes,1/2;,920,1
Panache,"Gajariapara, Rajendrapur",Gazipur,Dhaka,,2,9201245,,1,1/3;,No,No,All,1492,1
Panache Knitted Creations Ltd,"Gajariapara, Rajendrapur, Gazipur Dhaka",Gazipur,Dhaka,,2,920124548,,,"Building 1 ‐ 3 Storied, Building ‐ 2 Storied",No,No,,1614,5
Panagea Fahion Wear Ltd.,"10/2 Gazi pear prathomik Biddaly Road.Baro Dewra,Tongi,Gazipur",Gazipur,Dhaka,1711,2,9816419,,,1/5;,Yes,Yes,"4,5;",655,2
Panasia Clothing Ltd,"Vogra, Joydebpur",Gazipur,Dhaka,,2,9262236,,1,1/6;,No,No,All,2383,4
Panasia Sweaters Ltd,"Aziz Chowdhury Complex 2, Vogra, Gazipur",Gazipur,Dhaka,,2,9006502,,3 2,1/7; 2/2;,No,No,‐,1815,11
PANDORA FASHION LTD,"Sign Board, K.B Bazar, Badekalemeshwar",Gazipur,Dhaka,1700,2,9291553,,2,1/7; 2/3;,No,No,,2100,2
Pandora Sweaters Ltd.,"Gilar Chala, Master bari, Shreepur",Gazipur,Dhaka,1740,,82552612,,5,1/4; 2/6; 3/1; 4/1; 5/1;,No,No,,2200,9
PANORAMA APPARELS LTD.,"Vogra (Basan Sarak), P.O‐national University, Sadar",Gazipur,Dhaka,,2,929324950,,2,1/6; 2/1;,No,No,,1550,3
PANSHI KNIT PVT.LTD.,"1/B SATAISH KHAPARA ROAD, TONGI‐GAZIPUR",Gazipur,Dhaka,1710,,1713013661,,1,1/5;,No,No,1/5; 2/5;,600,1
PANTALOON DESIGN LTD,"Plot‐M1,Road‐7,Pallabi,Mirpur,Dhaka",Dhaka,Dhaka,1216,2,8050510,,1,1/10;,Yes,Yes,1/3;,670,1
PANTALOON JEANS LTD,"Plot‐33‐37, Milk Vita Road, Section‐7, Mirpur, Dhaka",Dhaka,Dhaka,1216,2,9015853,,1,1/8;,No,No,NA,500,3
Pantaloon Textiles Ltd,"Plot‐33,37, Milkvita Road,Mirpur",Dhaka,Dhaka,1216,2,9015853,,1,1/2;,No,No,,500,1
Panwin Degine Ltd,"Baniachala (Bagher Bazar), Bhabanipur,Gazipur",Gazipur,Dhaka,1700,2,9993601,,1,"1/5,",No,No,"1/4,",2300,2
Panwin Fashion Ltd.,"78/A South Bishil,Mirpur,Dhaka",Dhaka,Dhaka,1216,2,8010383,,1,"1/9,",Yes,Yes,"1/5,",1200,1
Panwin Garments Ltd,"78/A South Bishil,Mirpur,Dhaka",Dhaka,Dhaka,1216,2,8010383,,1,"1/9,",Yes,Yes,"1/3,",600,1
Paolo Footwear (B.D.) Ltd,"Karnaphali, EPZ, North Patenga",Chittagong,Chittagong,4204,31,25038903,,2,1/2;2/1;,No,No,All,1083,2
Papella Limited,"Progressive Tower (3rd floor), 1837, Sk. Mujib Road, Batamtoli, Agrabad, Chittagong",Chittagong,Chittagong,,31,713677,,1,1/3;,No,No,No,1593,3
PAPILLON KNIT APPARELS LTD,"Adamjee Road, Azibpur , Siddharganj , Narayanganj",Narayanganj,Dhaka,1430,2,7694321,,2,1/5; 2/3;,Yes,Yes,"1/0, 2, 3, 4; 2/0;",750,1
Asia Limited),Dogori (Nayapara) Mirzapur Gazipur Sadar Gazipur,Gazipur,Dhaka,1700,2,29357527,,,,No,No,,,1
Paragon Ceramic Industries Ltd.,"Dorori (Nayapara), Mirzapur, Gazipur Sadar, Gazipur",Gazipur,Dhaka,1700,,1755621009,,8,1/1; 2/1; 3/3; 4/1; 5/1; 6/3; 7/1; 8/1;,No,No,,1400,3
Parity Fashion Ltd.,"Chowdhury Bari, Godnayle, Narayanganj",Narayanganj,Dhaka,1432,,1712304679,,,,No,No,,,1
Parkscene Bangladesh Ltd.,"Kunia KB Bazar, Gazipur Sadar",Gazipur,Dhaka,1704,2,9291361,,2,1/6; 2/4;,No,No,,1400,2
Parkview,"111, Derail, Satais, Tongi",Gazipur,Dhaka,,2,9816545,,2,1/1; 2/2;,No,No,‐,850,1
PARKVIEW DRESSES LTD,"30/2 Darail Sataish , Gazipura, Gazipur",Gazipur,Dhaka,1710,2,9816544,,2,1/2; 1/0;,No,No,NA,850,3
"PTV., Ltd.","Isdair, Fatullah, Narayangong, Fatullah Narayangong, Dhaka",Narayanganj,Dhaka,1400,2,7630641,,1,8;,No,No,no,753,4
Peak Apparels,"Vogra, Jaydevpur, Gazipur, Dhaka",Gazipur,Dhaka,1710,2,9292519,,2,1/5 ; 2/2;,No,No,"1/1,2,3,4,5 ; 2/1,2;",940,5
Pearl Prince Apparels Ltd,"Plot No.14, Block‐A, Squed Road, Cherag Ali Road, Tongi, Gazipur",Gazipur,Dhaka,1711,,1943047230,,1,1/8;,No,No,,1500,6
Peerage KnitWear Ltd.,"2/A,Darus Salam Road,Mirpur ‐ 1, Dhaka",Dhaka,Dhaka,1216,2,9008331,,,"1/4,1/6,1/7;",No,No,,480,1
Sourcing),"Ka 96/1, Progati Sarani, Kuril Badda",Dhaka,Dhaka,1229,2,8414976,,1,1/6;,Yes,Yes,3;,575,2
Peninsula Garments Ltd.,"Plot No. 46‐48, Sector No. 01, Chittagong Export Processing Zone",Chittagong,Chittagong,4223,31,741554,,1,1/5;,No,No,,3974,1
PENTAGON APPARELS LTD,"1643, MANIK MARKET, HAZI AMIR ALI CHOWDHURY RAOD, ASADGONJ, KOTOWALI, CHITTAGONG",Chittagong,Chittagong,4000,31,626258,,,,No,No,,450,1
PENTAGON FASHION WEAR LTD,"CAPITAL CO‐OPERATIVE HOUSING SOCIETY, HOUSE#1, ROAD#9, PAGAR, TONGI, GAZIPUR",Gazipur,Dhaka,1710,2,9814646,,,1/2;,No,No,,300,1
PENTAGON KNIT COM LTD,"CAPITAL CO‐OPERATIVE HOUSING SOCIETY, HOUSE#1, ROAD#9, PAGAR, TONGI, GAZIPUR,",Gazipur,Dhaka,1710,2,9814646,,2,1/3;,No,No,,900,1
PIMKIE APPARELS LTD.,"Plot # 328, Block # F, Tongi, Industral Area",Gazipur,Dhaka,,2,9815953,,3,1/3; 2/1; 3/1;,No,No,,1350,3
Pinaki,"A.G Tower ‐ Plot 9 ‐ Block C, Tongi Industrial Area, Himardighi, Tongi Gazipur, Dhaka",Gazipur,Dhaka,,2,8931996,,,7 Storied shared with 4 factories,No,No,,767,3
PINERY TEXTILE LIMITED,"1170/B, SHAH AMANAT SETU ROAD, EAST SHOLASHAR, BADDERHAT, EK KILOMKTER",Chittagong,Chittagong,4212,31,632037,,,"1/6,",Yes,Yes,"1/3,4;",450,1
Pioneer Casual Wear Ltd.,"Zamgora, Earpur Union, Savar",Dhaka,Dhaka,,,1818262609,,,,No,No,,,6
Pioneer Dresses Ltd.,"7/A, Sholashahar Light Industrial Area,, Baizid Bostami Road,, Chittagong",Chittagong,Chittagong,4210,31,683675,,104 1,1/6; 2/2;,No,Yes,"1/4, 5, 6;",934,1
Pioneer Knitwears (BD) Ltd,"Jamirdia, Habirbari, Valuka",Mymensingh,Dhaka,2240,,1678664642,,17,1/2; 2/5; 3/1; 4/1; 5/1; 6/1; 7/1; 8/1; 9/1; 10/1; 11/1; 12/1; 13/1; 14/1; 15/1; 16/1; 17/1;,No,No,,5000,6
Pioneer Knitwears (BD) Ltd. (Section‐1),"Jamirdia, Valuka, Mymensingh",Mymensingh,Dhaka,2240,,1678664642,,,1/1.2/1.3/1.4/1.5/1;,No,No,,3400,1
Pioneer Knitwears (BD) Ltd. (Section‐2),"Jamirdia, Valuka, Mymensingh",Mymensingh,Dhaka,2240,,1678664642,,,1/1.2/1.3/1.4/1.5/1;,No,No,,2752,1
Pioneer Sweaters & Knitwears Unit‐1,"Enayetnagar, Fatullah",Narayanganj,Dhaka,,,,,,,No,No,,,2
Pioneer Sweaters Ltd,"Panchabati Fatullah, Bangladesh",Narayanganj,Dhaka,1704,2,7670451,,5,1/1; 1/1; 1/1; 1/1;,No,No,N/A,5500,4
Plummy Fashion,"North Norshingpur, Kashipur, Fatulla, Narayanganj, Dhaka",Narayanganj,Dhaka,1400,,1713046173,,,1/1;,No,No,1/1;,130,1
Pole Star Fashion Design Ltd.,"Shorifpur, National University, Gazipur",Gazipur,Dhaka,1704,,1819429405,,1,1/5;,No,No,,400,1
POLKA DOTS,"Shilpa Plot M‐4/3, Main Road, Sec14, Mirpur Dhaka",Dhaka,Dhaka,1206,,1731574347,,1,8;,No,No,N/A,479,1
Polo Composite Knit Ind. LTD.,"226, Singair Road, Hemayetpur, Savar, Dhaka",Dhaka,Dhaka,,2,7741539,,40 5,1/7; 2/6; 3/1; 4/1; 5/1;,No,No,"1/0,1,2,3,4,5,6; 2/0,1,2,3,4,5; 3/0; 4/0; 5/0;",2338,6
Posh Garments Ltd,"348/A, Tejgaon Industrial Area",Dhaka,Dhaka,1208,2,8891948,,,1/6;,No,No,"1/3,4,5,6;",930,1
POSMI SWEATERS LTD.,"Dhaka Road, Chandona Chowrasta, Gazipur Sadar, Gazipur",Gazipur,Dhaka,1702,2,9262648,,3,1/1;2/1;3/1;,No,No,Not Shared,1600,4
"POWER VANTAGE WEAR & SHIRTMINE LTD KAFRUL TOWER, 234/8, KACHUKHATE,",CANTONMENT,DHAKA,Dhaka,,2,87113210,,1,1/6;,No,No,,1000,3
PRAN‐RFL Group Durable Plastics Ltd.,"RFL Plastics Ltd. Bagpara, Palash, Narshingdi",Narsingdi,Dhaka,,2,8819693,,10,"1/1, 2/1, 3/1, 4/1, 5/2, 6/3, 7/1, 8/2, 9/3, 10/1;",No,No,,1000,1
PRATIK Apparels Ltd.,"PRATIK Apparels Ltd. Plot # 4 & 5 Sector # 7 Pallabi, Mirpur, Dhaka",Dhaka,Dhaka,,,1933797590,,1,1/12;,Yes,Yes,1/7; 1/8; 1/9; 1/10;,1800,1
Premier 1888 Ltd,"SECTOR:7, PLOT: 41‐47 & 84, CHITTAGONG EXPORT PROCESSING ZONE",Chittagong,Chittagong,4223,2,740938,,2,1/4; 2/5;,No,No,N/A,1499,1
PREMIER TOWELS BD LTD,"Plot‐41‐47 & 84, Sector‐7, CEPZ, Chittagong",Chittagong,Chittagong,4223,31,740270,,4,1/4; 2/3; 3/0; 4/0;,No,No,NA,1290,1
PRESENTATION APPARELS LTD,"Plot #27, Road #4, Sector 1, CEPZ, Chittagong",Chittagong,Chittagong,4223,31,740685,,,,No,No,,,1
PRETTY COMPOSITE TEXTILES LTD,"Jamgora, Zirabo, Ashulia, Dhaka",Dhaka,Dhaka,1349,2,8911078,,2,1/0; 2/0;,No,Yes,1/0; 2/0;,332,1
PRETTY WOOL WEAR,"Jinnahnagar bazar Road, Jinnahnagar, Moheshpur",Jhenaidah,Khulna,7300,,1715028640,,8,1/3; 2/3; 3/1; 4/1; 5/1; 6/1; 7/1; 8/1;,No,No,,1000,2
Prime Sweater Ltd.,"Helal Complex,Shafipur,National University",Gazipur,Dhaka,1717,,1716080402,,1,"1/6,",No,Yes,"1/0,2,3,4;",650,2
Prince & Porag Apparels Ltd. (Unit 01),"Itahata, Chandana, Gazipur",Gazipur,Dhaka,1702,2,27913654,,,,No,No,,,1
Prince & Porag Apparels Ltd. (Unit 02),"Mulaid, Sreepur, Gazipur",Gazipur,Dhaka,1740,2,7913654,,,,No,No,,,1
Probashi Knitwear LTD,"2 No, Harunabad, Pallabi, Mirpur ‐ 12",Dhaka,Dhaka,,2,8032523,,,,No,No,,,1
LIMITED,"840/838, DHANIALAPARA (5th FLOOR), DHAKA TRUNK ROAD",Chittagong,Chittagong,4100,31,718476,,106,"1/4,",Yes,No,"1/2,3,4;",650,1
Prominent Apparels,"House #Sha 74, North Bada, Bazar, Gulshan",Dhaka,Dhaka,,2,9862440,,,,No,No,,,1
PROMO East (Asia) Limited,"ABANTI COLOR TEX LTD. CRONY (Unit 1 & 2) COMPLEX PLOT NO S.A‐646 SHANSHONGAON,, ENAYETNAGAR, FATULLAH, NARAYANGANJ",Narayanganj,Dhaka,,2,7620902,,2,1/10; 1/10;,No,No,All,6400,1
Protex GmbH,"271, DT, ROAD KADAMTALI",,,,,,,,,No,No,yes,,1
Protik Ceramics Ltd,"Dautia, Kalampur, Dhamrai, Dhaka",Dhaka,Dhaka,1340,2,8143637,,1,1/1;,No,No,,800,1
PROTTASHA DYEING & PRINTING LTD,"Plot‐A‐94/95, Bscic Industrial Estate, Konabari, Gazipur",Gazipur,Dhaka,1346,2,9297547,,1,1/6;,No,No,NA,350,1
PULLMAN KNITWEAR (PVT) LTD,"183 , SAYED ALI MENSION GAZIRCHOT ASHULIA, DHAKA",DHAKA,Dhaka,,2,8917284,,1,,No,No,,378,1
PURNA FASHION LTD.,"SHAHNUR MARKET, 96 MURADPUR, HATHAZARI ROAD, PANCHLAISH THANA",Chittagong,Chittagong,4211,31,685037,,,"1/4,",Yes,Yes,"1/1,2;",480,1
Pusan Bangladesh Ltd.,"Plot no. 98 (1st floor), Chaydana, P.O. National University, P.s. Gazipur Sadar",Gazipur,Dhaka,,2,25715,,1,1/6;,No,Yes,1/0 ‐ 1/1;,290,1
Pushpa Knitwear Ltd.,"57/2, South Harinal, School Road, Joydebpur, Gazipur",Gazipur,Dhaka,1700,2,9262320,,1,1/5;,No,No,,600,3
Q‐POINT FASHIONS LTD,"Plot‐12,Block‐Kha,Road‐1,Section‐6,Mirpur‐10",Dhaka,Dhaka,1216,2,9024242,,,"1/7,",Yes,No,"1/4,5,6,7;",950,3
Quality Apparels,"63/C‐2, Katasur Mohammadpur",Dhaka,Dhaka,,,1912058258,,,,No,No,,,3
R.K. Fashion Ltd.,"Chowdurybari, Godnyle, Narayanganj",Narayanganj,Dhaka,,2,7634565,,,,No,No,,,2
R.K. Fashion Ltd.,"Chowdhury Bari, Godnyle, Siddirgonj , Narayanganj",Narayanganj,Dhaka,1432,2,7634568,,4,1/4 ; 2/3 ; 3/2 ; 4/4;,No,Yes,"1/0,1,2,3 ; 2/0,1,2 ; 3/0 ; 4/3;",402,1
R.M.M. Knit Clothing Ltd.,"Aliganj;Fatullah, Narayanganj",Narayanganj,Dhaka,1400,2,7681326,,,Building 1/2; Shaed 1/1; Shed 2/1;,No,No,No,505,1
R.N.Sweaters Ltd,"30,Ring Road,Shamoli",Dhaka,Dhaka,,,,,,,No,No,,,1
RA International,REY TEX FASHION WEARS LTD Mallik Housing 7th Floor 13‐14 Chiriakhana Road Mirpur ‐ 1,Dhaka,Dhaka,,2,8055026,,1,1/15;,No,Yes,7th floor,5600,1
RADHAMANI INTERNATIONAL,227 A.J.C. BOSE ROAD ANANDALOK 5 TH FLOOR KOLKATABD,,,,2,913322903269,,,,No,No,,,1
Radial International,"Zirani Bazar, Kashimpur, Gazipur Sadar",Gazipur,Dhaka,,2,8054697,,6,1/6; 2/1; 3/1; 4/1; 5/1; 6/1;,No,No,,980,7
Radiance Fashion Ltd,"Ashulia, Saver",Dhaka,Dhaka,1341,2,7743194,,2,1/1;2/5;,No,Yes,"1/1;0;2/5;1,3,4;",1250,3
Radiant Sweater Ind. LTD,"Kamarjuri, National University",Gazipur,Dhaka,,,1711696289,,,,No,No,,3300,3
Radix Limited,"Surabari, Kashimpur, Gazipur",Gazipur,Dhaka,1346,2,9297491,,1,1/2;,No,No,,650,2
RAGADI TEXTILE LIMITED,"KAINJANUL,MIRZAPUR, GAZIPUR SADAR, GAZIPUR",Gazipur,Dhaka,,,,,1,0.2;,No,No,,1050,2
Rahim Textile Mills Ltd.,"A‐44, Safipur Kaliakoir, Gazipur",Gazipur,Dhaka,,,1720531776,,,,No,No,,,1
RAHIMA TEXTILES LIMITED.,"BISIC INDUSTRIAL AREA, BLOCK‐A, PLOT A/2, TEA BOARD, BAIZID",Chittagong,Chittagong,4210,31,2584409,,,"1/4,",No,No,Not Shared,319,1
Rahimaaziz Knitspin Ltd,"Enayetnagar, Bholail, Futullah",Narayanganj,Dhaka,,2,8981895,,3,1/5; 2/3; 3/1;,No,No,‐,2510,4
RAHMAN KNIT GARMENT LTD,"Hariharpara, Panchabati, Fatullah, Narayangonj",Narayanganj,Dhaka,1400,2,7670037,,6,1/4; 2/2; 3/2; 4/1;5/1; 6/1;,No,No,NO,700,1
Rahman Knitwear,"44, Nayamati, Narayangonj",Narayanganj,Dhaka,1400,2,7631956,,,,No,No,,,1
Rahmat Sweater (BD) LTD.,"Telirchala, Mouchak, Kaliakoir, Gazipur",Gazipur,Dhaka,1751,,1711547927,,,1/6;,No,No,,1400,2
RAIYAN KNIT COMPOSITE LTD,"Hortokitola, Attabah, Chandra, Kaliakoir, Gazipur, Dhaka",Gazipur,Dhaka,1750,,51830,,2,1/7; 2/2;,No,No,NA,1350,6
Ralex Industries Ltd.,"49/A, CDA's Fauzdarhat Heavy Ind. Area, Sagarika Road, Phartalli",Chittagong,Chittagong,,31,752277,,,,No,No,,,1
Industry Ltd.,"Tetuljhora, Rajfulbaria,Savar",Dhaka,Dhaka,1347,,1922527841,,4,1/3;2/2;3/3;,No,No,N/A,1400,1
RAQUEF FASHION LTD,"TATULJORA,SAVAR",Dhaka,Dhaka,1340,2,9863275,,2,1/2;2/1;,No,No,Not Shared,2000,1
Rashed Export Ltd,"SAM SWEATERS LTD, 1/11, KHORTOIL, SATAISH ROAD, TONGI, GAZIPUR",Gazipur,Dhaka,1704,2,8814083,,3,1/7; 2/5; 3/5;,Yes,Yes,"1/7 ‐2,3;",2800,1
Ratool Apparels,"Choyadana Joydebpur, Gazipur",Gazipur,Dhaka,,2,9293087,,1,1/7;,No,No,No,510,1
Ratul Fabrics Ltd,"Neyath Solim plaza, Bolovadhra Bazar, Ashulia",Dhaka,Dhaka,,2,8840351,,3,1/4;2/1;3/1;,Yes,Yes,"1/4;2,3;2/1;0;3/1; 0;",657,2
RATUL KNITWEARS LIMITED,"CS‐SA‐41, ZIRABO, Ashulia",DHAKA,Dhaka,1341,2,8412870,,1,1/5;,No,No,‐,703,2
Raza Knit (BD) Ltd.,"Horihor para, Enayet Nagar, Fatullah, Narayangonj",Narayanganj,Dhaka,1400,2,7671779,,,3;,No,No,,464,2
Reaz Export Apparels Ltd,"North Khikhair, Sign Board Board Bazer, Gazipur Gazipur",,Dhaka,,,1713729746,,2,1/5; 1/1;,No,No,‐,977,2
Redpoint Jackets Ltd.,"106‐108, DEPZ, Ganakbari, Savar",Dhaka,Dhaka,1349,2,7789877,,1,1/4;,No,No,,2420,3
REDWAN TEX,"136,‐B,UDAYNAN SCHOOL ROAD, DOKKHIN KHAN, UTTARA, DHAKA",Dhaka,Dhaka,1230,2,7913781,,,"1/5,",No,No,Not Shared,350,1
Reedisha,"Dhanua, Nayanpur",Gazipur,Dhaka,,2,8891267,,1,1/7;,No,No,All,4750,1
REEDISHA Knitex (bd) Ltd.,"36, Shahid Tajuddin Ahmed Sarani Tejgaon,Dhaka",Gazipur,Dhaka,1208,,174029790,,,,No,No,,2500,1
Reedisha Knitex Ltd,"Dhanua, Nayanpor, Sreepur",Gazipur,Dhaka,1740,,1713186816,,9,1/7; 2/5; 3/3; 4/1; 5/1; 6/1; 7/1; 8/1; 9/1;,No,No,,4700,5
Regency Garments Limited,"CEPZ, Plot # 37‐40, Sector 07",Chittagong,Chittagong,,2,8054697,,2,1/3; 2/1;,No,No,,1700,2
"Regency Garments Ltd., unit # 2Plot # 7‐9, Sector # 4, CEPZ,, CEPZ, Chittagong",,Chittagong,Chittagong,4223,31,741185,,1,1/3;,No,No,‐,812,1
REGENCY THREE LTD,"Plot # 13 ‐ 18,, Sec ‐8, CEPZ",CHITTAGONG,Chittagong,4223,31,741185,,2,1/2;2/4;,No,No,,3725,3
"Regency Three Ltd., unit # 5FS‐SFB 3, BEPZA Building, Ground floor (both","wings)., CEPZ, Chittagong",Chittagong,Chittagong,4223,,,,1,1/4;,No,No,1/1;,703,1
Regent Textiles,"East Kalurghat, Charkhidirpur, Bandar",Chittagong,Chittagong,4000,2,671170,,3,1/1; 2/2; 3/3; 4/1; 5/1; 6/1; 7/1; 8/1; 9/1;,No,No,‐,1650,3
Reliance Denim Ind Ltd,Sagarika Road A/1,Chittagong,Chittagong,4219,31,751414,,,10;,No,No,,3000,1
RENAISSANCE APPARELS LTD,"Renaissance Apparels Ltd. C‐S Plot # 659 & 660, Mouza 93, Gazipur",Gazipur,Dhaka,1346,2,9891984,,133 2,"1/1, 2/1;",No,No,,1250,2
Rex Composite Knit Wears Ltd.,"28 Milkvita Road (1st Floor), Section 7",,,,,1913926995,,,,No,No,,,1
Reytex Fashion Wears Ltd.,"Mollik Housing 7th floor, 13‐14 Chiriakhana Road, Mirpur‐01, Dhaka",Dhaka,Dhaka,1216,2,8055026,,1,1/15;,Yes,Yes,1/7;,650,3
Reza Fashion Ltd,"Gorat, Baghbari,Ashulia,Savar",Dhaka,Dhaka,1341,,1720800800,,1,6;,Yes,Yes,N/A,1800,4
REZAUL & BROTHERS,"66 Zoo Road, Section‐2,Mirpur, Dhaka",Dhaka,Dhaka,,2,8050662,,,"1/10,",No,No,Not Shared,4000,1
RGR Sweater Ltd.,"Madhakhala. Shreepur, Gazipur",Gazipur,Dhaka,,0,682552692,,2,1/0; 2/0;,No,No,,1300,3
Rio Fashion Wear Ltd,"Industrial plot no. 3, Milk Vita Road,Section‐ 7,Mirpur",DHAKA,Dhaka,1216,2,8061898,,1,"1/11,",No,Yes,"1/5,6,7,8,9,10,11, 12;",1200,2
Ripon Knitwear Ltd,"Jarun, Konabari, Gazipur",Gazipur,Dhaka,,2,7671459,,5,1/5; 2/2; 3/1; 4/1; 5/1;,No,No,‐,780,3
Rising Fashions Ltd.,"Plot I/16, Block K, Rupnagar I/A",Dhaka,Dhaka,1216,2,9016738,,1,1/9;,No,No,,493,1
River Side Sweater Ltd,"Hasnabad Super Market, Keranigonj, Dhaka",Dhaka,Dhaka,1311,2,7450321,,1,1/4;,Yes,No,1/2;,1000,1
Riviera Resources Ltd.,"385/1/A, East Rampura, Banasree Road, Dhaka",Dhaka,Dhaka,1219,2,7286074,,2,"1/7, 2/7;",Yes,No,"Building no‐1, Building no‐2 (2nd‐ 5th floor)",1000,1
RL Denim Limited,"RL Denim Ltd. Plot No.:A/1 & 2 (3rd Floor) Block‐ B, BSCIC Industrial Area, Fouzdarhat Sagarika Road, Fouzdarhat Sagarika Road, Chittagong",Chittagong,Chittagong,,,1755545545,,1,1/4;,Yes,Yes,1/3;,2200,1
Robintex (Bangladesh) Ltd.,"Vulta, Rupgonj",Narayanganj,Dhaka,1460,2,9138162,,2,1/3; 2/9;,No,No,,1700,1
Garments Ltd,"Vulta, Rupgonj",Narayanganj,Dhaka,1464,,1819815692,,5,1/3; 2/8; 3/5; 4/5; 5/3;,No,No,,5500,1
Romo Fashion Today Ltd.,"Vannera Road , Mouchack, Kaliakoir, Gazipur",Gazipur,Dhaka,1751,,1845971199,,2,1/1 ; 2/1;,No,No,1/0 ; 2/0;,480,3
RONGDHONU SWEATER LTD,"KHAILKUR, BAT TALA ROAD, BOARD BAZAR, GAZRPUR",GAZIPUR,Dhaka,,2,929383031,,3,1/3;,No,No,,550,1
Rony Fashion and Knitwear Ltd.,"Dewanpara, Kashipur, Fatullah, Narayanganj",Narayanganj,Dhaka,,2,7634227,,,,No,No,,,1
RONY KNIT WEAR (PVT.) LTD.,"Dewanpara, Kashipur, fatullah, narayangonj",Narayanganj,Dhaka,1400,2,7633137,,,1/2;,No,No,"1/1,2;",89,1
Rose Garden Apparels Ltd.,"Nayamati Road, Kutubpur, Fatullah, Narayanganj Narayanganj",,Dhaka,1421,2,7643293,,1,1/6;,No,No,,245,1
Rose Sweaters Ltd (Unit‐2),"Vogra, By‐pass Bishaw Road, Joydebpur, Gazipur Gazipur",,Dhaka,,2,8415816,,2,1/8; 2/2;,No,No,,2435,11
Roshawa Fabrics Ltd.,91473 SFT,Narayanganj,Dhaka,1420,2,9820356,,2,1;,No,No,,650,1
Rowa Knitwear,"Mariam Complex, Chowdhury Bari, Vogra, Gazipur",Gazipur,Dhaka,1704,2,9262358,,1,1/7;1/7;,No,No,No,1100,4
Rowa woven factory,"Konabari, Gazipur, Dhaka",Gazipur,Dhaka,1710,,1714091719,,,1/6;,No,No,"1/1,2,3;",850,1
Rudmila Knitwear Ltd.,"Kabirpur, Ashulia, Savar, Dhaka",Dhaka,Dhaka,,2,9890158,,3,1/4; 2/1; 3/1;,No,No,no,628,1
Rumana Fashion Ltd.,"Chaydana, P.O. National University",Gazipur,Dhaka,,2,8812178,,6,1/5; 2/6; 3/7; 4/8; 5/4; 6/1;,No,No,,4350,2
Running fashions ltd,"C‐124/125,TONGI BSCIC INDUSTRIAL ESTATE,TONGI",Gazipur,Dhaka,1710,2,981692,,3 2,1/5; 1/1;,No,No,,1000,2
Rupa Knitwear,"Kunia, Board Bazar Gazipur",Gazipur,Dhaka,1704,,,,,NA,No,No,NA,,2
Rupa wool wear ltd,"board bazar,National University",Gazipur,Dhaka,1712,2,9345841,,,"1/5,",No,No,,1000,1
RUPASHI FABRICS COMPLEX ( PVT ) LTD.,"Lamapara, Kutubpur, Fatullah",Narayanganj,Dhaka,1400,2,7647175,,525 3,1/4 ;2/6;3/6;,No,No,Not Shared,4000,1
Rupashi Knit Wears Ltd.,"Lamapara, Kutubpur, Sastapur, Fatullah, Narayangonj",Narayanganj,Dhaka,1420,2,7640420,,1,1/4;,No,No,,1950,1
Russel Apparels & Ekram Sweater Ltd,"Kathali, Bhaluka",Mymensingh,Dhaka,,,1684898337,,1,1/6;,No,No,,3450,1
RUSSEL GARMENTS,"Osman Tower, 56/1, S.M. Maleh Road, Narayanganj",Narayanganj,Dhaka,,2,7125701,,1,1/10;,Yes,No,"1/0,1,2,3,4,5,6,7,8 ,9,",2150,4
"RUSSEL GARMENTS UNIT‐2East Delpara, Kutubpur, Fatulla",,Narayanganj,Dhaka,,,1817044597,,4,1/6; 2/3; 3/1; 4/1;,No,No,,1250,2
S & N Camabi,"Shagore Garments Ltd. Amir Complex (8th Floor) Plot‐43, Sec‐3, Uttara C/A Dhaka",Dhaka,Dhaka,,2,8919642,,1,1/10;,Yes,No,4th to 9th floor,2100,1
S B Style Composite Ltd.,"Delpara, Fatullah, Narayanganj",Narayanganj,Dhaka,1400,,1833104410,,1,7;,No,No,,490,1
S M KNITWEARS LTD,"Shirirchala, Bhabanipur, Joydevpur",Gazipur,Dhaka,1212,2,8812568,,6,1/7;2/7;3/6;4/1;5/3;6/3;,No,Yes,"1/7;0,1,2,3,4,5,6;2 /7;0,3,4,5,6;3/6;2, 3,4;",4200,8
S. F. APPARELS LTD.,"2nd & 3rd floor, Nayabari, Kanchpur, Sonargaon Narayanganj",,Dhaka,1430,2,7648114,,,1/2;,No,No,,750,1
S. F. DENIM APPARELS LTD.,"430‐431/B, Tejgaon I/A",Dhaka,Dhaka,,2,8891802,,2,"1/10, 2/1",No,No,,1850,4
S. F. FASHION WEARS LTD.,"NAYABARI, KANCHPUR,SONARGAON",Narayanganj,Dhaka,1430,2,7648114,,,1/2;,No,No,,1250,2
S. Suhi Industrial Park Ltd.,"Zamgora, Savar",Dhaka,Dhaka,1340,2,8911078,,6,1/3; 2/1; 3/1; 4/1; 5/1; 6/1;,No,No,,1800,2
S.B. Duying,"Dhaka Narayanganj Link Road Delpara, Fattullah, Narayanganj",Narayanganj,Dhaka,1400,,183310440,,2,1/2;,No,No,"1/1,2;",100,1
S.I.KNITTING LTD,"26/1,SATAISH Rd.Gazipura Ind A",Gazipur,Dhaka,,2,9817539,,,NA,No,No,NA,,1
S.K. Sweaters Ltd.,"Beradierchala, Sreepur, Gazipur",Gazipur,Dhaka,1740,,1711429563,,1,1/5;,No,No,,1400,1
S.M.I Production,"Plot #4&6 (5th floor), Road #2, Section #7, Mirpur, Dhaka",Dhaka,Dhaka,1216,2,8061095,,,1/6;,No,No,"1/1,2,3,4,5,6;",250,1
S.P.M. Designs Ltd,"Plot #23/1 Shataish Road, Gazipura, Tongi",Gazipur,Dhaka,,,,,,,No,No,,,1
S.Six Fashions Pvt Ltd,"River View Complex. 55/1, S.M.Maleh Road, Narayanganj",Narayanganj,Dhaka,,2,7646610,,,,No,No,,,1
SAAD MUSA FABRICS LTD (UNIT‐2),"Khaja Road, Kulgaon, Jalalabad, Chittagong",Chittagong,Chittagong,4114,31,683951,,2,1/5; 2/0;,No,Yes,"1/0, 2, 4; 2/0;",700,3
Saad Saan App.Ltd,"Jamirdia, Valuka, Mymensingh",Mymensingh,Dhaka,,2,9802645,,1,7;,No,No,"1/0,1,2,3,4,5,6;",2800,6
SAADATIA  SWEATERS LTD.,"SAMIR PLAZA , DEPZ ASHULTA TANGI ROAD,JAMPORA,SOVOR   DHAKA",Dhaka,Dhaka,,,,,,,No,No,,,1
Saasco Tex Bd Ltd,"Milk Vita Road, Section 6, Mirpur",Dhaka,Dhaka,1216,2,8819487,,,,No,No,,,1
Saascotex (Bd) Ltd.,"Plot no‐27,Holding no‐1/A,Milkvita Road,Section no‐7,Pallabi,Mirpur Dhaka",Dhaka,Dhaka,,2,8001394,,145 1,5;,No,Yes,,400,3
SABARANG FASHIONS LTD,"PLOT I/16, BLOCK K, RUPNAGAR I/A, POLLOBI, MIRPUR 2",Dhaka,Dhaka,1216,2,9016738,,1,1/7;,No,Yes,"1/7;3,4,5,6;",920,2
Sacred Fashions Ltd.,"Deen Mohammed Super Market, Board Bazar, Gazipur",Gazipur,Dhaka,,,,,,,No,No,,,1
Sadaf Fashions Limited,"768, Askarabad, D.T. Road, North Agrabad, Chittagong",Chittagong,Chittagong,,2,721161,,1,1/5;,No,No,"1/0,1,2,3,4;",550,1
Sadat Composite Knit Ind. Ltd.,"Sinabaha, Shafipur, Gazipur",Gazipur,Dhaka,1230,2,8953169,,,,No,No,,850,1
Sadma Fashion Wear Ltd.,"Mouchak, Kaliakoir, Gazipur",Gazipur,Dhaka,1751,86,9298027,,8 3,1/6;1/1;2/1;,No,No,No,3200,6
Safia Apparels Limited,"B46/47, BSCIC Hoshiari Industrial Area, Shashangaon, Fatullah",Narayanganj,Dhaka,1420,2,8410412,,1,1/5;,No,No,‐,401,1
SAIHAM KNIT COMPOSITE LTD.,"Saiham Nagar, Noyapara, Madhabpur, Hobigonj Hobiganj",,Sylhet,3333,,1750039655,,9,1/1; 2/1; 3/1; 4/1; 5/1; 6/2; 7/1; 8/1; 9/1;,No,No,,1400,3
Sakura Dyeiing + Garments LTD,"Kutubail, Fatullah",Narayanganj,Dhaka,,2,970755,,,,No,No,,,1
SALIM & BROTHERS LIMITED.,"A/3, BSCIC INDUSTRIAL AREA, SAGARIKA ROAD",Chittagong,Chittagong,,31,751414,,3,1/10;2/11;3/3;,No,No,Not Shared,7500,2
SALIM & BROTHERS LTD (UNIT‐2),"C 8‐10 BSCIC INDUSTRIAL Area,, Sagarika road",Chittagong,Chittagong,,,,,,,No,No,,,1
Salman Adnan (Pvt) Ltd,"35‐B/I, INDIRA ROAD, DHAKA",Dhaka,Dhaka,1215,2,8114038,,1,1/5;,No,No,,466,1
Sam sweaters ltd.,"1/11, khortail, sataish roda, tongi, gazipur",Gazipur,Dhaka,,,1713017029,,1,1/9;,Yes,Yes,"1/0,1;",750,1
Samad Sweater ltd,"Samad Sweater ltd. Kalmeshwar (Battala Road) Board Bazar, Gaziper",GAZIPUR,Dhaka,1704,2,9292956,,4,"1/5, 2/4, 3/1, 4/1;",No,No,,1000,2
SAMOTAF APPARELS LIMITED,"PLOT# 87 & 88, BSCIC INDUSTRIAL ESTATE, KALUR GHAT",Chittagong,Chittagong,4203,31,672106,,,"1/5,",No,No,Not Shared,350,1
Samrat,"10, New Boat Khal, B. B. Road, Narayangangj",Narayanganj,Dhaka,1702,2,7633387,,1,7;,No,No,no,593,2
Sams Attire Ltd,"Bhuiyan Tower, Plot No. 10, Ashulia Jamgora, Saver, Dhaka",Dhaka,Dhaka,4212,2,7790555,,1,"1/6,",Yes,Yes,"1/6,",2150,6
SAMS FASHION LTD,"KEOWA PASHIM KHANDA(KOROITOLA), MAWNA, SREEPUR, GAZIPUR",Gazipur,Dhaka,1740,2,8144063,,2,"1/1, 2/2;",No,No,,65,2
Sark Knitwear Ltd.,"37‐38 Green Road, Dhanmondi, Dhaka",Dhaka,Dhaka,1205,2,8619550,,1,1/6;,Yes,No,1/6‐5/6;,645,3
SATURN TEXTILES LTD.,"13/1, Abdus Sattar Master Road",Gazipur,Dhaka,1712,2,9815861,,1,1/8;,No,No,‐,2088,6
Saturn Textiles Ltd.(Woven Division),"2/6, Darul Ahsan Road, Ausepara, Tongi, Gazipur Gazipur",,Dhaka,1712,2,9815861,,1,1/9;,No,No,,1200,1
SAVANNAH FASHIONS LTD,"1170/B1 SHAH AMANAT SHETU ROAD. EAST SHOLASHAHER, BAHADDERHAT",Chittagong,Chittagong,,31,2854681,,,"1/6,",No,No,Not Shared,700,1
Savar Shirts Ltd.,"89, Berulia Road, Savar, Dhaka",Dhaka,Dhaka,1340,2,7745624,,1,1/8;,No,Yes,1/5;,700,1
SAVAR SWEATERS LTD,"12P ‐ 13P,, Kalurghat Heavy 1/A",Chittagong,Chittagong,,,,,,,No,No,,,1
"Saville Row Limited.,","Deowaliabari, Konabari, Gazipur",Gazipur,Dhaka,,2,9298791,,1,1/6;,No,No,No,500,1
Sayam Knit Fab,"A/88, BSCIC 1/A, Shasongaon, Fatullah, Narayanganj",Narayanganj,Dhaka,1400,,1713008644,,,1/4;,No,Yes,"1/1,2,3,4;",396,1
Ltd.,"Delpara,Fatullah,Narayanganj",Narayanganj,Dhaka,1400,2,7681230,,1,8;,No,No,no,490,1
Scandex (Bd) Ltd,"87, Beron, Jamgora, Ashulia, Dhaka",Dhaka,Dhaka,1349,2,8861028,,1,1/7;,No,Yes,1/3;,500,2
Scandex Knitwear Limited (Unit 1),"87, Beron, Jamgora, Ashulia, Savar",Dhaka,Dhaka,1349,2,7790439,,3,1/7; 2/5; 3/5;,No,Yes,,856,3
Scandex Knitwear Limited (Unit 2),"Plot No. 42‐51, Adamjee EPZ, Siddirgonj, Narayangonj",Narayanganj,Dhaka,1431,2,7692194,,,1/1;,No,No,,706,2
International Trading),"87 Beron Jamgora, Ashulia, Savar, Dhaka",Dhaka,Dhaka,,,1833630425,,1,1/6;,No,No,All,540,1
Scarlet Knitwears Ltd.,"Plot # A‐169‐170, Bscic Industrial Estate, Fatullah, Narayanganj",Narayanganj,Dhaka,1420,2,560569,,3,1/8;,No,No,NO,600,3
Sea Tex Ltd.,"Sector 6, Plot 8 & 9, CEPZ",Chittagong,Chittagong,4223,,740116,,6,1/4; 2/4; 3/4; 4/6; 5/1; 6/1;,No,No,,3000,4
Seacotex Fabrics Ltd,"Sanarpar, Siddirganj, Narayangong",Narayanganj,Dhaka,1430,,1819296843,,5,1/1;1/1;1/1;1/5;1/2;,No,No,no,950,2
Seasons Dresses Ltd.,"I/B Sataish Khapara Road, Tongi",Gazipur,Dhaka,,2,9897807,,,,No,No,,,5
SECTION SEVEN APPARELS LIMITED,"PLOT# 1‐2, SECTOR# 6/1, ROAD# 01, SOUTH HSLISHAR, CEPZ.",Chittagong,Chittagong,4223,31,740275,,2,1/6;2/5;,No,No,Not Shared,5615,3
Singapore Pte. Ltd),"Plot # 1 & 2 Sector # 6/A, Chittagong Export Processing Zone,, Chittagong",Chittagong,Chittagong,,,1713148116,,1,1/6;,No,No,All,4500,1
Section Seven Limited,"Plot : 21‐24 (part), Sector‐3, Road ‐ 4, South Halishahar, CEPZ, Chittagong",Chittagong,Chittagong,4223,31,801242,,1,"1/4,",No,No,"1/4,",4100,4
Seha design ltd,"Plot‐ 4, avenue ‐ 1, block ‐D , kalshi rode dection 11 pallabi , mirpur,dhaka",Dhaka,Dhaka,1216,2,9016265,,,.1/8;,Yes,Yes,7;,430,1
SEIDENSTICKER Int'l,"YOUNG INTERNATIONAL GARMENTS (BD) LTD. PLOT # 30‐36, SECTOR # 5, CEPZ, SOUTH HALISHAHAR",Chittagong,Chittagong,,2,741013,,1,1/4;,No,No,All,3300,1
Self Innovative Fashion Ltd.,"Plot # 103, Degerchala, National University, Gazipur, Dhaka",Gazipur,Dhaka,1230,,1937410410,,,,No,No,,720,1
Selina Apparels Ltd,"Selina Tower, Holan Road, Islam Bag, Dhaka",Dhaka,Dhaka,1230,2,8962683,,4,1/10; 2/8; 3/6; 4/1;,No,Yes,1/0‐9; 2/0; 3/0; 4/0;,1125,4
SENSIBLE KNIT WEAR,"North Masdair, Malancha Nagar, Fatullah, Narayanganj",Narayanganj,Dhaka,1400,2,8415126,,1,,No,No,,395,2
Seo Wan Bangladesh Ltd.,"Plot No. 12, Street 2, Section 1, Block‐E, Mirpur",Dhaka,Dhaka,,2,8016500,,,,No,No,,,2
"Seowan Bangladesh Ltd. Unit‐2Islam Plaza, 5,6 &7th Floor, Road# 3, Block # 7,","Section‐7, Mirpur‐11",Dhaka,Dhaka,1216,2,8016500,,,1/9;,No,No,"1/5,6,7;",209,1
Sepal Garments Ltd,"247/248 (W), Telegon 1/A",Dhaka,Dhaka,1208,2,7452133,,2,1/13; 2/1;,No,No,‐,1172,3
Sepal Washing Plant Ltd.,"247/248 , West Tejgaon I/A",Dhaka,Dhaka,1208,2,986246,,1,1/12;,No,No,,110,1
SERAJSONS,"S&S Industrial Building, Bahadur Shah Colony, Bandartila, South Halishahar, Chittagong",Chittagong,Chittagong,,31,252544,,5 1,1/7;,No,No,,370,1
Setara Knitwear Ltd.,"Chandura, Pollibiduth, Kaliakoir, Gazipur",Gazipur,Dhaka,1704,2,7741427,,1,1/6;,No,No,No,475,1
SF Sweaters Ltd.,"P.O. Salna Bazar, Gazipur, South Salina (Opposite of ABC Complex)",Gazipur,Dhaka,,2,9205726,,,,No,No,,,2
Shabab Fabrics Ltd,"Bashil Hazirbazar , Bhaluka , Mymensingh",Mymensingh,Dhaka,,91,682555009,,5,"1/1; 2/1; 3/1, 4/1; 5/4;",No,No,,781,3
SHADE FASHIONS,"Berun (Jamgora),, Ashulia Madrasa,, Ashulia",Dhaka,Dhaka,,,,,,,No,No,,,1
Shadhin Garments Ltd,"Polli Biddut Road, Jarun, Konabari, Gazipur",Gazipur,Dhaka,1346,2,9297301,,5,1/1; 2/1; 3/2; 4/6; 5/3;,No,No,,1700,1
SHAFI PROCESSING INDUSTRIES LTD.,"Mouza‐Chandana, Joydebpur, Gazipur, Dhaka",Gazipur,Dhaka,1700,2,9252518,,2,1/3; 2/8;,No,Yes,"1/0, 1, 2; 2/0, 1, 3, 7;",575,5
Shagore Garments Ltd,"Amir Complex, Plot #43, Sector #3, Uttara, Dhaka Dhaka",,Dhaka,1230,86,8919874,,1,1/10;,Yes,Yes,1/4;,1350,2
SHAH Makhdum Garments limited.,"72/B, Malibagh Chowdhury Para, Dhaka",Dhaka,Dhaka,1219,2,9356389,,1,1/6;,No,Yes,"1/1,2,5;",275,1
Shahaba Knitwear Ltd.,"Plot #B‐390‐393, 1st Floor, Bscic I/A, Fatullah",Narayanganj,Dhaka,1400,,1683399743,,,,No,No,,,1
Shahrin Fashion Wear Limited,"Zamiruddin Khan Road, Utt",Gazipur,Dhaka,1704,2,8836321,,1,1/3;,No,No,,900,1
SHAHRIN FASHION WEAR LIMITED,"411‐2,NORTH KHAILKUR, JAMIR UDDIN KHAN ROAD, NATIONAL UNIVERSITY, JODEVPUR, JAMIR UDDIN KHAN ROAD",GAZIPUR,Dhaka,1704,2,9293781,,,1/2;,No,No,,800,1
Shamrin Tex Ltd,"Bismail road,Zerabo Savar, Dhaka",Dhaka,Dhaka,,,1711531207,,2,1/6;2/1;,No,No,,1148,2
SHAMS STYLING WEARS LTD,"Shams Tower, South Shyampur,, Baghbari, Hemayetpur, Savar",Dhaka,Dhaka,1340,2,9888872,,,1/9;,No,No,,3903,1
"Shanta Denims Limited (Plot#156 And 177) Plot#156 And 177, Depz, Ganakbari, Savar",,Dhaka,Dhaka,1349,2,7790416,,1,1/6;,No,No,,3173,1
223),"Plot#198‐201/220‐223, DEPZ, Ganakbari, Savar, Dhaka",Dhaka,Dhaka,1704,2,778957,,102 2,1/2; 1/1;,No,No,N/A,3500,2
Shanta Expression Limited,"Kakil, Shataish, Mudafa, Vhadam Road, Tongi",Gazipur,Dhaka,1712,,1678005610,,1,7;,No,No,N/A,975,4
Shanta Garments Ltd.,"Shanta Garments Ltd. 31, Gulshan Avenue, Circle‐ 01, Dhaka",Dhaka,Dhaka,1212,2,9894828,,1,1/9;,No,No,,1222,1
Sharmin Apparels Ltd,"East Narashinghapur, Zirabo, Ashulia, Savar",Dhaka,Dhaka,,2,7788467,,7,1/5; 2/2; 3/1;4/1; 5/1;,No,No,,3000,1
Sharmin Fashions Limited.,"Narashinghapur,Po‐ Zirabo, Ashulia",Dhaka,Dhaka,1341,2,7788467,,1,1/5;,No,No,,2523,3
Sharoms Samsons Winter Wear,"Samsons Complex, 728‐729, Sastapur, Fatullah",Narayanganj,Dhaka,,,,,,,No,No,,,1
Shasha Garments,"Hashem Plaza, 4th floor, Ganakbari",Dhaka,Dhaka,,,,,,,No,No,,,1
Shezads Designwear Ltd,"Telechala, Mouchak, Kallakoir",Gazipur,Dhaka,,,1721640251,,6,1/4; 2/1; 3/1; 4/1; 5/1; 6/1;,No,No,‐,938,5
SHIN SHIN APPARELS LTD.,"Dag # RS 228, JL # 73, Gorat, East Norshinghapur, Zirabo, Savar",Dhaka,Dhaka,,2,7788373,,3,1/2; 1/1;1/1;,No,No,,1000,8
Shine Fashion Co. (Pvt) Ltd.,"Plot No. 269‐276, Extension Area, DEPZ.Ganakbari, Savar, Dhaka",Dhaka,Dhaka,,2,7788270,,,,No,No,,,5
SHINEST APPARELS,"AZIM TOWER, 217/1, BERIBADH, MOHAMMADHPUR",DHAKA,Dhaka,,2,9132358,,2,1/9; 2/7;,No,No,,4600,5
Shirt Makers Limitede,"Kaptai Raster Matha, Kalughat Industrial Area",Chittagong,Chittagong,,31,670549,,3,1/1; 2/1; 3/1;,No,No,,670,5
SHIRTS MINE LTD,"Kafrul Tower, 234/8 Kachukhet Road, Kafrul, Dhaka",Dhaka,Dhaka,1206,2,9814200,,1,1/7;,No,Yes,"1/0, 4, 5, 6;",1200,3
SHISHIR KNITTING & DYEING LTD,"196, KABI JASHIM UDDIN ROAD, PAGAR,, TONGI (NEAR JHINUK MARKET), GAZIPUR",Gazipur,Dhaka,1710,2,9632323,,3,"1/6. 2/4, 3/ Shed",No,No,N/A,560,2
Shomahar Sweaters Ltd,"A‐99/1, Bokterpur, Kaliakoir, Gazipur",Gazipur,Dhaka,1750,2,682251265,,4,1/3; 1/1; 1/1; 1/1;,No,No,,950,3
Shore to Shore Textiles,"Plot No. 4‐233, Adamjee EPZ, Shiddirgonj",Narayanganj,Dhaka,,,,,,,No,No,,,3
SHOVON KNITWEAR LTD,"WEST MASDAIR, FATULLAH,, NARAYANGONJ",Narayanganj,Dhaka,1400,2,9355643,,1,"1/5,",No,No,N/A,350,2
Shristy Fashion,"Hariharpara (Gafur SuperComplex), Enayat Nagar, Fatullah,Narayanganj",Narayanganj,Dhaka,1400,2,7670324,,1,1/5;,Yes,Yes,1/1;,200,1
Shyms Fashion Ltd.,"83, Nasirabad I/A, Baizid Bostami Road",Chittagong,Chittagong,4209,31,6813845,,1,1/5;,No,Yes,"1/2,3,4;",800,1
SI KNITTING LTD.,"PLOT‐26/1,SATAISH ROAD,TONGI‐GAZIPUR",Gazipur,Dhaka,1710,,,,1,1/6;,No,Yes,5/6; 6/6;,400,1
"Siam's Superior Ltd unit‐2Sector ‐1, Plot No. 6,7,8 CEPZ",,Chittagong,Chittagong,,2,5722514,,3,1/2; 1/1; 1/1;,No,No,,650,2
SIAM'S SUPERIOR LTD.,"SECTOR‐1, PLOT # 5, EXPORT PROCESSING ZONE CHITTAGONG",,Chittagong,,2,5722514,,3,1/4; 1/1; 1/1;,No,No,,2700,1
Sidko Limited,"Plot # 36, Road # 46, Gulshan North C/A, Dhaka",Dhaka,Dhaka,1212,2,9884649,,1,1/6;,No,No,No,245,2
"SIENKEE APPARELS LTD (Bariali,Chandona)","Bariali,Chandona Chowrasta,Joydebpur",GAZIPUR,Dhaka,1704,,1913200618,,,"1/3,",No,No,Not Shared,480,1
Complex),"Dr. Abdur Rashid Complex, Dr. M. A. Rashid Road, South Auchpara, Nishat Nagar",Gazipur,Dhaka,,,,,1,1/4;,No,No,‐,1082,3
EPZ),"Plot#16/18, Dakhin Panishail, EPZ ‐ Kaliakair Road, , Kasimpur, Gazipur, P.O.1349 BKSP",Gazipur,Dhaka,1349,,1711531894,,1,"1/0, 1/1, 1/2, 1/3;",No,No,,,1
Sigma Fashion Ltd.,"Dhonaid , Tajpur Road Rs‐61;Yearpur",Dhaka,Dhaka,1341,,1714400000,,,1/3;,No,No,,822,1
SIGMA FASHIONS LTD.,"HOUSE # 24, ROAD # 18, SECTOR # 3, UTTARA, DHAKA",Dhaka,Dhaka,1230,,,,,,No,No,,,3
SIKDER APPAREL HOSIERY Ltd,"Khadun (dug n°342/343) tarabo, rupgonj, narayangonj",Narayanganj,Dhaka,,,,,3,1/5; 2/3; 3/2;,No,No,‐,1234,1
Silken Sewing Ltd,"Baniarchala (Member Bari), Vobanipur Joydebpur, Gazipur",Gazipur,Dhaka,,,1755542868,,6,1/2; 2/3; 3/4; 4/1; 5/1; 6/1;,No,No,‐,683,3
Simba Fashions Limited,"SSFB‐03, Adamjee EPZ, Siddirgonj",Narayanganj,Dhaka,,2,8412127,,1,1/1;,No,No,‐,1250,2
SIMCO FASHIONS LTD,"43 Chalabon, Azampur, Uttara, Dhaka",Dhaka,Dhaka,1230,2,8921604,,,"1/10,",No,No,Not Shared,485,1
"Sincere Knit Garments Ltd Unit‐1East Isdair, Chandmari, Fatullah, Narayanganj",,Narayanganj,Dhaka,,2,7641144,,1,,No,No,,180,1
Sincere Knit Wears Ltd,"41, B.Dash Road,Narayangonj",Narayanganj,Dhaka,,2,7634523,,1,,No,No,,180,1
SINHA DENIM WEAR LTD.,"KANCHPUR,SONARGAON",NARAYANGANJ Dhaka,,1440,,1721077605,,3,1/12; 2/7; 3/10;,No,No,"1/7,8,9,10,11,12; 2/1,2; 3/1;",5500,1
Sinha Fabrics Ltd.,"Kuril, Joarshahara, 96/1/D",Dhaka,Dhaka,1229,2,8849483,,,8;,No,No,,720,1
Sinha Knit Industries Limited,"Chamurkhan, P.O‐Uttarkhan, P.S‐ Uttara",Dhaka,Dhaka,1230,2,8962541,,1,1/5;,No,No,,1150,2
Sinha Knitting Ltd.,"Kanchpur, Sonargaon, Narayangonj",Narayanganj,Dhaka,1411,,1671179744,,1,1/5;,No,No,,1650,2
SIR DENIM LTD,"202 Afnan Plaza, 3rd Floor Mollarteck, Dakkhin Khan Dhaka",Dhaka,Dhaka,1230,,,,,,No,No,‐,220,1
Sirajgonj Fashions Limited,"101/1/A Barabagh, Mirpur‐2",Dhaka,Dhaka,,2,9010817,,,,No,No,,,1
SKYLINE CASUAL APPARELS LTD.,"Palashbari, Ashulia, Savar, Dhaka",Dhaka,Dhaka,1349,2,7791659,,2,1/7;2/3;,No,No,Not Shared,2500,2
SM Knit Wear,"A/107,BSCIC I/E",NARAYANGANJ Dhaka,,,,1916454047,,,,No,No,,,1
SM Knits,"Shirirchala, Bhabanipur",Gazipur,Dhaka,,,1617143565,,3,1/6;2/7;,No,No,All,6493,1
Smart Jacket LTd /Sheehan Textiles Ltd,"Plot #11‐12, Sector #1 , C.E.P.Z. Chittagong",Chittagong,Chittagong,4220,,1755545560,,1,1/6;,No,No,,3400,1
Smart Jackets (BD) Ltd,"Plot # 13, Sector # 1/A, Road # 5, CEPZ, Chittagong",Chittagong,Chittagong,4233,31,800101,,1,1/6;,No,Yes,1/4;,1608,6
Smart Jeans,"9/10, FIDC Road, kalurghat heavy industrial eastate, Kalurghat, Chittagong",Chittagong,Chittagong,,31,2570701,,2 1,1/5;,No,No,,2100,3
Smart Knitwear Ltd.,"House # 105, Road # 5, Block # A, Section # 12, Pallabi, Mirpur, Dhaka",Dhaka,Dhaka,1216,,,,,,No,No,,,1
Smee Apparels Ltd.,"Plot 19, Road 04, Sec‐07",,,,2,9013824,,,,No,No,,,1
Smh New Generation Apparels Ltd,"92,Dune Tower,Kodda Bazar,Joydebpur",Gazipur,Dhaka,1700,0,889257553,,1,1/6;,No,No,,1103,5
Smug Sweater Ltd,"Talepara, Chandona, Chowrasta, Joydevpur. Gazipur",Gazipur,Dhaka,1702,2,9264079,,1,1/7;,No,No,,1536,3
Snow White Composite Ltd.,"Akran Birula Savar, Dhaka",Dhaka,Dhaka,1216,2,8621579,,,,No,No,,,1
Snowtex Apparels Ltd.,"Plot 09, Road 03, Sec ‐ 07, Mirpur, Dhaka",Dhaka,Dhaka,1216,2,8032690,,1,1/9;,No,No,"1/0,1,2,3,4,5,6,7,8 ;",691,1
"SOFTEX COTTON UNIT 1Hazi Kuzrat Ali Mollah Super Market, 1N,","Harunabad Pallabi, Mirpur12, Dhaka",Dhaka,Dhaka,1216,2,909802,,1,1/8;,Yes,Yes,"1/1, 3, 4, 7;",1700,1
"SOFTEX COTTON UNIT 2Hazi Kuzrat Ali Mollah Super Market, 1N,","Harunabad Pallabi, Mirpur12, Dhaka",Dhaka,Dhaka,1216,2,909802,,1,1/8;,Yes,Yes,"1/5, 6, 7;",1700,1
Softex Sweaters,"Dhaka EPZ (Extension Area), Ganakbari,",Dhaka,Dhaka,1349,2,8814816,,1,1/3;,No,No,All,1491,2
Sonali Aansh Industries Limited,"Shahidnagar, Daudkandi, Comilla",Comilla,Chittagong,3518,,1720694219,,1,1/2;,No,No,,357,1
Sonia Fine Knit Ltd,"South Shilmandi, Pachdona",Narsingdi,Dhaka,1600,,1987843096,,1,1/3;,No,Yes,"1/2,3;",1280,1
SONIA Limited.,"PLOT NO. 604, KONDOLBAGH,, TAIBPURm ASHULIA ROAD, SAVAR DHAKA",Dhaka,Dhaka,,,1711568575,,1,1/10;,No,No,All,2300,1
Sonia Sweaters Ltd.,"604 Kondolbagh Taibpur, Ashulia Road, Savar",DHAKA,Dhaka,,2,9289388,,2,1/11; 2/1;,No,No,,2556,6
Sourov Hosiery,"West Isdair, Police Line, Fatullah",Narayanganj,Dhaka,1400,,1819187774,,,,No,No,,200,2
Sourthen Clothing Limited,"Bottola, Zirabo, Ashulia, Dhaka",Dhaka,Dhaka,1341,,,,1,5;,No,No,N/A,464,1
"South East ( Interstoff Group )Gorai, Mirzapur, Tangail",,Tangail,Dhaka,,2,17674,,,"Building 1 ‐ 6 Storied, Building 2 ‐ 2 Storied, Building 3 ‐ ETP, Building 4 ‐ 2 Storied)",No,No,,2300,1
"South East Textile (Interstoff Apparels Ltd) Gorai, Mirzapur",,Tangail,Dhaka,,2,8924030,,8,1/7; 2/3; 3/1; 4/2; 5/2; 6/1; 7/1; 8/1;,No,No,,2500,4
Southend Sweater Co.Ltd.,"Dhour ,Ashutia,Turag",Dhaka,Dhaka,1230,2,8981501,,2,1/3;2/0;,No,No,‐,950,2
POSHAK SHILPA LTD,"Zirobo, Ashulia",Dhaka,Dhaka,1341,,,,4,1/5; 2/2; 3/1; 4/1;,No,No,‐,1103,2
Southern Garments Ltd,"Zirabo, Ashulia, Savar, Dhaka",Dhaka,Dhaka,1341,2,7792449,,1,1/1;,No,No,,859,1
Southern Knitwear Ltd.,"Hizolhati, Baroipara, Kaliakor, Gazipur. (40 km north from shahjalal Airport)",Gazipur,Dhaka,1750,2,8413930,,1,1/5;,No,No,,1280,3
Southern Poshak Shilpa Ltd.,"Zirabo, Ashulia, Savar,",Dhaka,Dhaka,1341,2,7792538,,3,1/5; 2/1; 3/1;,No,No,,600,1
Southwest Composite ltd,"Chandra, Kaliakoir, Gazipur, Dhaka",Gazipur,Dhaka,1710,,1918698050,,,1/1;,No,No,1/1;,60,1
Space Sweater Limited,"Parijat, Konabari, Gazipur",Gazipur,Dhaka,1700,2,9298880,,1,"1/7,",Yes,Yes,"1/7,",700,3
"Sparrow Apparels Ltd.,","Chandona, Laxmipura, Gazipur",Gazipur,Dhaka,,0,914426357810,,2,1/5; 2/2;,No,No,,3876,2
Spectra Sweater Ltd,"31/2 Himardighi, Monnu Nagar, Tongi, Gazipur",Gazipur,Dhaka,1712,2,816296,,1,"1/7,",Yes,Yes,"1/6,",950,3
Ltd.),Nizam Uddin Tower 31/2 ( 1st ‐ 5th Floor) Himardighi Fisons Road,,,,,1713036456,,1,1/6;,Yes,Yes,1/1; 1/2; 1/3; 1/4; 1/5;,580,1
Spencer Design Ltd,"S‐21 Apparels Ltd, Plot‐276, Narshinghapur, Ashulia, Savar, Dhaka",Dhaka,Dhaka,1234,2,7788492,,1,1/1; 2/4;,No,No,"1/1; 2/1,2,3,",800,1
Spicy Fashion,"812‐815, Shawrapara, Mirpur, Dhaka",Dhaka,Dhaka,1216,,1922045866,,,,No,No,,350,1
Spotfame Apparels Ltd.,"Chamudda, Mirar Bazar, Pubail, Gazipur Sadar",Gazipur,Dhaka,,,1711680834,,,,No,No,,,2
SPRING TRADE LTD.,"Konapara, Plot: 42,Zirani Bazar, B.K.S.P, Savar",Dhaka,Dhaka,1340,2,7788087,,4,1/5; 2/6; 3/1; 4/1;,No,No,,2000,3
SQ Birichina Ltd,"Jamirdia, Valuka",Mymensingh,Dhaka,2240,2,98501815,,6,"1/6, 2/6; 3/1; 4/6; 5/1; 6/1;",No,No,,4800,3
SQ Celsius Limited,"Beraiderchala, Keowa, Maona, Sreepur",Gazipur,Dhaka,1740,,1713370890,,4,1/3; 2/3; 3/1; 4/1;,No,No,,4900,5
SQUARE FASHIONS LTD,"ROKEYAPUR, JAMIRDIA, HABIR BARI, VALUKA",Mymensingh,Dhaka,2240,,1711315779,,13,1/1; 2/3; 3/4; 4/4; 5/1; 6/5; 7/5; 8/5; 9/5; 10/5; 11/5; 12/5; 13/2;,No,No,,7000,5
Square Fashions Ltd ‐ Unit 2,"Chandana, Basan Union, Gazipur",Gazipur,Dhaka,1712,,1730728217,,1,1/5;,No,No,,2400,2
"Square Fashions Ltd, Unit‐2",Vogra,Gazipur,Dhaka,1702,,1730337850,,8,1/6; 2/1; 3/1; 4/1; 5/1; 6/1; 7/1; 8/1,No,No,,3900,1
SRT Fashions Ltd.,"Industrial Plot, M 44, Section 14, Dhaka",Dhaka,Dhaka,1216,,,,,,No,No,,,2
UNIT),"CIVIL ENGINEERS CITY,JARUN, KONABARI, GAZIPUR SADAR",Gazipur,Dhaka,1346,,1713062174,,3,1/9; 2/6; 3/11; 2 sheds,No,No,no,17000,1
"Star Garments( Pvt Ltd )Sha‐23, Middle Badda",,Dhaka,Dhaka,1212,2,9814200,,6 1,1/5;,No,No,‐,797,4
Starlet apparel ltd,"Road no.# 01, Plot no.# 223‐224, BSCIC, Fatullah, Narayangonj",Narayanganj,Dhaka,,,1711040200,,1,1/6;,No,No,"1/0,1,2,3,4,5;",200,1
Starlight Sweaters,"Vogra national university Gazipur Sadar, Dhaka",Gazipur,Dhaka,,,1711610393,,1,1/10;,No,No,,6250,7
Steilmann,"11/5, jagannathpur, progoti sarani, bashundhara, dhaka",Dhaka,Dhaka,,,,,,,No,Yes,,,1
Step Three Apparel Ltd,"E‐13, Middle Badda , Dhaka",Dhaka,Dhaka,,,1711542907,,,1/10;,Yes,Yes,6;,450,1
STERLING APPARELS LTD,"Beron, Earpur Union, Ashulia, Savar",Dhaka,Dhaka,,2,77018934,,5,1/8; 2/1; 3/1;,No,Yes,"1/8/0,1,2;",3300,1
Sterling Creations Ltd,"Baron, Earpur Union,Ashulia, Saver",Dhaka,Dhaka,,0,77018934,,1,1/9;,No,No,,3300,2
Sterling Denim Ltd.,"Dhania, Nayarhat, Savar",Dhaka,Dhaka,,2,77888165,,3,1/8; 2/2;1/2;,No,No,,4800,1
STERLING STYLES LTD,"BARON, EARPUR UNION, ASHULIA, SAVAR",Dhaka,Dhaka,,2,8828122,,1,1/7;,No,No,,2500,4
Stilvoll Knitwear Ltd,"Sing bari road, Boro Dewra, Tongi, Gazipur",Gazipur,Dhaka,,2,8913300,,1,1/1;,No,No,,350,2
STITCH APPARELS LIMITED,"DELUX HOUSE#03 (2nd FLOOR), 209/227 KULGAON, BALUCHARA",Chittagong,Chittagong,4214,31,684354,,,"1/5,",No,Yes,"1/0,1;",155,1
Stitch Right Limited,"Plot# B‐5,BSCIC Industrial Estate,Tongi, Gazipur",Gazipur,Dhaka,1710,,1811413365,,1,7;,No,Yes,"1/1,2,3,4,5,6;",1125,2
Stitchtone Apparels Ltd.,"18/19 Strand Road, Champa Tower, Mazirqhat",Chittagong,Chittagong,,31,2851620,,,,No,No,,,3
Stitchwell Designs Ltd (348/1/A Tejgaon),"348/1/A Tejgaon Industrial Area, Tejgaon",Dhaka,Dhaka,1208,2,8891628,,1,1/9;,No,Yes,"1/9;0,1,2,3,5,7;",1252,1
"Stitchwell Designs Ltd (430/1/A, Tejgaon)","430/1/A, Tejgaon Industrial Area",Dhaka,Dhaka,1208,2,8891672,,1,1/8;,No,No,,2200,2
STOFFATEX FASHIONS LIMITED,"7/3 khortoil,Shataish Road,Gazipura,Tongi,Gazipur",Gazipur,Dhaka,,2,9817341,,,"1/7,",No,Yes,"1/6,7;",3500,1
Stylecraft Limited,"1/1, East Chandona, Joydebpur",Gazipur,Dhaka,,2,9257350,,2,"1/5, 1/1;",No,No,,3400,5
Stylo Fashion Garments Ltd.,"Nanduain, No‐2 Kaultia Union, Bhawal Mirzapur Gazipur",,Dhaka,,2,9205081,,1,1/5;,Yes,Yes,All,3187,5
Styrax Fashion Limited,"Plot # 194, DEPZ (Extn. Area) Ganakbari, Savar, Dhaka",Dhaka,Dhaka,1349,2,7701140,,1,1/6;,No,Yes,1/4;,850,2
SUMAN FASHION GARMENTS LTD,"HA 72/1/B MODDAH BADDA, 3&4 FL HOLLAND CENTRE, PRAGATI SARANI",DHAKA,Dhaka,,2,9862647,,1,1/10;,Yes,Yes,"1/2,3,5,8;",1650,1
Sumi Apparels Pvt. Ltd.,"A‐112,113,(west side,)BSCIC,Tongi",Gazipur,Dhaka,1710,2,9817815,,1,"1/5,",No,No,‐,1510,3
Sun Cherry Body Fashions Mfty Ltd.,"Ward 7, Holding E‐44, Chandra, Kaliakoir",Dhaka,Dhaka,,0,682252144,,4,1/5; 2/1; 3/1; 4/1;,No,No,,850,4
SungKwang Apparels Ltd,"Plot No: 1384‐86, 1420‐21, VOGRA, BASON SARAK CHANDONA, GAZIPUR",Gazipur,Dhaka,,2,8812142,,1,1/6;,No,No,,1256,2
Supasox Ltd.,"Rajashon Road, Aicha Noadda, Savar",DHAKA,Dhaka,1340,2,77471597743000,,7,1/5; 2/7; 3/4; 4/1; 5/1; 6/1; 7/1;,No,No,,250,2
Super knitting & Dying mills ltd,"Super knitting complex, baizid bostami road, nasirabad i/a, chittagong",Chittagong,Chittagong,,31,682767,,,,No,No,,,1
SUPREME KNITWEAR LTD,"Adamjee EPZ, Plot # 6‐10, Adamjee EPZ, Siddergonj",Narayanganj,Dhaka,1431,,1720165150,,5,1/3; 2/3; 3/2; 4/1; 5/1;,No,No,,1000,1
Supreme Stitch Ltd.,"WEST SHAILDUBE, KASHIMPUR",Gazipur,Dhaka,1704,,1678038855,,2,1/3; 2/3;,No,No,,686,2
Suravee Garments Limited,"2/C Darus Salam Road, Mirpur",Dhaka,Dhaka,1216,2,7744001,,8 2,1/6; 1/1;,No,No,‐,734,1
Surma Garments Ltd.,"Aicha Noadda, Rajashon Road Savar, Dhaka",Dhaka,Dhaka,,2,8140237,,4,1/6; 2/3; 3/4; 4/3;,No,No,,1700,3
Susuka Knit Ltd,"Yusuf Market, Yarpur, Ashulia, Dhaka",Dhaka,Dhaka,,2,7631737,,1,1/3;,No,No,No,300,2
Swan Jeans Ltd,"258, Mollartak, Uttara, Dhaka",Dhaka,Dhaka,1230,2,8962745,,54 2,1/6; 2/6;,No,Yes,1/2; 2/1;,2186,2
SWAN1 SWEATER,"Ahmed Plaza Ambag Road,Konabari Gazipur",Gazipur,Dhaka,,,1730321048,,1,4;,No,No,N/A,1000,1
Sweater Apparels Ltd.,"Sweater Apparels Ltd. Horinachala, Konabari",Gazipur,Dhaka,1346,2,8412326,,9 1,1/6;,No,Yes,"1/1,2,3,4,5;",800,2
SWEATER COTTAGE LTD.,"Badkalemashar, K.B Bazar, Gazipur",Gazipur,Dhaka,1704,2,9291543,,1,1/2;,No,No,NA,1200,2
SWEATER Makers Ltd.,"Fashion Exposure Ltd. Elias Tower, 4 Harunabad, Pallobi, Mirpur‐12, Dhaka",Dhaka,Dhaka,,2,1713036456,,1,1/9;,No,No,All,700,1
SWEATER Makers Ltd.,"Fame Sweaters Ltd. Choity Complex, 124 Darail Sataish, Tongi, Gazipur",Gazipur,Dhaka,,2,1713036456,,1,1/7;,Yes,Yes,1/GF; 1/1; 1/2; 1/3; 1/4,850,1
SWEATER ZONE LTD,"Naoujoor, Tangail Road, Chandana Chowrasta",GAZIPUR,Dhaka,1702,2,9262371,,,"1/6,",No,No,Not Shared,1750,1
Sweatertech Ltd.,"Plot # 1187, 1214‐1215 Gacha Road, Gazipur",Gazipur,Dhaka,,2,9293215,,2,1/4; 2/5;,No,No,No,995,2
Syntex knitwear Ltd,"Mouchak Kaliakur,Gazipur,Dhaka",Gazipur,Dhaka,,,1711593144,,1,1/7;,No,No,,1837,2
Tafop Apparels Ltd.,"Block‐A, Plot 1, 2, 3 (part), BSCIC I/A, Sagorika Road",Chittagong,Chittagong,,31,750325,,,,No,No,,,1
Tahersons Fashions Limited,"4700/H, Haji Safi Complex, Terminal Connecting Road, Chandgaon",Chittagong,Chittagong,4100,,1724963521,,1,1/6;,No,No,,450,1
Tajir Apparels Ltd.,"Tayub Pur Ashulia, Zirabo, Savar, Dhaka",Dhaka,Dhaka,,,,,,,No,No,,,1
TALISMAN LTD (Unit 1&2),"Plot No: FS‐SFB # 7, DEPZ, Extension Area , Ganakbari, Savar",Dhaka,Dhaka,,2,7788228,,4,1/1; 2/1; 3/1; 4/4;,No,Yes,4/1;,3600,7
Talisman Ltd. (c/o FCI (BD) Ltd),"Plot: 7‐10 & 13‐16, DEPZ(EXT), Ganakbary, Savar, Dhaka",Dhaka,Dhaka,,2,7788872,,1,"1/0, 1/1;",No,No,,2500,3
Tamanna Sweater Ltd,"MC Bazar, Mulaid, Mawna, Sreepur, Gazipur",Gazipur,Dhaka,1704,2,8961086,,2,1/1; 2/1;,No,No,No,1000,1
Tamishna Fashion Wear Ltd,"Plot # 247, Bhadam, Nishatnagar, Tongi, Gazipur Gazipur",,Dhaka,1711,2,8931925,,26 5,"1/7,1/7, 1/5, 1/2, 1/4;",No,No,no,3500,3
Tamishna Fashion Wear Ltd(Unit‐2),"8 no. Mulaid, Sreepur, Gazipur",Gazipur,Dhaka,1740,,1713013579,,,1;,No,No,,620,1
Tammam Design Ltd,"Zirabo, Ashulia, Savar, Dhaka",Dhaka,Dhaka,1341,2,7792901,,,1/8;,Yes,No,2;,500,1
Tanaz Fashions Ltd.,"216,shamim Complex, Sataish Road, Gazipura, Tongli, Gazipur",Gazipur,Dhaka,1712,2,9814071,,,Building 1 ‐ 9 Storied,No,No,,1665,3
TANDEM SWEATERS LTD,"Chambur Khan, Moiner Tech, Uttar Khan, Dhaka Dhaka",,Dhaka,1230,2,8919031,,1,1/6;,No,No,NA,1100,2
Tangon Garments Ltd.,A ‐ 100 Tongi Bisic Industrial estate,Gazipur,Dhaka,1700,,1713034617,,,4;,No,No,,425,1
Tangon Knitwear Ltd.,"242/1 Deobhog Pucca Road, Narayangonj",Narayanganj,Dhaka,1400,2,7644683,,,,No,No,,210,1
"TANİMA KNİT COMPOSİTE LTD (JK GROUP) 10 South Dariapur,Savar, Dhaka",,Dhaka,Dhaka,1340,2,7745034,,35 2,1/6;2/7;,No,No,Not Shared,3350,1
Tanzila Textile Ltd,"Baroypara, Ashulia, Savar, Dhaka",Dhaka,Dhaka,1230,2,524972,,6,1/7; 2/2; 3/3;,No,Yes,1/0‐6; 2/0‐1; 3/0‐ 1;,1200,3
Taqwa Fabrics Ltd.,"Boherachala Gilaberaeed, Kewa, Sreepur",Gazipur,Dhaka,1740,,9606500434,,8,1/6;2/1;3/1;4/1;5/1;6/1;7/1;8/1;,No,No,,1100,1
Tarasima Apparels Limited,"Vill: Golora, P/O:Kaitta, Saturia",Manikgonj,Dhaka,,,1619003767,,5,1/5; 2/2; 3/1; 4/2; 5/2;,No,No,,5100,7
Taratex Fashion Limited,"6/1, Naimuddin Mollah Road, North Augh Para, Tongi Gazipur",Gazipur,Dhaka,1700,2,9815825,,1,1/1; 2/6;,No,No,"1/1; 2/0,1,2,3,4,5,6;",1000,2
Target Fine Wear Industries,"Alludin Chowdhury Tower, Outpara, Chandona Chowrasta, Joydevpu, Gazipur",Gazipur,Dhaka,,,1819234719,,2,1/8; 2/4;,No,No,‐,1815,5
Tasniah Fabrics Ltd.,"Mayapara, Kashimpur",,,,,1713521593,,,,No,No,,,3
Taufiq Sweater Ltd.,"West Masdair, Fatullah, Narayangonj",Narayanganj,Dhaka,,2,7631496,,1,10;,No,No,"1/0,1,2,3,4,5,6,7,8 ,9;",950,6
Tean T‐Shirt Fashion Ltd.,"188 Jatramura,Rupgonj,Narayangonj",Narayanganj,Dhaka,1360,2,8396795,,1,1/6;,No,No,,450,1
TEB Fashion Int. Ltd,"Haji Afajuddin Bhuiyan Plaza(3rd to 5th), 99, Mollartek, Dakkin Khan, Dhaka",Dhaka,Dhaka,1230,2,8919854,,1,"1/7,",Yes,Yes,"1/4,",375,1
Techno Dress Ltd.,"Munna Complex, 228 Dhigirpar, Dewanhat",Chittagong,Chittagong,,31,2513963,,,,No,No,,,2
"Teidem GmbH (Chashara, NARAYANGANJ)","231/6 B.B.Road, Chashara, NARAYANGANJ",Narayanganj,Dhaka,1400,2,8313260,,,,No,No,,,1
Teidem GmbH (Fatullah NARAYANGONJ),"Pl.A‐87,Enayet Nagar Fatullah NARAYANGONJ",Narayanganj,Dhaka,,,,,,,No,No,,,1
"Teidem GmbH (Lalpur, Ftullah)","Lalpur, Ftullah, Narayangonj",Narayanganj,Dhaka,1400,,1817144701,,,,No,No,,,1
TEMAKAW FASHION LTD,"808/1‐2,Begum Rokeya Sharoni,Shewrapara,Mirpur",Dhaka,Dhaka,1216,2,8055422,,,"1/7,",Yes,No,"1/0,1,,2,3,4,5,6;",1007,1
TEX ANDERSON,HOUSE 509 (4th FLOOR); DHAKA,DHAKA,Dhaka,,,,,,,No,No,,,1
Texeurop (BD) Ltd.,"Vogra, Joydevpur",Gazipur,Dhaka,1704,2,9262163,,2,1/8; 2/1;,No,No,,3200,4
TexTech Co. Ltd,"SAFWAN TOWER, SHARIFPUR, MALEK ER BARI, GAZIPUR",Gazipur,Dhaka,,2,9292125,,1,1/4;,No,No,,1100,1
Textile Horizon,"5,Bishuya Kuribari, Mirzapur Union, Gazipur",Gazipur,Dhaka,1703,,1713483928,,,,No,No,,400,1
"Textile trade & services manufacturing Ltd. Dilan Complex, 1st & 2nd fl., Dhaka Road,","Chandona Chowrasta, Gazipur",Gazipur,Dhaka,1702,,1765585702,,,,No,No,,,1
TEXTOWN LIMITED,"Dewan Idris road, Bara Rangamatia, Ashulia",Dhaka,Dhaka,1344,2,8858671,,3,1/7;2/4;3/6;,No,Yes,"1/7;0,1,2,4,6;2/4;0 ,2;3/6;1,2,3,4;",1693,2
Packaging & Printing Ltd.,"Sardagonj, Kashimpur, Gazipur",Gazipur,Dhaka,,2,779006067,,225 1,1 stories building,No,No,N/A,950,1
Thanis Apparels Ltd,"Plot No.SS‐5(East & West) wing factory building, Road No.1 & 2 CEPZ",Chittagong,Chittagong,,,1713101209,,13,1/2;2/1;3/1;4/1;5/1;6/1;7/1;8/1;9 /1;10/1;11/1;12/1;13/1;,No,No,,893,3
THAT'S IT KNIT,"145 NARASINGHPUR, SAVAR",Dhaka,Dhaka,1340,,1811484001,,8,1/1; 2/1; 3/1; 4/1; 5/1; 6/1; 7/1; 8/1;,No,No,,1500,4
That's It Sports Wear Ltd.,"147‐148 East Noroshinghopur,Ashulia, Savar",Dhaka,Dhaka,1341,,1819435287,,,1/11;2/7;3/6;,No,No,N/A,15000,3
The Chittagong Fashion,"Khawaja Complex, CB ‐ 234/9, Kachukhet",Dhaka,Dhaka,,2,8753364,,,,No,No,,,2
The Cloth & Fashion,"Madani Super Market,Hemayetpur,Savar, Dhaka Dhaka",,Dhaka,1340,2,7741418,,1,1/6;,Yes,Yes,6th Floor Building .Ground floor ‐ market ‐2nd to 4th floor of our (CFL)Factory ‐5th & 6th floor in another 2 factory.,850,1
The Delta Composite Knitting,Zarun (South) Kashimpur,Gazipur,Dhaka,,,,,,,No,No,,,5
The Fashion Island Ltd.,"385/1/A, East Rampura,Banasree Road, Dhaka",Dhaka,Dhaka,1219,,1755637292,,3,1/8;2/8;3/7;,No,Yes,1/0 to 8;2/1 to 8;3/3;,1300,1
THE FINERY LİMİTED,"2‐D, Darus Salam Road, Mirpur ‐ 1, Dhaka",Dhaka,Dhaka,1216,2,9014515,,,"1/6,",No,No,Not Shared,1200,1
The Immaculate App. Ltd.,"C‐35, Section‐7,Mirpur C/A, Dhaka",Dhaka,Dhaka,1216,2,8052185,,1,"1/6,",Yes,Yes,"1/2,",350,1
The Immaculate PVT Ltd.,"Section‐1, Mirpur, Dhaka",Dhaka,Dhaka,1216,2,8052185,,1,"1/6,",Yes,Yes,"1/3,",650,1
The Mohammadi Limited (Joar Sahara),"Ka‐76, Joar Sahara Bazar, Badda",Dhaka,Dhaka,1229,31,2580324,,1,1/7;,No,No,1/G/4/5;,599,1
THE NEED APPARELS (PVT) LTD,"154/C Razakhali Road, Chittagong",Chittagong,Chittagong,,,,,,,No,No,,,1
International Trading),"Delta Tower Road No#1/A, Plot No.6810, Tarug Housing, Mohammadpur, Dhaka",Dhaka,Dhaka,1207,,1817047277,,1,1/7;,No,No,All,550,1
The New Delta Apparels Ltd.,"Road 1/A Plot 6,8,10",Dhaka,Dhaka,1207,,1713037956,,,1/4;,No,No,,540,1
The Rose Dresses Ltd.,"Jamgora, Diakhali, Yearpur, Savar",Dhaka,Dhaka,1340,2,7788545,,2,2/7; 2/7;,No,No,,5150,2
The Shanin Clothing Limited,"33 Lolit Mohon Das Lane, BDR Gate no. 1, Lalbag, Dhaka",Dhaka,Dhaka,,,,,,,No,No,,,1
The Shanin Corp,"12/1 Hossain Uddin khan 1st Lane, Lalbag",Dhaka,Dhaka,,2,8615318,,2,1/6; 2/2;,No,No,‐,1345,3
Trading),"964 Shawrapara, Rokeya Sharoni, Mirpur, Dhaka Dhaka",,Dhaka,1216,,1190697138,,1,1/7;,No,No,All,1500,1
The Shanin Ltd,"964 Shawrapara, Begum Rokeya Shoroni",Dhaka,Dhaka,,2,7691251,,2 1,1/9;,No,No,1/8;,620,1
THE WELL TEX LTD,"MULAID, MAWNA, SREEPUR",Gazipur,Dhaka,1740,,55119,,5,1/3; 2/1; 3/1; 4/1; 5/1;,No,No,,2020,6
The Yolk Garments Ltd,"64/A, Purana paltan lane, Kakrail, Dhaka",Dhaka,Dhaka,1000,2,9352878,,1,1/7;,No,Yes,"1/0,1,2;",1200,1
Thina Sweaters ltd,"degerchala,Board bazar",Gazipur,Dhaka,1704,,,,,"1/6,",No,No,,800,1
"Tiffinys Wear Limited.,","Deowaliabari, Konabari, Gazipur",Gazipur,Dhaka,,2,9298791,,1,1/6;,No,No,No,700,3
Titanic Products Limited,"House: 3, 4 & 6. Road: 2 & 3, Section:7, Mirpur Industrial Area",Dhaka,Dhaka,1216,2,9858670,,1,1/9;,No,Yes,"1/9;1,2;",465,1
Titas Knitwear Ltd,"Holding#94,Block#E, Word#1, Kalma Zinzira Road, Zinzira, Savar, Dhaka",Dhaka,Dhaka,1341,2,7743389,,1,"1/2,",No,No,"1/2,",450,1
Titas Sweater Industries Limited,"Kashimpur Road, Konabari, Gazipur",Gazipur,Dhaka,1700,2,8849235,,1,"1/6,",No,No,"1/6,",2200,4
TM FASHIONS LTD,"Hazi Ismail Bhaban, Chandana, Chowrasta, Gazipur Sadar, Gazipur",Gazipur,Dhaka,1702,2,9261158,,1,1/5;,No,Yes,"1/1, 2, 3, 4;",1950,4
T‐Mart Computerised Sweater Ltd.,"28/B Khilkhet Bazar, Khilkhet, Dhaka",Dhaka,Dhaka,,2,9006253,,1,1/8;,No,No,"1/4,5,6,7,8;",474,2
TNZ Apparels Ltd.,"Sha ‐ 74, North Badda, Dhaka",Dhaka,Dhaka,1212,2,8832587,,1,6;,Yes,Yes,"1/3,4,5;",1050,2
Todays Knit Fashion,114/110 Kyempur/Fatullah,NARAYANGANJ Dhaka,,,,,,,,No,No,,,1
Tokio Mode Ltd,"98/173 Choydana, National University, Gazipur",Gazipur,Dhaka,,2,8914098,,1,1/4;,No,No,,631,3
Top Style Sweater Ltd,"Vogra, Bashon Road, Joydevpur, Gazipur",Gazipur,Dhaka,1700,2,9293302,,1,"1/6,",Yes,Yes,"1/6,",940,2
TOPAZ,"240, Tejgaon, Malancha Nagar, Fatullah, Narayanganj",Narayanganj,Dhaka,1400,2,8415126,,3,,No,No,,1200,1
Topaz Dresses Limitted,"E‐6, Middle Badda, Hakim",Dhaka,Dhaka,1212,,1713490041,,1,1/10;,Yes,Yes,"1/4,5,6,7,8,9,",1115,3
Topaz Garments Ltd.,"240, Tejgaon I/A, Dhaka",Dhaka,Dhaka,1208,2,79227,,1,1/4;,Yes,Yes,1/4‐4/4;,1300,2
Torque Fashions Ltd,"Shadu Para, Paragaon, Ashulia, Savar, Dhaka",Dhaka,Dhaka,1340,2,7913975,,2,2/2;,No,No,N/A,650,1
Tory Fashion Wear Ltd,"Dag‐439; Dhour, Turag, Uttara",Dhaka,Dhaka,,,1713388140,,1,1/7;,No,Yes,1/7;,470,1
Tosrifa Industries Ltd.,"Holding: 4/2 A, Gopalpur, Monnunagar, Tongi, Gazipur",Gazipur,Dhaka,1710,2,9817461,,8,1/7; 2/2; 3/1; 4/1; 5/1; 6/1; 7/1; 8/1;,No,Yes,"1/0,1,2,3,5,6; 2/0,1;",1100,5
Total Fashion Ltd.,"Kamtal, Barpara, Bandar, Narayangonj",Narayanganj,Dhaka,,2,8954995,,,,No,No,,,1
Toyo Composite Knit Garments,"1, South Kamalapur Sarder Complex, Dhaka",Dhaka,Dhaka,1000,2,9333629,,,1/6;,Yes,Yes,"1/1,2,3,4,5;",700,4
Trade sweater Factory ltd,"Block‐d,holding‐Ga",Dhaka,Dhaka,,,,,,NA,No,No,NA,,1
Transworld Sweater Ltd.,"Bahadurpur, Bhawal Mirzapur, Rajendrapur",Gazipur,Dhaka,,0,682555053,,,,No,No,,,1
TRICOTEX SWEATERS LTD,"Naoujoor, Tangail Road, Chandana Chowrasta",GAZIPUR,Dhaka,1702,2,9262371,,,"1/6,",No,No,Not Shared,2850,1
TRIPPLE SEVEN,"2,sujat Nagar, Sujat plaza, Mirpur‐12 Dhaka",DHAKA,Dhaka,1216,,,,1,7;,Yes,No,1st floor : market Other floors : Tripple 7,500,2
TROPICA GARMENTS LTD,"63 Mohakhali C/A, Dhaka",Dhaka,Dhaka,1212,2,8881330,,,,No,No,,,1
Trouser Line Ltd.,"Etkhola,Ghoshbagh,Toyobpur, Ashulia,Savar",Dhaka,Dhaka,1341,,1819435287,,1,4;,No,No,N/A,1500,3
Trouser World (PVT) LTD.,"640, Kunia (Targach), P.O‐ National , University, P.S. Joydebpur",Gazipur,Dhaka,,2,9293664,,,,No,No,,,6
Trust Knitwear Industries Ltd.,"Bhabanipur, Gazipur Sadar, Gazipur, Gazipur",Gazipur,Dhaka,,2,8837437,,,,No,No,,,1
TRUST TROUSER,"NO‐3, SUJAT NAGAR,SULTAN MANSION, MIRPUR‐ 12, DHAKA",Dhaka,Dhaka,1216,2,9008091,,,"1/8,",Yes,Yes,"1/5,6,7,8;",1500,1
TRYBE FASHION LTD(Bodystretch),"Holding No 142, Board Bazar, Union Gacha, PO National University, Sadar",Gazipur,Dhaka,,2,9358734,,2,1/7; 2/1;,Yes,No,"1/1,2,3,4,5,6;",300,1
TRZ GARMENTS INDUSTRY LTD.,"Gacha Road, Gacha",Gazipur,Dhaka,,2,8918481,,2,"1/5, 1/1;",No,No,,3350,4
TS Sweater Ltd.,"50, Begum Rokeya Sarani, Mirpur, Dhaka",Dhaka,Dhaka,1216,2,8051350,,,,No,No,,1000,1
T‐Shirt Fashion Ltd.,"74,North Masdair, Ketab Nagar, Fatullah, Narayangonj",Narayanganj,Dhaka,1400,2,1711400747,,,,No,No,,200,1
TTS MANUFACTURING LTD,"Dilan Complex (1st & 2nd floor), Dhaka Road, Chandona Chowrasta, Gazipur",Gazipur,Dhaka,1702,2,92610769256126,,1,"1/7,",Yes,Yes,"1/4,",850,3
Tuba Garments Ltd.,"Plot # 1682, Ananda Nagar, Merul Badda, Badda, Dhaka",Dhaka,Dhaka,,2,8860023,,1,1;,No,No,1/1;,870,2
"TULIP GARMENTS LTD ( CONCORD GROUP) 52, NEW ELEPHANT ROAD, DHAKA",,DHAKA,Dhaka,1205,2,8612927,,,"1/7,",Yes,No,"1/4,5,6,7;",700,1
Tung Hai Knitting & Dyeing Ltd,"Shibrampur BKSP, Joydebpur, Gazipur",Gazipur,Dhaka,,2,7670713,,15 9,1/8; 2/2; 3/2; 4/1; 5/1; 6/1; 7/1; 8/1; 9/1;,No,No,‐,2220,1
Tung Hai Sweaters Limited,"30/2 Darus Salam Road, Industrial Plot No. 2C/1‐ B, Mirpur",Dhaka,Dhaka,1216,2,9007175,,3,1/11; 2/1; 3/1;,No,No,‐,1636,1
TUNIC FASHION LTD,"Plot No.M/2, Main Road No. 1, Section 14, Mirpur",Dhaka,Dhaka,,2,8918111,,1,1/9;,No,Yes,"1/4,5,6,7,8;",1300,2
Turag Garments Hosiery Mills Ltd,"South Panishail, Zirani Bazar Kashimpur, Gazipur, Dhaka",Gazipur,Dhaka,1349,,1730331800,,5,1/7;2/3;3/8;4/4;5/1;,No,No,,2400,8
Tusaka,"PLOT B‐91, BSCIC INDUSTRIAL AREA TONGI, GAZIPUR",Gazipur,Dhaka,,2,9815993,,,,No,No,.ground floor …1st floor..2nd floor this is industrial building 1/2,850,1
TUSUKA APPARELS LTD,"Plot‐B‐91, BSCIC, Tongi I/A, Gazipur",Gazipur,Dhaka,1710,2,9816917,,1,1/7;,No,Yes,"1/4, 5, 6;",800,5
TUSUKA FASHION LTD,"Plot‐10, Block‐B, Tongi Mill Gate, Gazipur",Gazipur,Dhaka,1710,2,9802080,,1,1/0;,No,No,NA,850,4
TUSUKA JEANS & POLO LTD,"Plot‐B‐91, BSCIC, Tongi I/A, Gazipur",Gazipur,Dhaka,1710,2,9815983,,1,1/7;,No,Yes,"1/0, 1, 2, 6;",850,4
TUSUKA JEANS LTD,"Konabari, Neelnagar, Gazipur",Gazipur,Dhaka,1346,2,9298428,,2,1/2; 2/9;,No,Yes,"1/0, 1; 2/5, 6, 7, 8;",2800,4
TUSUKA TROUSERS LTD,"KONABARI, NEELNAGAR",GAZIPUR,Dhaka,,2,8826296,,9,1/9; 2/9; 3/2; 4/4; 5/2; 6/1; 7/1; 8/1; 9/1;,No,No,,8350,5
Tusuka Trousers*Jeans*Processing Ltd,"Konabari, Neelnagar",Dhaka,Dhaka,1700,2,8853748,,5,1/9;2/9;3/2;4/4;5/2;,No,No,,9000,1
Uday Sweaters Ltd,"Masjid Road, Jamtola",Narayanganj,Dhaka,,,,,,NA,No,No,NA,,1
UNIBRA WEAR LTD.,"NO. 80 , NASIRABAD INDUSTRIAL AREA",Chittagong,Chittagong,4210,,681392,,2,1/4; 2/1;,No,No,,1600,1
"Bhangnahati,Sreepur,Gazipur‐1740","South Bhangnahati,Sreepur,Gazipur",Gazipur,Dhaka,1740,,1730090090,,8,6/1; 1/2; 1/3;,No,No,,1380,1
Unilliance Textiles Limited,"South Bhangnahati, Shreepur, Gazipur",Gazipur,Dhaka,1740,2,682552748,,4,2;,Yes,Yes,"1/2; 2/4, 5, 7;",1100,3
Union Apparels Ltd,"110 New Chashara, Jamtala, Narayanganj",Narayanganj,Dhaka,1400,2,9750006,,1,1/5;,No,No,No,350,1
Union Fashion,"2 No. Dakessari, Godnyle,, Narayangonj",Narayanganj,Dhaka,,2,8813793,,,,No,No,,390,1
Union Knitwear Ltd.,"Union Industrial Complex , M.C Bazar , Shishu Palli Plus Road , Mulaid, Tengra, Sreepur, Gazipur",Gazipur,Dhaka,1740,2,682555058,,2,1/5 ; 2/1;,No,Yes,"1/0,1,2,3,4 ; 2/0;",500,3
Union Sportswear Ltd.,"48/3, Kabi Jasim Uddin Road, Pagar, Tongi",Gazipur,Dhaka,,2,9814071,,1,1/6;,No,No,,1150,1
Union Sportswear Ltd. (Bypile Unit),"Saybolt building ,DEPZ road ,Dhamsona , Savar",Dhaka,Dhaka,,2,9813769,,1,1/4;,No,No,,1050,1
Unisense App.Ltd.,"Anik Plaza, Plot 155, Road # 01, Block‐A, Section‐ 12, Mirpur, Dhaka",Dhaka,Dhaka,1216,2,9006881,,1,10;,Yes,Yes,"1/7,8;",400,1
Unison Design Limited,"Plot#B‐365,366,367,BSCIC Industrial Estate shasongaon, Fatullah, Narayanganj",Narayanganj,Dhaka,1240,,,,1,1/8;,No,Yes,"1/2,3,4;",250,1
"United Apparel Industry Ltd. Unit 1House No. 65, G.M. Bari, Satarkul Road North,",Badda,Dhaka,Dhaka,1212,,1756402240,,1,1/6;,No,Yes,1/5;,920,2
"United Apparel Industry Ltd. Unit 2House No. 20, Block B, Ward 5, Shaheed Minnat,","Ali Saraok, Ashulia, Savar",Dhaka,Dhaka,1341,,1756402240,,1,1/4;,No,Yes,1/4;,966,1
United Attires Ltd.,"Enayetnagar, Godnail, Shiddirganj, Narayanganj",Narayanganj,Dhaka,1400,2,7642129,,,,No,No,,,1
United Costume (Pvt) Ltd.,"Enayetnagar, Godnail, Shiddirganj, Narayanganj",Narayanganj,Dhaka,1400,2,7648968,,,,No,No,,,2
United Duying,"Fulhar,Madhonpoor, Narayangonj",Narayanganj,Dhaka,1400,,1913533622,,,1/1;,No,No,1/1;,50,1
United Fashion Trouser Ltd.,"Chaydana, P.O. National University, Gazipur",Gazipur,Dhaka,,2,9291397,,1,1/4;,No,No,No,480,1
United Knitwears (pvt) Ltd.,"Enayetnagar, Godnail, Shiddirganj, Narayanganj",Narayanganj,Dhaka,1400,2,7642129,,,,No,No,,,1
Unitex Knit Wear Ltd,"Bokran Monipur, Hotapara, Porabari Gazipur",Gazipur,Dhaka,1740,2,8913537,,1,",1/3;",No,No,,1650,2
Unitrade Fashions Ltd.,"430/1, Tejgaon I/A, Dhaka",Dhaka,Dhaka,1208,2,9898208,,1,1/4;,No,No,1/4;,690,1
Universal Jeans Ltd,"Plot # 9‐ 11,Sector # 6/A , CEPZ, Chittagong",Chittagong,Chittagong,4223,31,7401367401611,,1,"1/7,",No,No,"1/7,",9500,4
UNIVERSAL MENSWEAR LTD,"POLT‐234‐238, ADAMJEE EPZ",Narayanganj,Dhaka,,2,9898601,,4,1/4; 2/2; 3/1; 4/1;,No,No,,2600,1
Univogue Garments Co. Ltd.,"Sector: 1/A, Plot: 1‐5, Export Processing Zone",Chittagong,Chittagong,,,740723,,2,1/1; 1/1;,No,No,,1350,1
UPDATE APPARELS LTD.,"CHA‐87/C, PROGATI SHARANI, FUJI TRADE CENTER, NORTH BADDA",DHAKA,Dhaka,,2,9892628,,1,1/12;,Yes,Yes,"1/3,4,5;",750,2
Update Fashions Ltd,"227 New, 331 Old, Outer Circular Road, Moghbazar, Dhaka",Dhaka,Dhaka,1217,,1819226649,,,2;,No,No,,550,1
URMI GARMENTS LTD,"235 / B , Tejgaon I/A, Dhaka",Dhaka,Dhaka,1208,2,9882471,,1,1/10;,No,Yes,"1/0, 1, 3, 4, 5, 6;",910,4
UTAH APPARELS LTD,"211, Tejgaon Industrial Area, Dhaka",DHAKA,Dhaka,1208,2,9881294,,,"1/2,",No,No,Not Shared,850,1
UTAH Fashions Ltd,"House 64, Block B, South Shalna, Gazipur Sadar 1703, knitting+ dying ‐ Monipur, Hotapara, Gazipur",Gazipur,Dhaka,1703,2,86111514,,2,"1/7, 1/3;",No,No,,3600,7
UTAH KNITTING AND DYEING LTD.,"Bokran, Monipur, Mirzapur",Gazipur,Dhaka,1749,,1755532949,,5,1/5; 2/4; 3/1; 4/1; 5/1;,No,No,,2200,2
Uttara Knitwears Ltd,"South Panisail, Jirani Bazar, Gazipur",Gazipur,Dhaka,1349,,1724411724,,1,1/4;,No,No,,724,1
Valmont Fashions Ltd.,"Plot # 928‐923 Aziz Complex, Vogra, National University, Joydebpur, Gazipur",Gazipur,Dhaka,,2,9262845,,,,No,No,,,5
VANCOT LIMITED.,"PLOT 18‐20, SECTOR‐3, KEPZ, NORTH PATENGA, EPZ THANA, CHITTAGONG",Chittagong,Chittagong,4204,31,2500264,,,"1/2,",No,No,Not Shared,700,1
Vartual Knitwear Ltd.,"Plot No: S.A 07,08, Karamtola, Pubali, Gazipur",Gazipur,Dhaka,,,,,1,1/5;,No,No,No,450,1
VERSATILE APPARELS LTD,"Haq Square, Chalabon, Moushair, Dakkhin Khan, Uttara, Dhaka",Dhaka,Dhaka,1230,2,7911619,,1,1/9;,No,No,NA,950,2
Versatile Textiles Ltd.,"10, Degerchala, National University",Gazipur,Dhaka,,,1713044093,,,,No,No,,271,1
VERTEX FASHION LTD,"SUPERMARKET ‐1, DARUSSALAM ROAD, MIRPUR‐ 1, DHAKA",Dhaka,Dhaka,1216,2,9003933,,,"1/5,",Yes,No,"1/3,4,5;",1716,2
VERTEX INNOVATIVE APPARELS LTD,"FORKAN TOWER, 360/A, BITAK BAZAR, SHAGORICA, PAHARTALI, PAHARTALI THANA",Chittagong,Chittagong,4219,31,2773657,,,"1/5,",No,Yes,"1/3,4;",400,1
Vertex RMG Division,"Varari, Rajfulbaria, Tetuljhora, Savar, Dhaka",Dhaka,Dhaka,1340,,,,3,1/7; 2/2; 3/2;,No,No,,3800,1
Vertex Wear Limited.,"Varari, Tetuljhora, Rajfulbaria, Hemayetpur, Savar",DHAKA,Dhaka,,2,7743260,,6,"1/7; 2/5, 3/2; 4/2; 5/1; 6/1; 7/1;",No,No,,4000,4
Victory Knittings Ltd,"63/1 BB Road Rajuk Plot No. 24, Narayanganj",Narayanganj,Dhaka,1400,2,7541834,,,,No,No,,,1
Vintage Denim Ltd.,"Gilarchala, Sreepur,Gazipur",Gazipur,Dhaka,1740,2,9801393,,1,1/4;,No,No,,1630,2
Vintage Denim Studio Ltd.,"Plot 99 and 102‐128, Ishwardi EPZ, Ishwardi, Pabna",Ishwardi,Rajshahi,,2,9801393,,3,1/1; 2/1; 3/1;,No,No,,2344,3
Vintage Garments Ltd,"East Narshingpur, Buri Para, Ashulia, Savar",Dhaka,Dhaka,,,1926999756,,1,1/3;,No,No,,850,1
Virtual Bottoms Ltd.,"Plot No‐SA‐179, RS‐1356. Jamgora, Ashulia, Savar, Dhaka",Dhaka,Dhaka,,2,9611778899,,1,5;,No,No,"1/0,1,2,3,4;",600,2
Virtual Fashions Ltd.,"House#51, Block‐D, Bamner Tek Main Road",Dhaka,Dhaka,1230,,1711640683,,1,1/1;,Yes,No,,140,1
Virtual Knit and Leisurewear Ltd,"Karamtola, Plot # SA‐07,08 ,R.S‐11,12,13, Pubail, Gazipur Sadar",Gazipur,Dhaka,1704,2,9815716,,2,1/5; 2/2;,No,No,,470,1
VISION APPARELS (PVT) LTD,"Plot # M‐1/3, Section‐14, Mirpur",Dhaka,Dhaka,,2,8015546,,3,1/9; 2/7; 1/1;,No,No,,2500,3
Vision Composite Knite Ltd.,"B‐47, Purbo Rajashan",Dhaka,Dhaka,1340,2,8015546,,,1/4;2/4;,No,No,,2200,2
Vision Garments Ltd.,"B‐47, Purbo Rajashan, Savar",Dhaka,Dhaka,,2,8019338,,3,1/9; 2/2; 3/1;,No,No,,4100,2
Visual Knitwares Ltd.,"295, Shafi Complex,Hatazari Road, Jalalabad",Chittagong,Chittagong,4214,,1195162481,,1,6;,No,No,N/A,550,2
Viyellatex Limited,"297,Khairtul, Tongi, Gazipur",Gazipur,Dhaka,1712,2,9812925,,576 5,1/6 ; 2/1 ;3/2 ; 4/1; 5/1;,No,No,,5747,6
"Viyellatex Limited ‐ Unit 2Shirin Chowdhury Complex, Vogra, Joydevpur",,Gazipur,Dhaka,1712,2,9813001,,1,1/8;,No,Yes,1/3;,1070,1
V‐Knitwear & Composite Ltd.,"VILL‐MAHANA,UNION‐GOLAKANDAIL,PO‐ BHULTA,PS‐RUPGONJ,DIST‐NARAYANGONJ",Narayanganj,Dhaka,1400,,1711567360,,,1/3;,No,No,Single facility,600,3
Voyager Apparels Ltd,"08 Malibagh Chowdhury Para, Ramna",Dhaka,Dhaka,,2,8321999,,1,1/5;,Yes,No,1/5;,750,5
W Apparels,"295/JA/4, Tali Office Road, Rayer Bazar",,,,,17128724,,,,No,No,,,1
Waltz Fashions,"Badsha Miah School Road, Khailkur National University, Gazipur",Gazipur,Dhaka,,2,9331404,,3,1/5; 2/4; 3/1;,No,No,‐,1181,2
Wave Tex Apparels Ltd,"Plot # B‐132, 133, BSCIC I/A, Shasangaon, Panchaboti, Fatullah, Narayangachh",Narayanganj,Dhaka,,2,7672386,,1,,No,No,,422,2
Wear Mag Limited,"C.E. Tower (17th floor) plot‐I, Block‐E, Avenue‐1, Kalsi Road, Mirpur‐11",Dhaka,Dhaka,1216,2,8010120,,1,1/19;,No,No,,325,1
BANGLADESH.,"385/1EAST RAMPURA (4TH FL.), T.V.AVENUE, DHAKA",DHAKA,Dhaka,1219,2,9360414,,,,No,No,,,1
Wega Stylewise (pvt)Ltd.,"6/10,Shalikchura,Tongi",Gazipur,Dhaka,1704,2,9811353,,1,0;,No,No,‐,1500,3
Weldone Apparel Ltd,"Baraidrchalae, Sreepur, Gazipur",Gazipur,Dhaka,1740,,1929913111,,1,1/4;,No,No,,1600,3
Welform Apparels Ltd.,"44,45,46 Dhaka Export Processing Zone",Dhaka,Dhaka,1349,2,7789159,,5,1/3; 2/2; 3/1; 4/1; 5/1;,No,No,,2500,2
WELL DESIGNERS LTD.,"A/ 23‐24, S‐6, BSCIC 1/A INDUSTRIAL ESTATE, KALURGHAT",CHITTAGONG,Chittagong,,,671604,,1,1/5;,No,No,,2350,1
WELL DRESSES LIMITED,"PLOT# A, 49‐50, BSCIC INDUSTRIAL ESTATE, KALURGHAT",Chittagong,Chittagong,4212,31,671604,,237,"1/5,",No,No,Not Shared,650,1
WELL FASHION LIMITED,"PLOT# 23‐26, BSCIC INDUSTRIAL ESTATE, KALUR GHAT",Chittagong,Chittagong,4212,31,671198,,,"1/5,",No,No,Not Shared,700,1
WELL MART LIMITED,"PLOT# 23‐26, BSCIC INDUSTRIAL ESTATE, KALUR GHAT",Chittagong,Chittagong,4212,31,671198,,,"1/5,",No,No,Not Shared,600,1
Welldone,"Baraider Chala, Sreepur, Gazipur",Gazipur,Dhaka,1740,86,8415623,,1,1/3;,No,No,No,1600,1
West Knitwear Ltd.,"Waxbill Plaza, Sumil Para (Near Moonlight Cinema, Hall), Adamjee Nagar, Shiddirganj",,,,2,7693837,,,,No,No,,,2
Williams Clothing,"Khan Mansion, Ondho Cononi, Norshinhopur, Ashulia, Dhaka",Dhaka,Dhaka,1349,,1711531012,,,,No,No,,260,1
Williams Sweaters Ltd.,"Palashbari, Dhamshuna, Ashulia, Savar",Dhaka,Dhaka,1349,,1711531012,,,,No,No,,450,1
WINDY APPARELS LTD,"140, Baron, Ashulia, Savar",Dhaka,Dhaka,,2,9814071,,1,1/7;,No,No,,1650,6
Winner Wears Limited.,"Noanichola (Taltola), Nishatnagar, Turag",Dhaka,Dhaka,1230,2,9297491,,1,1/1;,No,No,,300,1
Winter Dress Limited,"1 No.Kalma, Dairy Farm, Savar, Dhaka",Dhaka,Dhaka,,2,91940777,,1,1/5;,No,No,"1/0,1,2,3,4;",1100,1
WINTEX FASHIONWEAR LTD,"B/29,Bhai Bhai plaza,Khilkhet, Dhaka",Dhaka,Dhaka,1229,2,8919522,,1,1/10;,Yes,Yes,"1/2, 3, 4, 5;",315,1
Wisteria Textiles Ltd.,"Baraiderchala, Sreepur, Gazipur",Gazipur,Dhaka,,2,8917183,,6,1/2; 2/1;3/1;4/1;5/1;6/1;,No,No,"1/0,1; 2/0;3/0;4/0;5/0;6/ 0;",1300,6
Wool tex sweaters ltd,"Shewrapara,Mirpur‐10",Dhaka,Dhaka,1216,2,8412777,,,"1/4,",Yes,No,,300,1
Woolen & Wool Limited,"khailkur, Bat Tala Road, Board Bazar, Gazipur",Gazipur,Dhaka,1704,2,9293148,,1,"1/6,",Yes,Yes,"1/3,",600,1
World Victory Garments Ltd.,Satmosjid Super Market (1st Floor) Mohammadpur,Dhaka,Dhaka,,2,8123290,,,,No,No,,,1
Yasin Knittex Ind. Ltd,"South Panishail zerani bazar, BKSP, Gazipur, Dhaka",Gazipur,Dhaka,,,1711591280,,2,1/2;1/8;,No,No,,1353,2
YK KNITWEAR LIMITED,"PLOT NO. S‐7 & S‐8 , BSCIC. IND. ESTATE KONABARI",GAZIPUR,Dhaka,1346,2,8824539,,,6;,No,No,,912,2
Young 4 Ever,"Plot No. B‐89‐90, Bscic I/A, Fatullah",Narayanganj,Dhaka,,,,,,,No,No,,,1
Young International,"Plot No. 32‐36, Sector 5",Chittagong,Chittagong,,,,,,,No,No,,,6
YOUNGONE BD LTD,"Plot 1‐4, 9‐12, Dhaka Export Processing Zone (OLD), Ganakbari, Savar",Dhaka,Dhaka,1349,2,7789025,,1,1/4;,No,Yes,"1/0,1/1,1/2,1/4;",7669,1
Your Fashion Sweater Limited.,"Gilar Chala, Masterbari, Mouna, Sreepur",Gazipur,Dhaka,,0,682552215,,,,No,No,,,1
Youth Fashion Ltd.,"Youth Tower, 822/2 Rokeya Sharani, Dhaka",Dhaka,Dhaka,1216,2,8052343,,1,1/10;,No,Yes,"1/‐ 1,0,1,2,3,4,7,8,9;",350,2
YOUTH GROUP,"822/2, Begum Rokeya Sharoni,Shewrapara,Dhaka",DHAKA,Dhaka,1216,2,8052343,,105,"1/9,",No,No,Not Shared,1200,1
Zaara Composite Textiles Ltd.,"Surabari, Kashimpur, Gazipur",Gazipur,Dhaka,,2,8916766,,2,1/6; 2/1;,No,No,"1/0,1,2,3,4,5; 2/0;",1400,2
Zaara Jeans & Knitwear Ltd.,"1/E, 13‐14, Zoo Road, Mollik Tower, 4th&5th Floor, Mirpur I",Dhaka,Dhaka,1216,86,8061180,,1,1/15;,Yes,Yes,1/2;,950,3
Zaber & Zubair Fabrics,"Pagar, Tongi",Gazipur,Dhaka,1710,2,9804335,,12,1/3; 2/5; 3/4; 4/4; 5/7; 8/1; 9/1; 10/1; 11/1; 12/1;,No,No,‐,7500,11
"Zahintex Industries Limited, Unit ‐ 09","BISHIA KURIBARI, MIRZAPUR",GAZIPUR,Dhaka,1704,,1730328850,,,1/1;,No,No,,46,1
Zahintex Industries Ltd.,"Bokran, Monipur, Dhaka",Dhaka,Dhaka,1741,86,8932813,,2,1/6; 1/1; 2/1; 3/1; 4/1;,No,No,,2800,7
Zahintex Industries Ltd. Unit 5/6,"Araisha Prashad,Kaultia",Gazipur,Dhaka,1740,2,8931938,,1,"1/6,",No,No,,2600,2
Zayantex Limited,"Shamim Complex (3Rd Floor), Plot ‐ 216, Sataish Road, Gazipura, Tongi, Gazipur",Gazipur,Dhaka,1712,2,9892565,,1,1/8;,No,Yes,"1/4,",490,1
Zeysha Fashion Wear Ltd,Hemayetpur,Dhaka,Dhaka,1340,,1672326556,,,1/5;,No,No,,500,2
Zon Ron Sweaters Ltd.,"Nischchintapur, Ashulia, Depz Road, Savar",Dhaka,Dhaka,1349,,1711891974,,,,No,No,,2115,1
Zoom Sweaters Ltd,"13 Dailla, Demra , Dhaka",Dhaka,Dhaka,1663,2,7402140,,1,1/7;,No,Yes,No,1200,2
Zxy apparel manufacturing ltd.,"Plot No‐ 1, sector‐7, C.E.P.Z, Chittagong",Chittagong,Chittagong,4223,2,740494,,1,1/1;,No,No,,710,1
Zyta Apparels Ltd.,"Plot # 4, Milk Vita Road, Section # 7, Mirpur",Dhaka,Dhaka,1216,2,8836341,,1,1/10;,No,No,All,1200,1
